,name,since,address,province,postcode,city,url
0,KOLOSEUM NIERUCHOMOŚCI,09.08.2012,Domaniewska 37/31G,mazowieckie,02-672,Warszawa,https://koloseum-nieruchomosci.otodom.pl
1,Freedom Nieruchomości Franczyza,17.04.2018,Pokorna 2 lok. U13,mazowieckie,00-199,Warszawa,https://www.otodom.pl/shop/freedom-nieruchomosci-franczyza-IDh1mU/
2,Expander Advisors,30.04.2015,Ul. Inflancka 4b,mazowieckie,00-189,Warszawa,https://www.otodom.pl/shop/expander-advisors-ID3ICK/
3,Biuro sprzedaży,02.11.2015,Marynarska 21 lok 6,mazowieckie,02-674,Warszawa,https://N-plus.otodom.pl
4,Metrohouse  Franchise S.A.,02.07.2018,Żelazna 28/30,mazowieckie,00-832,Warszawa,https://metrohouse-franchise.otodom.pl
5,Maxon Nieruchomosci Sp. z o.o.,28.06.2018,Powązkowska 44C,mazowieckie,01-797,Warszawa,https://www.otodom.pl/shop/maxon-nieruchomosci-sp-z-o-o-IDiDsI/
6,AdReM Nieruchomości Sp z o.o.,22.01.2018,Bukowińska 24a/34,mazowieckie,02-703,Warszawa,https://adremwarszawa.otodom.pl
7,Retalia Nieruchomości,12.10.2017,Grzybowska 87,mazowieckie,00-844,Warszawa,https://www.otodom.pl/shop/retalia-nieruchomosci-IDcRRe/
8,REALS Nieruchomości sp. z o.o.,20.04.2018,Grzybowska 2B lok. 83,mazowieckie,00-131,Warszawa,https://www.otodom.pl/shop/reals-nieruchomosci-sp-z-o-o-IDgTq0/
9,Wilsons Nieruchomości Sp. z o.o.,22.02.2018,Świętokrzyska 20 lok 311,mazowieckie,00-002,Warszawa,https://wilsons.otodom.pl
10,Mzuri Sp. z o.o.,14.01.2016,Aleja Niepodległości 221/1,mazowieckie,02-087,Warszawa,https://mzuri.otodom.pl
11,Sadyba Metrohouse,23.02.2017,Powsińska 34,mazowieckie,02-903,Warszawa,https://metrohousesadyba.otodom.pl
12,Lions Estate Sp. z o o.,09.09.2016,Wiejska 11/13,mazowieckie,00-480,Warszawa,https://lionsestate.otodom.pl
13,Axi Immo Group Sp. z o.o.,14.04.2011,Twarda 18,mazowieckie,00-105,Warszawa,https://axi.otodom.pl
14,INVESTORIUS Sp. z o.o.,09.01.2015,Śniadeckich 17,mazowieckie,00-654,Warszawa,https://investorius.otodom.pl
15,Euro-House Nieruchomości komercyjne,04.02.2014,ul. Braci Wagów 20 lok u1,mazowieckie,02-791,Warszawa,https://www.otodom.pl/shop/euro-house-nieruchomosci-komercyjne-ID2KPJ/
16,Biuro Na Miarę,20.02.2018,Nowy Świat 47,mazowieckie,00-042,Warszawa,https://biuronamiare.otodom.pl
17,Flatcare - nowoczesny zarządca nieruchomości,02.12.2019,Kępa Tarchomińska 6C/1/2,mazowieckie,03-113,Warszawa,https://flatcare.otodom.pl
18,En Casa Premium Real Estate,19.11.2014,Studencka 55,mazowieckie,02-735,Warszawa,https://encasa.otodom.pl
19,PARTNER HOUSE GROUP,09.07.2020,Wiertnicza 45,mazowieckie,02-953,Warszawa,https://www.otodom.pl/shop/partner-house-group-IDwtSy/
20,KOLOSEUM NIERUCHOMOŚCI,09.08.2012,Domaniewska 37/31G,mazowieckie,02-672,Warszawa,https://koloseum-nieruchomosci.otodom.pl
21,Freedom Nieruchomości Franczyza,17.04.2018,Pokorna 2 lok. U13,mazowieckie,00-199,Warszawa,https://www.otodom.pl/shop/freedom-nieruchomosci-franczyza-IDh1mU/
22,Expander Advisors,30.04.2015,Ul. Inflancka 4b,mazowieckie,00-189,Warszawa,https://www.otodom.pl/shop/expander-advisors-ID3ICK/
23,Biuro sprzedaży,02.11.2015,Marynarska 21 lok 6,mazowieckie,02-674,Warszawa,https://N-plus.otodom.pl
24,Metrohouse  Franchise S.A.,02.07.2018,Żelazna 28/30,mazowieckie,00-832,Warszawa,https://metrohouse-franchise.otodom.pl
25,Maxon Nieruchomosci Sp. z o.o.,28.06.2018,Powązkowska 44C,mazowieckie,01-797,Warszawa,https://www.otodom.pl/shop/maxon-nieruchomosci-sp-z-o-o-IDiDsI/
26,AdReM Nieruchomości Sp z o.o.,22.01.2018,Bukowińska 24a/34,mazowieckie,02-703,Warszawa,https://adremwarszawa.otodom.pl
27,Retalia Nieruchomości,12.10.2017,Grzybowska 87,mazowieckie,00-844,Warszawa,https://www.otodom.pl/shop/retalia-nieruchomosci-IDcRRe/
28,REALS Nieruchomości sp. z o.o.,20.04.2018,Grzybowska 2B lok. 83,mazowieckie,00-131,Warszawa,https://www.otodom.pl/shop/reals-nieruchomosci-sp-z-o-o-IDgTq0/
29,Wilsons Nieruchomości Sp. z o.o.,22.02.2018,Świętokrzyska 20 lok 311,mazowieckie,00-002,Warszawa,https://wilsons.otodom.pl
30,Mzuri Sp. z o.o.,14.01.2016,Aleja Niepodległości 221/1,mazowieckie,02-087,Warszawa,https://mzuri.otodom.pl
31,Sadyba Metrohouse,23.02.2017,Powsińska 34,mazowieckie,02-903,Warszawa,https://metrohousesadyba.otodom.pl
32,Lions Estate Sp. z o o.,09.09.2016,Wiejska 11/13,mazowieckie,00-480,Warszawa,https://lionsestate.otodom.pl
33,Axi Immo Group Sp. z o.o.,14.04.2011,Twarda 18,mazowieckie,00-105,Warszawa,https://axi.otodom.pl
34,INVESTORIUS Sp. z o.o.,09.01.2015,Śniadeckich 17,mazowieckie,00-654,Warszawa,https://investorius.otodom.pl
35,Euro-House Nieruchomości komercyjne,04.02.2014,ul. Braci Wagów 20 lok u1,mazowieckie,02-791,Warszawa,https://www.otodom.pl/shop/euro-house-nieruchomosci-komercyjne-ID2KPJ/
36,Biuro Na Miarę,20.02.2018,Nowy Świat 47,mazowieckie,00-042,Warszawa,https://biuronamiare.otodom.pl
37,Flatcare - nowoczesny zarządca nieruchomości,02.12.2019,Kępa Tarchomińska 6C/1/2,mazowieckie,03-113,Warszawa,https://flatcare.otodom.pl
38,En Casa Premium Real Estate,19.11.2014,Studencka 55,mazowieckie,02-735,Warszawa,https://encasa.otodom.pl
39,PARTNER HOUSE GROUP,09.07.2020,Wiertnicza 45,mazowieckie,02-953,Warszawa,https://www.otodom.pl/shop/partner-house-group-IDwtSy/
40,KOLOSEUM NIERUCHOMOŚCI,09.08.2012,Domaniewska 37/31G,mazowieckie,02-672,Warszawa,https://koloseum-nieruchomosci.otodom.pl
41,Freedom Nieruchomości Franczyza,17.04.2018,Pokorna 2 lok. U13,mazowieckie,00-199,Warszawa,https://www.otodom.pl/shop/freedom-nieruchomosci-franczyza-IDh1mU/
42,Expander Advisors,30.04.2015,Ul. Inflancka 4b,mazowieckie,00-189,Warszawa,https://www.otodom.pl/shop/expander-advisors-ID3ICK/
43,Biuro sprzedaży,02.11.2015,Marynarska 21 lok 6,mazowieckie,02-674,Warszawa,https://N-plus.otodom.pl
44,Metrohouse  Franchise S.A.,02.07.2018,Żelazna 28/30,mazowieckie,00-832,Warszawa,https://metrohouse-franchise.otodom.pl
45,Maxon Nieruchomosci Sp. z o.o.,28.06.2018,Powązkowska 44C,mazowieckie,01-797,Warszawa,https://www.otodom.pl/shop/maxon-nieruchomosci-sp-z-o-o-IDiDsI/
46,AdReM Nieruchomości Sp z o.o.,22.01.2018,Bukowińska 24a/34,mazowieckie,02-703,Warszawa,https://adremwarszawa.otodom.pl
47,Retalia Nieruchomości,12.10.2017,Grzybowska 87,mazowieckie,00-844,Warszawa,https://www.otodom.pl/shop/retalia-nieruchomosci-IDcRRe/
48,REALS Nieruchomości sp. z o.o.,20.04.2018,Grzybowska 2B lok. 83,mazowieckie,00-131,Warszawa,https://www.otodom.pl/shop/reals-nieruchomosci-sp-z-o-o-IDgTq0/
49,Wilsons Nieruchomości Sp. z o.o.,22.02.2018,Świętokrzyska 20 lok 311,mazowieckie,00-002,Warszawa,https://wilsons.otodom.pl
50,Mzuri Sp. z o.o.,14.01.2016,Aleja Niepodległości 221/1,mazowieckie,02-087,Warszawa,https://mzuri.otodom.pl
51,Sadyba Metrohouse,23.02.2017,Powsińska 34,mazowieckie,02-903,Warszawa,https://metrohousesadyba.otodom.pl
52,Lions Estate Sp. z o o.,09.09.2016,Wiejska 11/13,mazowieckie,00-480,Warszawa,https://lionsestate.otodom.pl
53,Axi Immo Group Sp. z o.o.,14.04.2011,Twarda 18,mazowieckie,00-105,Warszawa,https://axi.otodom.pl
54,INVESTORIUS Sp. z o.o.,09.01.2015,Śniadeckich 17,mazowieckie,00-654,Warszawa,https://investorius.otodom.pl
55,Euro-House Nieruchomości komercyjne,04.02.2014,ul. Braci Wagów 20 lok u1,mazowieckie,02-791,Warszawa,https://www.otodom.pl/shop/euro-house-nieruchomosci-komercyjne-ID2KPJ/
56,Biuro Na Miarę,20.02.2018,Nowy Świat 47,mazowieckie,00-042,Warszawa,https://biuronamiare.otodom.pl
57,Flatcare - nowoczesny zarządca nieruchomości,02.12.2019,Kępa Tarchomińska 6C/1/2,mazowieckie,03-113,Warszawa,https://flatcare.otodom.pl
58,En Casa Premium Real Estate,19.11.2014,Studencka 55,mazowieckie,02-735,Warszawa,https://encasa.otodom.pl
59,PARTNER HOUSE GROUP,09.07.2020,Wiertnicza 45,mazowieckie,02-953,Warszawa,https://www.otodom.pl/shop/partner-house-group-IDwtSy/
60,KOLOSEUM NIERUCHOMOŚCI,09.08.2012,Domaniewska 37/31G,mazowieckie,02-672,Warszawa,https://koloseum-nieruchomosci.otodom.pl
61,Freedom Nieruchomości Franczyza,17.04.2018,Pokorna 2 lok. U13,mazowieckie,00-199,Warszawa,https://www.otodom.pl/shop/freedom-nieruchomosci-franczyza-IDh1mU/
62,Expander Advisors,30.04.2015,Ul. Inflancka 4b,mazowieckie,00-189,Warszawa,https://www.otodom.pl/shop/expander-advisors-ID3ICK/
63,Biuro sprzedaży,02.11.2015,Marynarska 21 lok 6,mazowieckie,02-674,Warszawa,https://N-plus.otodom.pl
64,Metrohouse  Franchise S.A.,02.07.2018,Żelazna 28/30,mazowieckie,00-832,Warszawa,https://metrohouse-franchise.otodom.pl
65,Maxon Nieruchomosci Sp. z o.o.,28.06.2018,Powązkowska 44C,mazowieckie,01-797,Warszawa,https://www.otodom.pl/shop/maxon-nieruchomosci-sp-z-o-o-IDiDsI/
66,AdReM Nieruchomości Sp z o.o.,22.01.2018,Bukowińska 24a/34,mazowieckie,02-703,Warszawa,https://adremwarszawa.otodom.pl
67,Retalia Nieruchomości,12.10.2017,Grzybowska 87,mazowieckie,00-844,Warszawa,https://www.otodom.pl/shop/retalia-nieruchomosci-IDcRRe/
68,REALS Nieruchomości sp. z o.o.,20.04.2018,Grzybowska 2B lok. 83,mazowieckie,00-131,Warszawa,https://www.otodom.pl/shop/reals-nieruchomosci-sp-z-o-o-IDgTq0/
69,Wilsons Nieruchomości Sp. z o.o.,22.02.2018,Świętokrzyska 20 lok 311,mazowieckie,00-002,Warszawa,https://wilsons.otodom.pl
70,Mzuri Sp. z o.o.,14.01.2016,Aleja Niepodległości 221/1,mazowieckie,02-087,Warszawa,https://mzuri.otodom.pl
71,Sadyba Metrohouse,23.02.2017,Powsińska 34,mazowieckie,02-903,Warszawa,https://metrohousesadyba.otodom.pl
72,Lions Estate Sp. z o o.,09.09.2016,Wiejska 11/13,mazowieckie,00-480,Warszawa,https://lionsestate.otodom.pl
73,Axi Immo Group Sp. z o.o.,14.04.2011,Twarda 18,mazowieckie,00-105,Warszawa,https://axi.otodom.pl
74,INVESTORIUS Sp. z o.o.,09.01.2015,Śniadeckich 17,mazowieckie,00-654,Warszawa,https://investorius.otodom.pl
75,Euro-House Nieruchomości komercyjne,04.02.2014,ul. Braci Wagów 20 lok u1,mazowieckie,02-791,Warszawa,https://www.otodom.pl/shop/euro-house-nieruchomosci-komercyjne-ID2KPJ/
76,Biuro Na Miarę,20.02.2018,Nowy Świat 47,mazowieckie,00-042,Warszawa,https://biuronamiare.otodom.pl
77,Flatcare - nowoczesny zarządca nieruchomości,02.12.2019,Kępa Tarchomińska 6C/1/2,mazowieckie,03-113,Warszawa,https://flatcare.otodom.pl
78,En Casa Premium Real Estate,19.11.2014,Studencka 55,mazowieckie,02-735,Warszawa,https://encasa.otodom.pl
79,PARTNER HOUSE GROUP,09.07.2020,Wiertnicza 45,mazowieckie,02-953,Warszawa,https://www.otodom.pl/shop/partner-house-group-IDwtSy/
80,KOLOSEUM NIERUCHOMOŚCI,09.08.2012,Domaniewska 37/31G,mazowieckie,02-672,Warszawa,https://koloseum-nieruchomosci.otodom.pl
81,Freedom Nieruchomości Franczyza,17.04.2018,Pokorna 2 lok. U13,mazowieckie,00-199,Warszawa,https://www.otodom.pl/shop/freedom-nieruchomosci-franczyza-IDh1mU/
82,Expander Advisors,30.04.2015,Ul. Inflancka 4b,mazowieckie,00-189,Warszawa,https://www.otodom.pl/shop/expander-advisors-ID3ICK/
83,Biuro sprzedaży,02.11.2015,Marynarska 21 lok 6,mazowieckie,02-674,Warszawa,https://N-plus.otodom.pl
84,Metrohouse  Franchise S.A.,02.07.2018,Żelazna 28/30,mazowieckie,00-832,Warszawa,https://metrohouse-franchise.otodom.pl
85,Maxon Nieruchomosci Sp. z o.o.,28.06.2018,Powązkowska 44C,mazowieckie,01-797,Warszawa,https://www.otodom.pl/shop/maxon-nieruchomosci-sp-z-o-o-IDiDsI/
86,AdReM Nieruchomości Sp z o.o.,22.01.2018,Bukowińska 24a/34,mazowieckie,02-703,Warszawa,https://adremwarszawa.otodom.pl
87,Retalia Nieruchomości,12.10.2017,Grzybowska 87,mazowieckie,00-844,Warszawa,https://www.otodom.pl/shop/retalia-nieruchomosci-IDcRRe/
88,REALS Nieruchomości sp. z o.o.,20.04.2018,Grzybowska 2B lok. 83,mazowieckie,00-131,Warszawa,https://www.otodom.pl/shop/reals-nieruchomosci-sp-z-o-o-IDgTq0/
89,Wilsons Nieruchomości Sp. z o.o.,22.02.2018,Świętokrzyska 20 lok 311,mazowieckie,00-002,Warszawa,https://wilsons.otodom.pl
90,Mzuri Sp. z o.o.,14.01.2016,Aleja Niepodległości 221/1,mazowieckie,02-087,Warszawa,https://mzuri.otodom.pl
91,Sadyba Metrohouse,23.02.2017,Powsińska 34,mazowieckie,02-903,Warszawa,https://metrohousesadyba.otodom.pl
92,Lions Estate Sp. z o o.,09.09.2016,Wiejska 11/13,mazowieckie,00-480,Warszawa,https://lionsestate.otodom.pl
93,Axi Immo Group Sp. z o.o.,14.04.2011,Twarda 18,mazowieckie,00-105,Warszawa,https://axi.otodom.pl
94,INVESTORIUS Sp. z o.o.,09.01.2015,Śniadeckich 17,mazowieckie,00-654,Warszawa,https://investorius.otodom.pl
95,Euro-House Nieruchomości komercyjne,04.02.2014,ul. Braci Wagów 20 lok u1,mazowieckie,02-791,Warszawa,https://www.otodom.pl/shop/euro-house-nieruchomosci-komercyjne-ID2KPJ/
96,Biuro Na Miarę,20.02.2018,Nowy Świat 47,mazowieckie,00-042,Warszawa,https://biuronamiare.otodom.pl
97,Flatcare - nowoczesny zarządca nieruchomości,02.12.2019,Kępa Tarchomińska 6C/1/2,mazowieckie,03-113,Warszawa,https://flatcare.otodom.pl
98,En Casa Premium Real Estate,19.11.2014,Studencka 55,mazowieckie,02-735,Warszawa,https://encasa.otodom.pl
99,PARTNER HOUSE GROUP,09.07.2020,Wiertnicza 45,mazowieckie,02-953,Warszawa,https://www.otodom.pl/shop/partner-house-group-IDwtSy/
100,KOLOSEUM NIERUCHOMOŚCI,09.08.2012,Domaniewska 37/31G,mazowieckie,02-672,Warszawa,https://koloseum-nieruchomosci.otodom.pl
101,Freedom Nieruchomości Franczyza,17.04.2018,Pokorna 2 lok. U13,mazowieckie,00-199,Warszawa,https://www.otodom.pl/shop/freedom-nieruchomosci-franczyza-IDh1mU/
102,Expander Advisors,30.04.2015,Ul. Inflancka 4b,mazowieckie,00-189,Warszawa,https://www.otodom.pl/shop/expander-advisors-ID3ICK/
103,Biuro sprzedaży,02.11.2015,Marynarska 21 lok 6,mazowieckie,02-674,Warszawa,https://N-plus.otodom.pl
104,Metrohouse  Franchise S.A.,02.07.2018,Żelazna 28/30,mazowieckie,00-832,Warszawa,https://metrohouse-franchise.otodom.pl
105,Maxon Nieruchomosci Sp. z o.o.,28.06.2018,Powązkowska 44C,mazowieckie,01-797,Warszawa,https://www.otodom.pl/shop/maxon-nieruchomosci-sp-z-o-o-IDiDsI/
106,AdReM Nieruchomości Sp z o.o.,22.01.2018,Bukowińska 24a/34,mazowieckie,02-703,Warszawa,https://adremwarszawa.otodom.pl
107,Retalia Nieruchomości,12.10.2017,Grzybowska 87,mazowieckie,00-844,Warszawa,https://www.otodom.pl/shop/retalia-nieruchomosci-IDcRRe/
108,REALS Nieruchomości sp. z o.o.,20.04.2018,Grzybowska 2B lok. 83,mazowieckie,00-131,Warszawa,https://www.otodom.pl/shop/reals-nieruchomosci-sp-z-o-o-IDgTq0/
109,Wilsons Nieruchomości Sp. z o.o.,22.02.2018,Świętokrzyska 20 lok 311,mazowieckie,00-002,Warszawa,https://wilsons.otodom.pl
110,Mzuri Sp. z o.o.,14.01.2016,Aleja Niepodległości 221/1,mazowieckie,02-087,Warszawa,https://mzuri.otodom.pl
111,Sadyba Metrohouse,23.02.2017,Powsińska 34,mazowieckie,02-903,Warszawa,https://metrohousesadyba.otodom.pl
112,Lions Estate Sp. z o o.,09.09.2016,Wiejska 11/13,mazowieckie,00-480,Warszawa,https://lionsestate.otodom.pl
113,Axi Immo Group Sp. z o.o.,14.04.2011,Twarda 18,mazowieckie,00-105,Warszawa,https://axi.otodom.pl
114,INVESTORIUS Sp. z o.o.,09.01.2015,Śniadeckich 17,mazowieckie,00-654,Warszawa,https://investorius.otodom.pl
115,Euro-House Nieruchomości komercyjne,04.02.2014,ul. Braci Wagów 20 lok u1,mazowieckie,02-791,Warszawa,https://www.otodom.pl/shop/euro-house-nieruchomosci-komercyjne-ID2KPJ/
116,Biuro Na Miarę,20.02.2018,Nowy Świat 47,mazowieckie,00-042,Warszawa,https://biuronamiare.otodom.pl
117,Flatcare - nowoczesny zarządca nieruchomości,02.12.2019,Kępa Tarchomińska 6C/1/2,mazowieckie,03-113,Warszawa,https://flatcare.otodom.pl
118,En Casa Premium Real Estate,19.11.2014,Studencka 55,mazowieckie,02-735,Warszawa,https://encasa.otodom.pl
119,PARTNER HOUSE GROUP,09.07.2020,Wiertnicza 45,mazowieckie,02-953,Warszawa,https://www.otodom.pl/shop/partner-house-group-IDwtSy/
120,KOLOSEUM NIERUCHOMOŚCI,09.08.2012,Domaniewska 37/31G,mazowieckie,02-672,Warszawa,https://koloseum-nieruchomosci.otodom.pl
121,Freedom Nieruchomości Franczyza,17.04.2018,Pokorna 2 lok. U13,mazowieckie,00-199,Warszawa,https://www.otodom.pl/shop/freedom-nieruchomosci-franczyza-IDh1mU/
122,Expander Advisors,30.04.2015,Ul. Inflancka 4b,mazowieckie,00-189,Warszawa,https://www.otodom.pl/shop/expander-advisors-ID3ICK/
123,Biuro sprzedaży,02.11.2015,Marynarska 21 lok 6,mazowieckie,02-674,Warszawa,https://N-plus.otodom.pl
124,Metrohouse  Franchise S.A.,02.07.2018,Żelazna 28/30,mazowieckie,00-832,Warszawa,https://metrohouse-franchise.otodom.pl
125,Maxon Nieruchomosci Sp. z o.o.,28.06.2018,Powązkowska 44C,mazowieckie,01-797,Warszawa,https://www.otodom.pl/shop/maxon-nieruchomosci-sp-z-o-o-IDiDsI/
126,AdReM Nieruchomości Sp z o.o.,22.01.2018,Bukowińska 24a/34,mazowieckie,02-703,Warszawa,https://adremwarszawa.otodom.pl
127,Retalia Nieruchomości,12.10.2017,Grzybowska 87,mazowieckie,00-844,Warszawa,https://www.otodom.pl/shop/retalia-nieruchomosci-IDcRRe/
128,REALS Nieruchomości sp. z o.o.,20.04.2018,Grzybowska 2B lok. 83,mazowieckie,00-131,Warszawa,https://www.otodom.pl/shop/reals-nieruchomosci-sp-z-o-o-IDgTq0/
129,Wilsons Nieruchomości Sp. z o.o.,22.02.2018,Świętokrzyska 20 lok 311,mazowieckie,00-002,Warszawa,https://wilsons.otodom.pl
130,Mzuri Sp. z o.o.,14.01.2016,Aleja Niepodległości 221/1,mazowieckie,02-087,Warszawa,https://mzuri.otodom.pl
131,Sadyba Metrohouse,23.02.2017,Powsińska 34,mazowieckie,02-903,Warszawa,https://metrohousesadyba.otodom.pl
132,Lions Estate Sp. z o o.,09.09.2016,Wiejska 11/13,mazowieckie,00-480,Warszawa,https://lionsestate.otodom.pl
133,Axi Immo Group Sp. z o.o.,14.04.2011,Twarda 18,mazowieckie,00-105,Warszawa,https://axi.otodom.pl
134,INVESTORIUS Sp. z o.o.,09.01.2015,Śniadeckich 17,mazowieckie,00-654,Warszawa,https://investorius.otodom.pl
135,Euro-House Nieruchomości komercyjne,04.02.2014,ul. Braci Wagów 20 lok u1,mazowieckie,02-791,Warszawa,https://www.otodom.pl/shop/euro-house-nieruchomosci-komercyjne-ID2KPJ/
136,Biuro Na Miarę,20.02.2018,Nowy Świat 47,mazowieckie,00-042,Warszawa,https://biuronamiare.otodom.pl
137,Flatcare - nowoczesny zarządca nieruchomości,02.12.2019,Kępa Tarchomińska 6C/1/2,mazowieckie,03-113,Warszawa,https://flatcare.otodom.pl
138,En Casa Premium Real Estate,19.11.2014,Studencka 55,mazowieckie,02-735,Warszawa,https://encasa.otodom.pl
139,PARTNER HOUSE GROUP,09.07.2020,Wiertnicza 45,mazowieckie,02-953,Warszawa,https://www.otodom.pl/shop/partner-house-group-IDwtSy/
140,KOLOSEUM NIERUCHOMOŚCI,09.08.2012,Domaniewska 37/31G,mazowieckie,02-672,Warszawa,https://koloseum-nieruchomosci.otodom.pl
141,Freedom Nieruchomości Franczyza,17.04.2018,Pokorna 2 lok. U13,mazowieckie,00-199,Warszawa,https://www.otodom.pl/shop/freedom-nieruchomosci-franczyza-IDh1mU/
142,Expander Advisors,30.04.2015,Ul. Inflancka 4b,mazowieckie,00-189,Warszawa,https://www.otodom.pl/shop/expander-advisors-ID3ICK/
143,Biuro sprzedaży,02.11.2015,Marynarska 21 lok 6,mazowieckie,02-674,Warszawa,https://N-plus.otodom.pl
144,Metrohouse  Franchise S.A.,02.07.2018,Żelazna 28/30,mazowieckie,00-832,Warszawa,https://metrohouse-franchise.otodom.pl
145,Maxon Nieruchomosci Sp. z o.o.,28.06.2018,Powązkowska 44C,mazowieckie,01-797,Warszawa,https://www.otodom.pl/shop/maxon-nieruchomosci-sp-z-o-o-IDiDsI/
146,AdReM Nieruchomości Sp z o.o.,22.01.2018,Bukowińska 24a/34,mazowieckie,02-703,Warszawa,https://adremwarszawa.otodom.pl
147,Retalia Nieruchomości,12.10.2017,Grzybowska 87,mazowieckie,00-844,Warszawa,https://www.otodom.pl/shop/retalia-nieruchomosci-IDcRRe/
148,REALS Nieruchomości sp. z o.o.,20.04.2018,Grzybowska 2B lok. 83,mazowieckie,00-131,Warszawa,https://www.otodom.pl/shop/reals-nieruchomosci-sp-z-o-o-IDgTq0/
149,Wilsons Nieruchomości Sp. z o.o.,22.02.2018,Świętokrzyska 20 lok 311,mazowieckie,00-002,Warszawa,https://wilsons.otodom.pl
150,Mzuri Sp. z o.o.,14.01.2016,Aleja Niepodległości 221/1,mazowieckie,02-087,Warszawa,https://mzuri.otodom.pl
151,Sadyba Metrohouse,23.02.2017,Powsińska 34,mazowieckie,02-903,Warszawa,https://metrohousesadyba.otodom.pl
152,Lions Estate Sp. z o o.,09.09.2016,Wiejska 11/13,mazowieckie,00-480,Warszawa,https://lionsestate.otodom.pl
153,Axi Immo Group Sp. z o.o.,14.04.2011,Twarda 18,mazowieckie,00-105,Warszawa,https://axi.otodom.pl
154,INVESTORIUS Sp. z o.o.,09.01.2015,Śniadeckich 17,mazowieckie,00-654,Warszawa,https://investorius.otodom.pl
155,Euro-House Nieruchomości komercyjne,04.02.2014,ul. Braci Wagów 20 lok u1,mazowieckie,02-791,Warszawa,https://www.otodom.pl/shop/euro-house-nieruchomosci-komercyjne-ID2KPJ/
156,Biuro Na Miarę,20.02.2018,Nowy Świat 47,mazowieckie,00-042,Warszawa,https://biuronamiare.otodom.pl
157,Flatcare - nowoczesny zarządca nieruchomości,02.12.2019,Kępa Tarchomińska 6C/1/2,mazowieckie,03-113,Warszawa,https://flatcare.otodom.pl
158,En Casa Premium Real Estate,19.11.2014,Studencka 55,mazowieckie,02-735,Warszawa,https://encasa.otodom.pl
159,PARTNER HOUSE GROUP,09.07.2020,Wiertnicza 45,mazowieckie,02-953,Warszawa,https://www.otodom.pl/shop/partner-house-group-IDwtSy/
160,KOLOSEUM NIERUCHOMOŚCI,09.08.2012,Domaniewska 37/31G,mazowieckie,02-672,Warszawa,https://koloseum-nieruchomosci.otodom.pl
161,Freedom Nieruchomości Franczyza,17.04.2018,Pokorna 2 lok. U13,mazowieckie,00-199,Warszawa,https://www.otodom.pl/shop/freedom-nieruchomosci-franczyza-IDh1mU/
162,Expander Advisors,30.04.2015,Ul. Inflancka 4b,mazowieckie,00-189,Warszawa,https://www.otodom.pl/shop/expander-advisors-ID3ICK/
163,Biuro sprzedaży,02.11.2015,Marynarska 21 lok 6,mazowieckie,02-674,Warszawa,https://N-plus.otodom.pl
164,Metrohouse  Franchise S.A.,02.07.2018,Żelazna 28/30,mazowieckie,00-832,Warszawa,https://metrohouse-franchise.otodom.pl
165,Maxon Nieruchomosci Sp. z o.o.,28.06.2018,Powązkowska 44C,mazowieckie,01-797,Warszawa,https://www.otodom.pl/shop/maxon-nieruchomosci-sp-z-o-o-IDiDsI/
166,AdReM Nieruchomości Sp z o.o.,22.01.2018,Bukowińska 24a/34,mazowieckie,02-703,Warszawa,https://adremwarszawa.otodom.pl
167,Retalia Nieruchomości,12.10.2017,Grzybowska 87,mazowieckie,00-844,Warszawa,https://www.otodom.pl/shop/retalia-nieruchomosci-IDcRRe/
168,REALS Nieruchomości sp. z o.o.,20.04.2018,Grzybowska 2B lok. 83,mazowieckie,00-131,Warszawa,https://www.otodom.pl/shop/reals-nieruchomosci-sp-z-o-o-IDgTq0/
169,Wilsons Nieruchomości Sp. z o.o.,22.02.2018,Świętokrzyska 20 lok 311,mazowieckie,00-002,Warszawa,https://wilsons.otodom.pl
170,Mzuri Sp. z o.o.,14.01.2016,Aleja Niepodległości 221/1,mazowieckie,02-087,Warszawa,https://mzuri.otodom.pl
171,Sadyba Metrohouse,23.02.2017,Powsińska 34,mazowieckie,02-903,Warszawa,https://metrohousesadyba.otodom.pl
172,Lions Estate Sp. z o o.,09.09.2016,Wiejska 11/13,mazowieckie,00-480,Warszawa,https://lionsestate.otodom.pl
173,Axi Immo Group Sp. z o.o.,14.04.2011,Twarda 18,mazowieckie,00-105,Warszawa,https://axi.otodom.pl
174,INVESTORIUS Sp. z o.o.,09.01.2015,Śniadeckich 17,mazowieckie,00-654,Warszawa,https://investorius.otodom.pl
175,Euro-House Nieruchomości komercyjne,04.02.2014,ul. Braci Wagów 20 lok u1,mazowieckie,02-791,Warszawa,https://www.otodom.pl/shop/euro-house-nieruchomosci-komercyjne-ID2KPJ/
176,Biuro Na Miarę,20.02.2018,Nowy Świat 47,mazowieckie,00-042,Warszawa,https://biuronamiare.otodom.pl
177,Flatcare - nowoczesny zarządca nieruchomości,02.12.2019,Kępa Tarchomińska 6C/1/2,mazowieckie,03-113,Warszawa,https://flatcare.otodom.pl
178,En Casa Premium Real Estate,19.11.2014,Studencka 55,mazowieckie,02-735,Warszawa,https://encasa.otodom.pl
179,PARTNER HOUSE GROUP,09.07.2020,Wiertnicza 45,mazowieckie,02-953,Warszawa,https://www.otodom.pl/shop/partner-house-group-IDwtSy/
180,KOLOSEUM NIERUCHOMOŚCI,09.08.2012,Domaniewska 37/31G,mazowieckie,02-672,Warszawa,https://koloseum-nieruchomosci.otodom.pl
181,Freedom Nieruchomości Franczyza,17.04.2018,Pokorna 2 lok. U13,mazowieckie,00-199,Warszawa,https://www.otodom.pl/shop/freedom-nieruchomosci-franczyza-IDh1mU/
182,Expander Advisors,30.04.2015,Ul. Inflancka 4b,mazowieckie,00-189,Warszawa,https://www.otodom.pl/shop/expander-advisors-ID3ICK/
183,Biuro sprzedaży,02.11.2015,Marynarska 21 lok 6,mazowieckie,02-674,Warszawa,https://N-plus.otodom.pl
184,Metrohouse  Franchise S.A.,02.07.2018,Żelazna 28/30,mazowieckie,00-832,Warszawa,https://metrohouse-franchise.otodom.pl
185,Maxon Nieruchomosci Sp. z o.o.,28.06.2018,Powązkowska 44C,mazowieckie,01-797,Warszawa,https://www.otodom.pl/shop/maxon-nieruchomosci-sp-z-o-o-IDiDsI/
186,AdReM Nieruchomości Sp z o.o.,22.01.2018,Bukowińska 24a/34,mazowieckie,02-703,Warszawa,https://adremwarszawa.otodom.pl
187,Retalia Nieruchomości,12.10.2017,Grzybowska 87,mazowieckie,00-844,Warszawa,https://www.otodom.pl/shop/retalia-nieruchomosci-IDcRRe/
188,REALS Nieruchomości sp. z o.o.,20.04.2018,Grzybowska 2B lok. 83,mazowieckie,00-131,Warszawa,https://www.otodom.pl/shop/reals-nieruchomosci-sp-z-o-o-IDgTq0/
189,Wilsons Nieruchomości Sp. z o.o.,22.02.2018,Świętokrzyska 20 lok 311,mazowieckie,00-002,Warszawa,https://wilsons.otodom.pl
190,Mzuri Sp. z o.o.,14.01.2016,Aleja Niepodległości 221/1,mazowieckie,02-087,Warszawa,https://mzuri.otodom.pl
191,Sadyba Metrohouse,23.02.2017,Powsińska 34,mazowieckie,02-903,Warszawa,https://metrohousesadyba.otodom.pl
192,Lions Estate Sp. z o o.,09.09.2016,Wiejska 11/13,mazowieckie,00-480,Warszawa,https://lionsestate.otodom.pl
193,Axi Immo Group Sp. z o.o.,14.04.2011,Twarda 18,mazowieckie,00-105,Warszawa,https://axi.otodom.pl
194,INVESTORIUS Sp. z o.o.,09.01.2015,Śniadeckich 17,mazowieckie,00-654,Warszawa,https://investorius.otodom.pl
195,Euro-House Nieruchomości komercyjne,04.02.2014,ul. Braci Wagów 20 lok u1,mazowieckie,02-791,Warszawa,https://www.otodom.pl/shop/euro-house-nieruchomosci-komercyjne-ID2KPJ/
196,Biuro Na Miarę,20.02.2018,Nowy Świat 47,mazowieckie,00-042,Warszawa,https://biuronamiare.otodom.pl
197,Flatcare - nowoczesny zarządca nieruchomości,02.12.2019,Kępa Tarchomińska 6C/1/2,mazowieckie,03-113,Warszawa,https://flatcare.otodom.pl
198,En Casa Premium Real Estate,19.11.2014,Studencka 55,mazowieckie,02-735,Warszawa,https://encasa.otodom.pl
199,PARTNER HOUSE GROUP,09.07.2020,Wiertnicza 45,mazowieckie,02-953,Warszawa,https://www.otodom.pl/shop/partner-house-group-IDwtSy/
200,KOLOSEUM NIERUCHOMOŚCI,09.08.2012,Domaniewska 37/31G,mazowieckie,02-672,Warszawa,https://koloseum-nieruchomosci.otodom.pl
201,Freedom Nieruchomości Franczyza,17.04.2018,Pokorna 2 lok. U13,mazowieckie,00-199,Warszawa,https://www.otodom.pl/shop/freedom-nieruchomosci-franczyza-IDh1mU/
202,Expander Advisors,30.04.2015,Ul. Inflancka 4b,mazowieckie,00-189,Warszawa,https://www.otodom.pl/shop/expander-advisors-ID3ICK/
203,Biuro sprzedaży,02.11.2015,Marynarska 21 lok 6,mazowieckie,02-674,Warszawa,https://N-plus.otodom.pl
204,Metrohouse  Franchise S.A.,02.07.2018,Żelazna 28/30,mazowieckie,00-832,Warszawa,https://metrohouse-franchise.otodom.pl
205,Maxon Nieruchomosci Sp. z o.o.,28.06.2018,Powązkowska 44C,mazowieckie,01-797,Warszawa,https://www.otodom.pl/shop/maxon-nieruchomosci-sp-z-o-o-IDiDsI/
206,AdReM Nieruchomości Sp z o.o.,22.01.2018,Bukowińska 24a/34,mazowieckie,02-703,Warszawa,https://adremwarszawa.otodom.pl
207,Retalia Nieruchomości,12.10.2017,Grzybowska 87,mazowieckie,00-844,Warszawa,https://www.otodom.pl/shop/retalia-nieruchomosci-IDcRRe/
208,REALS Nieruchomości sp. z o.o.,20.04.2018,Grzybowska 2B lok. 83,mazowieckie,00-131,Warszawa,https://www.otodom.pl/shop/reals-nieruchomosci-sp-z-o-o-IDgTq0/
209,Wilsons Nieruchomości Sp. z o.o.,22.02.2018,Świętokrzyska 20 lok 311,mazowieckie,00-002,Warszawa,https://wilsons.otodom.pl
210,Mzuri Sp. z o.o.,14.01.2016,Aleja Niepodległości 221/1,mazowieckie,02-087,Warszawa,https://mzuri.otodom.pl
211,Sadyba Metrohouse,23.02.2017,Powsińska 34,mazowieckie,02-903,Warszawa,https://metrohousesadyba.otodom.pl
212,Lions Estate Sp. z o o.,09.09.2016,Wiejska 11/13,mazowieckie,00-480,Warszawa,https://lionsestate.otodom.pl
213,Axi Immo Group Sp. z o.o.,14.04.2011,Twarda 18,mazowieckie,00-105,Warszawa,https://axi.otodom.pl
214,INVESTORIUS Sp. z o.o.,09.01.2015,Śniadeckich 17,mazowieckie,00-654,Warszawa,https://investorius.otodom.pl
215,Euro-House Nieruchomości komercyjne,04.02.2014,ul. Braci Wagów 20 lok u1,mazowieckie,02-791,Warszawa,https://www.otodom.pl/shop/euro-house-nieruchomosci-komercyjne-ID2KPJ/
216,Biuro Na Miarę,20.02.2018,Nowy Świat 47,mazowieckie,00-042,Warszawa,https://biuronamiare.otodom.pl
217,Flatcare - nowoczesny zarządca nieruchomości,02.12.2019,Kępa Tarchomińska 6C/1/2,mazowieckie,03-113,Warszawa,https://flatcare.otodom.pl
218,En Casa Premium Real Estate,19.11.2014,Studencka 55,mazowieckie,02-735,Warszawa,https://encasa.otodom.pl
219,PARTNER HOUSE GROUP,09.07.2020,Wiertnicza 45,mazowieckie,02-953,Warszawa,https://www.otodom.pl/shop/partner-house-group-IDwtSy/
220,KOLOSEUM NIERUCHOMOŚCI,09.08.2012,Domaniewska 37/31G,mazowieckie,02-672,Warszawa,https://koloseum-nieruchomosci.otodom.pl
221,Freedom Nieruchomości Franczyza,17.04.2018,Pokorna 2 lok. U13,mazowieckie,00-199,Warszawa,https://www.otodom.pl/shop/freedom-nieruchomosci-franczyza-IDh1mU/
222,Expander Advisors,30.04.2015,Ul. Inflancka 4b,mazowieckie,00-189,Warszawa,https://www.otodom.pl/shop/expander-advisors-ID3ICK/
223,Biuro sprzedaży,02.11.2015,Marynarska 21 lok 6,mazowieckie,02-674,Warszawa,https://N-plus.otodom.pl
224,Metrohouse  Franchise S.A.,02.07.2018,Żelazna 28/30,mazowieckie,00-832,Warszawa,https://metrohouse-franchise.otodom.pl
225,Maxon Nieruchomosci Sp. z o.o.,28.06.2018,Powązkowska 44C,mazowieckie,01-797,Warszawa,https://www.otodom.pl/shop/maxon-nieruchomosci-sp-z-o-o-IDiDsI/
226,AdReM Nieruchomości Sp z o.o.,22.01.2018,Bukowińska 24a/34,mazowieckie,02-703,Warszawa,https://adremwarszawa.otodom.pl
227,Retalia Nieruchomości,12.10.2017,Grzybowska 87,mazowieckie,00-844,Warszawa,https://www.otodom.pl/shop/retalia-nieruchomosci-IDcRRe/
228,REALS Nieruchomości sp. z o.o.,20.04.2018,Grzybowska 2B lok. 83,mazowieckie,00-131,Warszawa,https://www.otodom.pl/shop/reals-nieruchomosci-sp-z-o-o-IDgTq0/
229,Wilsons Nieruchomości Sp. z o.o.,22.02.2018,Świętokrzyska 20 lok 311,mazowieckie,00-002,Warszawa,https://wilsons.otodom.pl
230,Mzuri Sp. z o.o.,14.01.2016,Aleja Niepodległości 221/1,mazowieckie,02-087,Warszawa,https://mzuri.otodom.pl
231,Sadyba Metrohouse,23.02.2017,Powsińska 34,mazowieckie,02-903,Warszawa,https://metrohousesadyba.otodom.pl
232,Lions Estate Sp. z o o.,09.09.2016,Wiejska 11/13,mazowieckie,00-480,Warszawa,https://lionsestate.otodom.pl
233,Axi Immo Group Sp. z o.o.,14.04.2011,Twarda 18,mazowieckie,00-105,Warszawa,https://axi.otodom.pl
234,INVESTORIUS Sp. z o.o.,09.01.2015,Śniadeckich 17,mazowieckie,00-654,Warszawa,https://investorius.otodom.pl
235,Euro-House Nieruchomości komercyjne,04.02.2014,ul. Braci Wagów 20 lok u1,mazowieckie,02-791,Warszawa,https://www.otodom.pl/shop/euro-house-nieruchomosci-komercyjne-ID2KPJ/
236,Biuro Na Miarę,20.02.2018,Nowy Świat 47,mazowieckie,00-042,Warszawa,https://biuronamiare.otodom.pl
237,Flatcare - nowoczesny zarządca nieruchomości,02.12.2019,Kępa Tarchomińska 6C/1/2,mazowieckie,03-113,Warszawa,https://flatcare.otodom.pl
238,En Casa Premium Real Estate,19.11.2014,Studencka 55,mazowieckie,02-735,Warszawa,https://encasa.otodom.pl
239,PARTNER HOUSE GROUP,09.07.2020,Wiertnicza 45,mazowieckie,02-953,Warszawa,https://www.otodom.pl/shop/partner-house-group-IDwtSy/
240,KOLOSEUM NIERUCHOMOŚCI,09.08.2012,Domaniewska 37/31G,mazowieckie,02-672,Warszawa,https://koloseum-nieruchomosci.otodom.pl
241,Freedom Nieruchomości Franczyza,17.04.2018,Pokorna 2 lok. U13,mazowieckie,00-199,Warszawa,https://www.otodom.pl/shop/freedom-nieruchomosci-franczyza-IDh1mU/
242,Expander Advisors,30.04.2015,Ul. Inflancka 4b,mazowieckie,00-189,Warszawa,https://www.otodom.pl/shop/expander-advisors-ID3ICK/
243,Biuro sprzedaży,02.11.2015,Marynarska 21 lok 6,mazowieckie,02-674,Warszawa,https://N-plus.otodom.pl
244,Metrohouse  Franchise S.A.,02.07.2018,Żelazna 28/30,mazowieckie,00-832,Warszawa,https://metrohouse-franchise.otodom.pl
245,Maxon Nieruchomosci Sp. z o.o.,28.06.2018,Powązkowska 44C,mazowieckie,01-797,Warszawa,https://www.otodom.pl/shop/maxon-nieruchomosci-sp-z-o-o-IDiDsI/
246,AdReM Nieruchomości Sp z o.o.,22.01.2018,Bukowińska 24a/34,mazowieckie,02-703,Warszawa,https://adremwarszawa.otodom.pl
247,Retalia Nieruchomości,12.10.2017,Grzybowska 87,mazowieckie,00-844,Warszawa,https://www.otodom.pl/shop/retalia-nieruchomosci-IDcRRe/
248,REALS Nieruchomości sp. z o.o.,20.04.2018,Grzybowska 2B lok. 83,mazowieckie,00-131,Warszawa,https://www.otodom.pl/shop/reals-nieruchomosci-sp-z-o-o-IDgTq0/
249,Wilsons Nieruchomości Sp. z o.o.,22.02.2018,Świętokrzyska 20 lok 311,mazowieckie,00-002,Warszawa,https://wilsons.otodom.pl
250,Mzuri Sp. z o.o.,14.01.2016,Aleja Niepodległości 221/1,mazowieckie,02-087,Warszawa,https://mzuri.otodom.pl
251,Sadyba Metrohouse,23.02.2017,Powsińska 34,mazowieckie,02-903,Warszawa,https://metrohousesadyba.otodom.pl
252,Lions Estate Sp. z o o.,09.09.2016,Wiejska 11/13,mazowieckie,00-480,Warszawa,https://lionsestate.otodom.pl
253,Axi Immo Group Sp. z o.o.,14.04.2011,Twarda 18,mazowieckie,00-105,Warszawa,https://axi.otodom.pl
254,INVESTORIUS Sp. z o.o.,09.01.2015,Śniadeckich 17,mazowieckie,00-654,Warszawa,https://investorius.otodom.pl
255,Euro-House Nieruchomości komercyjne,04.02.2014,ul. Braci Wagów 20 lok u1,mazowieckie,02-791,Warszawa,https://www.otodom.pl/shop/euro-house-nieruchomosci-komercyjne-ID2KPJ/
256,Biuro Na Miarę,20.02.2018,Nowy Świat 47,mazowieckie,00-042,Warszawa,https://biuronamiare.otodom.pl
257,Flatcare - nowoczesny zarządca nieruchomości,02.12.2019,Kępa Tarchomińska 6C/1/2,mazowieckie,03-113,Warszawa,https://flatcare.otodom.pl
258,En Casa Premium Real Estate,19.11.2014,Studencka 55,mazowieckie,02-735,Warszawa,https://encasa.otodom.pl
259,PARTNER HOUSE GROUP,09.07.2020,Wiertnicza 45,mazowieckie,02-953,Warszawa,https://www.otodom.pl/shop/partner-house-group-IDwtSy/
260,KOLOSEUM NIERUCHOMOŚCI,09.08.2012,Domaniewska 37/31G,mazowieckie,02-672,Warszawa,https://koloseum-nieruchomosci.otodom.pl
261,Freedom Nieruchomości Franczyza,17.04.2018,Pokorna 2 lok. U13,mazowieckie,00-199,Warszawa,https://www.otodom.pl/shop/freedom-nieruchomosci-franczyza-IDh1mU/
262,Expander Advisors,30.04.2015,Ul. Inflancka 4b,mazowieckie,00-189,Warszawa,https://www.otodom.pl/shop/expander-advisors-ID3ICK/
263,Biuro sprzedaży,02.11.2015,Marynarska 21 lok 6,mazowieckie,02-674,Warszawa,https://N-plus.otodom.pl
264,Metrohouse  Franchise S.A.,02.07.2018,Żelazna 28/30,mazowieckie,00-832,Warszawa,https://metrohouse-franchise.otodom.pl
265,Maxon Nieruchomosci Sp. z o.o.,28.06.2018,Powązkowska 44C,mazowieckie,01-797,Warszawa,https://www.otodom.pl/shop/maxon-nieruchomosci-sp-z-o-o-IDiDsI/
266,AdReM Nieruchomości Sp z o.o.,22.01.2018,Bukowińska 24a/34,mazowieckie,02-703,Warszawa,https://adremwarszawa.otodom.pl
267,Retalia Nieruchomości,12.10.2017,Grzybowska 87,mazowieckie,00-844,Warszawa,https://www.otodom.pl/shop/retalia-nieruchomosci-IDcRRe/
268,REALS Nieruchomości sp. z o.o.,20.04.2018,Grzybowska 2B lok. 83,mazowieckie,00-131,Warszawa,https://www.otodom.pl/shop/reals-nieruchomosci-sp-z-o-o-IDgTq0/
269,Wilsons Nieruchomości Sp. z o.o.,22.02.2018,Świętokrzyska 20 lok 311,mazowieckie,00-002,Warszawa,https://wilsons.otodom.pl
270,Mzuri Sp. z o.o.,14.01.2016,Aleja Niepodległości 221/1,mazowieckie,02-087,Warszawa,https://mzuri.otodom.pl
271,Sadyba Metrohouse,23.02.2017,Powsińska 34,mazowieckie,02-903,Warszawa,https://metrohousesadyba.otodom.pl
272,Lions Estate Sp. z o o.,09.09.2016,Wiejska 11/13,mazowieckie,00-480,Warszawa,https://lionsestate.otodom.pl
273,Axi Immo Group Sp. z o.o.,14.04.2011,Twarda 18,mazowieckie,00-105,Warszawa,https://axi.otodom.pl
274,INVESTORIUS Sp. z o.o.,09.01.2015,Śniadeckich 17,mazowieckie,00-654,Warszawa,https://investorius.otodom.pl
275,Euro-House Nieruchomości komercyjne,04.02.2014,ul. Braci Wagów 20 lok u1,mazowieckie,02-791,Warszawa,https://www.otodom.pl/shop/euro-house-nieruchomosci-komercyjne-ID2KPJ/
276,Biuro Na Miarę,20.02.2018,Nowy Świat 47,mazowieckie,00-042,Warszawa,https://biuronamiare.otodom.pl
277,Flatcare - nowoczesny zarządca nieruchomości,02.12.2019,Kępa Tarchomińska 6C/1/2,mazowieckie,03-113,Warszawa,https://flatcare.otodom.pl
278,En Casa Premium Real Estate,19.11.2014,Studencka 55,mazowieckie,02-735,Warszawa,https://encasa.otodom.pl
279,PARTNER HOUSE GROUP,09.07.2020,Wiertnicza 45,mazowieckie,02-953,Warszawa,https://www.otodom.pl/shop/partner-house-group-IDwtSy/
280,KOLOSEUM NIERUCHOMOŚCI,09.08.2012,Domaniewska 37/31G,mazowieckie,02-672,Warszawa,https://koloseum-nieruchomosci.otodom.pl
281,Freedom Nieruchomości Franczyza,17.04.2018,Pokorna 2 lok. U13,mazowieckie,00-199,Warszawa,https://www.otodom.pl/shop/freedom-nieruchomosci-franczyza-IDh1mU/
282,Expander Advisors,30.04.2015,Ul. Inflancka 4b,mazowieckie,00-189,Warszawa,https://www.otodom.pl/shop/expander-advisors-ID3ICK/
283,Biuro sprzedaży,02.11.2015,Marynarska 21 lok 6,mazowieckie,02-674,Warszawa,https://N-plus.otodom.pl
284,Metrohouse  Franchise S.A.,02.07.2018,Żelazna 28/30,mazowieckie,00-832,Warszawa,https://metrohouse-franchise.otodom.pl
285,Maxon Nieruchomosci Sp. z o.o.,28.06.2018,Powązkowska 44C,mazowieckie,01-797,Warszawa,https://www.otodom.pl/shop/maxon-nieruchomosci-sp-z-o-o-IDiDsI/
286,AdReM Nieruchomości Sp z o.o.,22.01.2018,Bukowińska 24a/34,mazowieckie,02-703,Warszawa,https://adremwarszawa.otodom.pl
287,Retalia Nieruchomości,12.10.2017,Grzybowska 87,mazowieckie,00-844,Warszawa,https://www.otodom.pl/shop/retalia-nieruchomosci-IDcRRe/
288,REALS Nieruchomości sp. z o.o.,20.04.2018,Grzybowska 2B lok. 83,mazowieckie,00-131,Warszawa,https://www.otodom.pl/shop/reals-nieruchomosci-sp-z-o-o-IDgTq0/
289,Wilsons Nieruchomości Sp. z o.o.,22.02.2018,Świętokrzyska 20 lok 311,mazowieckie,00-002,Warszawa,https://wilsons.otodom.pl
290,Mzuri Sp. z o.o.,14.01.2016,Aleja Niepodległości 221/1,mazowieckie,02-087,Warszawa,https://mzuri.otodom.pl
291,Sadyba Metrohouse,23.02.2017,Powsińska 34,mazowieckie,02-903,Warszawa,https://metrohousesadyba.otodom.pl
292,Lions Estate Sp. z o o.,09.09.2016,Wiejska 11/13,mazowieckie,00-480,Warszawa,https://lionsestate.otodom.pl
293,Axi Immo Group Sp. z o.o.,14.04.2011,Twarda 18,mazowieckie,00-105,Warszawa,https://axi.otodom.pl
294,INVESTORIUS Sp. z o.o.,09.01.2015,Śniadeckich 17,mazowieckie,00-654,Warszawa,https://investorius.otodom.pl
295,Euro-House Nieruchomości komercyjne,04.02.2014,ul. Braci Wagów 20 lok u1,mazowieckie,02-791,Warszawa,https://www.otodom.pl/shop/euro-house-nieruchomosci-komercyjne-ID2KPJ/
296,Biuro Na Miarę,20.02.2018,Nowy Świat 47,mazowieckie,00-042,Warszawa,https://biuronamiare.otodom.pl
297,Flatcare - nowoczesny zarządca nieruchomości,02.12.2019,Kępa Tarchomińska 6C/1/2,mazowieckie,03-113,Warszawa,https://flatcare.otodom.pl
298,En Casa Premium Real Estate,19.11.2014,Studencka 55,mazowieckie,02-735,Warszawa,https://encasa.otodom.pl
299,PARTNER HOUSE GROUP,09.07.2020,Wiertnicza 45,mazowieckie,02-953,Warszawa,https://www.otodom.pl/shop/partner-house-group-IDwtSy/
300,KOLOSEUM NIERUCHOMOŚCI,09.08.2012,Domaniewska 37/31G,mazowieckie,02-672,Warszawa,https://koloseum-nieruchomosci.otodom.pl
301,Freedom Nieruchomości Franczyza,17.04.2018,Pokorna 2 lok. U13,mazowieckie,00-199,Warszawa,https://www.otodom.pl/shop/freedom-nieruchomosci-franczyza-IDh1mU/
302,Expander Advisors,30.04.2015,Ul. Inflancka 4b,mazowieckie,00-189,Warszawa,https://www.otodom.pl/shop/expander-advisors-ID3ICK/
303,Biuro sprzedaży,02.11.2015,Marynarska 21 lok 6,mazowieckie,02-674,Warszawa,https://N-plus.otodom.pl
304,Metrohouse  Franchise S.A.,02.07.2018,Żelazna 28/30,mazowieckie,00-832,Warszawa,https://metrohouse-franchise.otodom.pl
305,Maxon Nieruchomosci Sp. z o.o.,28.06.2018,Powązkowska 44C,mazowieckie,01-797,Warszawa,https://www.otodom.pl/shop/maxon-nieruchomosci-sp-z-o-o-IDiDsI/
306,AdReM Nieruchomości Sp z o.o.,22.01.2018,Bukowińska 24a/34,mazowieckie,02-703,Warszawa,https://adremwarszawa.otodom.pl
307,Retalia Nieruchomości,12.10.2017,Grzybowska 87,mazowieckie,00-844,Warszawa,https://www.otodom.pl/shop/retalia-nieruchomosci-IDcRRe/
308,REALS Nieruchomości sp. z o.o.,20.04.2018,Grzybowska 2B lok. 83,mazowieckie,00-131,Warszawa,https://www.otodom.pl/shop/reals-nieruchomosci-sp-z-o-o-IDgTq0/
309,Wilsons Nieruchomości Sp. z o.o.,22.02.2018,Świętokrzyska 20 lok 311,mazowieckie,00-002,Warszawa,https://wilsons.otodom.pl
310,Mzuri Sp. z o.o.,14.01.2016,Aleja Niepodległości 221/1,mazowieckie,02-087,Warszawa,https://mzuri.otodom.pl
311,Sadyba Metrohouse,23.02.2017,Powsińska 34,mazowieckie,02-903,Warszawa,https://metrohousesadyba.otodom.pl
312,Lions Estate Sp. z o o.,09.09.2016,Wiejska 11/13,mazowieckie,00-480,Warszawa,https://lionsestate.otodom.pl
313,Axi Immo Group Sp. z o.o.,14.04.2011,Twarda 18,mazowieckie,00-105,Warszawa,https://axi.otodom.pl
314,INVESTORIUS Sp. z o.o.,09.01.2015,Śniadeckich 17,mazowieckie,00-654,Warszawa,https://investorius.otodom.pl
315,Euro-House Nieruchomości komercyjne,04.02.2014,ul. Braci Wagów 20 lok u1,mazowieckie,02-791,Warszawa,https://www.otodom.pl/shop/euro-house-nieruchomosci-komercyjne-ID2KPJ/
316,Biuro Na Miarę,20.02.2018,Nowy Świat 47,mazowieckie,00-042,Warszawa,https://biuronamiare.otodom.pl
317,Flatcare - nowoczesny zarządca nieruchomości,02.12.2019,Kępa Tarchomińska 6C/1/2,mazowieckie,03-113,Warszawa,https://flatcare.otodom.pl
318,En Casa Premium Real Estate,19.11.2014,Studencka 55,mazowieckie,02-735,Warszawa,https://encasa.otodom.pl
319,PARTNER HOUSE GROUP,09.07.2020,Wiertnicza 45,mazowieckie,02-953,Warszawa,https://www.otodom.pl/shop/partner-house-group-IDwtSy/
320,KOLOSEUM NIERUCHOMOŚCI,09.08.2012,Domaniewska 37/31G,mazowieckie,02-672,Warszawa,https://koloseum-nieruchomosci.otodom.pl
321,Freedom Nieruchomości Franczyza,17.04.2018,Pokorna 2 lok. U13,mazowieckie,00-199,Warszawa,https://www.otodom.pl/shop/freedom-nieruchomosci-franczyza-IDh1mU/
322,Expander Advisors,30.04.2015,Ul. Inflancka 4b,mazowieckie,00-189,Warszawa,https://www.otodom.pl/shop/expander-advisors-ID3ICK/
323,Biuro sprzedaży,02.11.2015,Marynarska 21 lok 6,mazowieckie,02-674,Warszawa,https://N-plus.otodom.pl
324,Metrohouse  Franchise S.A.,02.07.2018,Żelazna 28/30,mazowieckie,00-832,Warszawa,https://metrohouse-franchise.otodom.pl
325,Maxon Nieruchomosci Sp. z o.o.,28.06.2018,Powązkowska 44C,mazowieckie,01-797,Warszawa,https://www.otodom.pl/shop/maxon-nieruchomosci-sp-z-o-o-IDiDsI/
326,AdReM Nieruchomości Sp z o.o.,22.01.2018,Bukowińska 24a/34,mazowieckie,02-703,Warszawa,https://adremwarszawa.otodom.pl
327,Retalia Nieruchomości,12.10.2017,Grzybowska 87,mazowieckie,00-844,Warszawa,https://www.otodom.pl/shop/retalia-nieruchomosci-IDcRRe/
328,REALS Nieruchomości sp. z o.o.,20.04.2018,Grzybowska 2B lok. 83,mazowieckie,00-131,Warszawa,https://www.otodom.pl/shop/reals-nieruchomosci-sp-z-o-o-IDgTq0/
329,Wilsons Nieruchomości Sp. z o.o.,22.02.2018,Świętokrzyska 20 lok 311,mazowieckie,00-002,Warszawa,https://wilsons.otodom.pl
330,Mzuri Sp. z o.o.,14.01.2016,Aleja Niepodległości 221/1,mazowieckie,02-087,Warszawa,https://mzuri.otodom.pl
331,Sadyba Metrohouse,23.02.2017,Powsińska 34,mazowieckie,02-903,Warszawa,https://metrohousesadyba.otodom.pl
332,Lions Estate Sp. z o o.,09.09.2016,Wiejska 11/13,mazowieckie,00-480,Warszawa,https://lionsestate.otodom.pl
333,Axi Immo Group Sp. z o.o.,14.04.2011,Twarda 18,mazowieckie,00-105,Warszawa,https://axi.otodom.pl
334,INVESTORIUS Sp. z o.o.,09.01.2015,Śniadeckich 17,mazowieckie,00-654,Warszawa,https://investorius.otodom.pl
335,Euro-House Nieruchomości komercyjne,04.02.2014,ul. Braci Wagów 20 lok u1,mazowieckie,02-791,Warszawa,https://www.otodom.pl/shop/euro-house-nieruchomosci-komercyjne-ID2KPJ/
336,Biuro Na Miarę,20.02.2018,Nowy Świat 47,mazowieckie,00-042,Warszawa,https://biuronamiare.otodom.pl
337,Flatcare - nowoczesny zarządca nieruchomości,02.12.2019,Kępa Tarchomińska 6C/1/2,mazowieckie,03-113,Warszawa,https://flatcare.otodom.pl
338,En Casa Premium Real Estate,19.11.2014,Studencka 55,mazowieckie,02-735,Warszawa,https://encasa.otodom.pl
339,PARTNER HOUSE GROUP,09.07.2020,Wiertnicza 45,mazowieckie,02-953,Warszawa,https://www.otodom.pl/shop/partner-house-group-IDwtSy/
340,KOLOSEUM NIERUCHOMOŚCI,09.08.2012,Domaniewska 37/31G,mazowieckie,02-672,Warszawa,https://koloseum-nieruchomosci.otodom.pl
341,Freedom Nieruchomości Franczyza,17.04.2018,Pokorna 2 lok. U13,mazowieckie,00-199,Warszawa,https://www.otodom.pl/shop/freedom-nieruchomosci-franczyza-IDh1mU/
342,Expander Advisors,30.04.2015,Ul. Inflancka 4b,mazowieckie,00-189,Warszawa,https://www.otodom.pl/shop/expander-advisors-ID3ICK/
343,Biuro sprzedaży,02.11.2015,Marynarska 21 lok 6,mazowieckie,02-674,Warszawa,https://N-plus.otodom.pl
344,Metrohouse  Franchise S.A.,02.07.2018,Żelazna 28/30,mazowieckie,00-832,Warszawa,https://metrohouse-franchise.otodom.pl
345,Maxon Nieruchomosci Sp. z o.o.,28.06.2018,Powązkowska 44C,mazowieckie,01-797,Warszawa,https://www.otodom.pl/shop/maxon-nieruchomosci-sp-z-o-o-IDiDsI/
346,AdReM Nieruchomości Sp z o.o.,22.01.2018,Bukowińska 24a/34,mazowieckie,02-703,Warszawa,https://adremwarszawa.otodom.pl
347,Retalia Nieruchomości,12.10.2017,Grzybowska 87,mazowieckie,00-844,Warszawa,https://www.otodom.pl/shop/retalia-nieruchomosci-IDcRRe/
348,REALS Nieruchomości sp. z o.o.,20.04.2018,Grzybowska 2B lok. 83,mazowieckie,00-131,Warszawa,https://www.otodom.pl/shop/reals-nieruchomosci-sp-z-o-o-IDgTq0/
349,Wilsons Nieruchomości Sp. z o.o.,22.02.2018,Świętokrzyska 20 lok 311,mazowieckie,00-002,Warszawa,https://wilsons.otodom.pl
350,Mzuri Sp. z o.o.,14.01.2016,Aleja Niepodległości 221/1,mazowieckie,02-087,Warszawa,https://mzuri.otodom.pl
351,Sadyba Metrohouse,23.02.2017,Powsińska 34,mazowieckie,02-903,Warszawa,https://metrohousesadyba.otodom.pl
352,Lions Estate Sp. z o o.,09.09.2016,Wiejska 11/13,mazowieckie,00-480,Warszawa,https://lionsestate.otodom.pl
353,Axi Immo Group Sp. z o.o.,14.04.2011,Twarda 18,mazowieckie,00-105,Warszawa,https://axi.otodom.pl
354,INVESTORIUS Sp. z o.o.,09.01.2015,Śniadeckich 17,mazowieckie,00-654,Warszawa,https://investorius.otodom.pl
355,Euro-House Nieruchomości komercyjne,04.02.2014,ul. Braci Wagów 20 lok u1,mazowieckie,02-791,Warszawa,https://www.otodom.pl/shop/euro-house-nieruchomosci-komercyjne-ID2KPJ/
356,Biuro Na Miarę,20.02.2018,Nowy Świat 47,mazowieckie,00-042,Warszawa,https://biuronamiare.otodom.pl
357,Flatcare - nowoczesny zarządca nieruchomości,02.12.2019,Kępa Tarchomińska 6C/1/2,mazowieckie,03-113,Warszawa,https://flatcare.otodom.pl
358,En Casa Premium Real Estate,19.11.2014,Studencka 55,mazowieckie,02-735,Warszawa,https://encasa.otodom.pl
359,PARTNER HOUSE GROUP,09.07.2020,Wiertnicza 45,mazowieckie,02-953,Warszawa,https://www.otodom.pl/shop/partner-house-group-IDwtSy/
360,KOLOSEUM NIERUCHOMOŚCI,09.08.2012,Domaniewska 37/31G,mazowieckie,02-672,Warszawa,https://koloseum-nieruchomosci.otodom.pl
361,Freedom Nieruchomości Franczyza,17.04.2018,Pokorna 2 lok. U13,mazowieckie,00-199,Warszawa,https://www.otodom.pl/shop/freedom-nieruchomosci-franczyza-IDh1mU/
362,Expander Advisors,30.04.2015,Ul. Inflancka 4b,mazowieckie,00-189,Warszawa,https://www.otodom.pl/shop/expander-advisors-ID3ICK/
363,Biuro sprzedaży,02.11.2015,Marynarska 21 lok 6,mazowieckie,02-674,Warszawa,https://N-plus.otodom.pl
364,Metrohouse  Franchise S.A.,02.07.2018,Żelazna 28/30,mazowieckie,00-832,Warszawa,https://metrohouse-franchise.otodom.pl
365,Maxon Nieruchomosci Sp. z o.o.,28.06.2018,Powązkowska 44C,mazowieckie,01-797,Warszawa,https://www.otodom.pl/shop/maxon-nieruchomosci-sp-z-o-o-IDiDsI/
366,AdReM Nieruchomości Sp z o.o.,22.01.2018,Bukowińska 24a/34,mazowieckie,02-703,Warszawa,https://adremwarszawa.otodom.pl
367,Retalia Nieruchomości,12.10.2017,Grzybowska 87,mazowieckie,00-844,Warszawa,https://www.otodom.pl/shop/retalia-nieruchomosci-IDcRRe/
368,REALS Nieruchomości sp. z o.o.,20.04.2018,Grzybowska 2B lok. 83,mazowieckie,00-131,Warszawa,https://www.otodom.pl/shop/reals-nieruchomosci-sp-z-o-o-IDgTq0/
369,Wilsons Nieruchomości Sp. z o.o.,22.02.2018,Świętokrzyska 20 lok 311,mazowieckie,00-002,Warszawa,https://wilsons.otodom.pl
370,Mzuri Sp. z o.o.,14.01.2016,Aleja Niepodległości 221/1,mazowieckie,02-087,Warszawa,https://mzuri.otodom.pl
371,Sadyba Metrohouse,23.02.2017,Powsińska 34,mazowieckie,02-903,Warszawa,https://metrohousesadyba.otodom.pl
372,Lions Estate Sp. z o o.,09.09.2016,Wiejska 11/13,mazowieckie,00-480,Warszawa,https://lionsestate.otodom.pl
373,Axi Immo Group Sp. z o.o.,14.04.2011,Twarda 18,mazowieckie,00-105,Warszawa,https://axi.otodom.pl
374,INVESTORIUS Sp. z o.o.,09.01.2015,Śniadeckich 17,mazowieckie,00-654,Warszawa,https://investorius.otodom.pl
375,Euro-House Nieruchomości komercyjne,04.02.2014,ul. Braci Wagów 20 lok u1,mazowieckie,02-791,Warszawa,https://www.otodom.pl/shop/euro-house-nieruchomosci-komercyjne-ID2KPJ/
376,Biuro Na Miarę,20.02.2018,Nowy Świat 47,mazowieckie,00-042,Warszawa,https://biuronamiare.otodom.pl
377,Flatcare - nowoczesny zarządca nieruchomości,02.12.2019,Kępa Tarchomińska 6C/1/2,mazowieckie,03-113,Warszawa,https://flatcare.otodom.pl
378,En Casa Premium Real Estate,19.11.2014,Studencka 55,mazowieckie,02-735,Warszawa,https://encasa.otodom.pl
379,PARTNER HOUSE GROUP,09.07.2020,Wiertnicza 45,mazowieckie,02-953,Warszawa,https://www.otodom.pl/shop/partner-house-group-IDwtSy/
380,KOLOSEUM NIERUCHOMOŚCI,09.08.2012,Domaniewska 37/31G,mazowieckie,02-672,Warszawa,https://koloseum-nieruchomosci.otodom.pl
381,Freedom Nieruchomości Franczyza,17.04.2018,Pokorna 2 lok. U13,mazowieckie,00-199,Warszawa,https://www.otodom.pl/shop/freedom-nieruchomosci-franczyza-IDh1mU/
382,Expander Advisors,30.04.2015,Ul. Inflancka 4b,mazowieckie,00-189,Warszawa,https://www.otodom.pl/shop/expander-advisors-ID3ICK/
383,Biuro sprzedaży,02.11.2015,Marynarska 21 lok 6,mazowieckie,02-674,Warszawa,https://N-plus.otodom.pl
384,Metrohouse  Franchise S.A.,02.07.2018,Żelazna 28/30,mazowieckie,00-832,Warszawa,https://metrohouse-franchise.otodom.pl
385,Maxon Nieruchomosci Sp. z o.o.,28.06.2018,Powązkowska 44C,mazowieckie,01-797,Warszawa,https://www.otodom.pl/shop/maxon-nieruchomosci-sp-z-o-o-IDiDsI/
386,AdReM Nieruchomości Sp z o.o.,22.01.2018,Bukowińska 24a/34,mazowieckie,02-703,Warszawa,https://adremwarszawa.otodom.pl
387,Retalia Nieruchomości,12.10.2017,Grzybowska 87,mazowieckie,00-844,Warszawa,https://www.otodom.pl/shop/retalia-nieruchomosci-IDcRRe/
388,REALS Nieruchomości sp. z o.o.,20.04.2018,Grzybowska 2B lok. 83,mazowieckie,00-131,Warszawa,https://www.otodom.pl/shop/reals-nieruchomosci-sp-z-o-o-IDgTq0/
389,Wilsons Nieruchomości Sp. z o.o.,22.02.2018,Świętokrzyska 20 lok 311,mazowieckie,00-002,Warszawa,https://wilsons.otodom.pl
390,Mzuri Sp. z o.o.,14.01.2016,Aleja Niepodległości 221/1,mazowieckie,02-087,Warszawa,https://mzuri.otodom.pl
391,Sadyba Metrohouse,23.02.2017,Powsińska 34,mazowieckie,02-903,Warszawa,https://metrohousesadyba.otodom.pl
392,Lions Estate Sp. z o o.,09.09.2016,Wiejska 11/13,mazowieckie,00-480,Warszawa,https://lionsestate.otodom.pl
393,Axi Immo Group Sp. z o.o.,14.04.2011,Twarda 18,mazowieckie,00-105,Warszawa,https://axi.otodom.pl
394,INVESTORIUS Sp. z o.o.,09.01.2015,Śniadeckich 17,mazowieckie,00-654,Warszawa,https://investorius.otodom.pl
395,Euro-House Nieruchomości komercyjne,04.02.2014,ul. Braci Wagów 20 lok u1,mazowieckie,02-791,Warszawa,https://www.otodom.pl/shop/euro-house-nieruchomosci-komercyjne-ID2KPJ/
396,Biuro Na Miarę,20.02.2018,Nowy Świat 47,mazowieckie,00-042,Warszawa,https://biuronamiare.otodom.pl
397,Flatcare - nowoczesny zarządca nieruchomości,02.12.2019,Kępa Tarchomińska 6C/1/2,mazowieckie,03-113,Warszawa,https://flatcare.otodom.pl
398,En Casa Premium Real Estate,19.11.2014,Studencka 55,mazowieckie,02-735,Warszawa,https://encasa.otodom.pl
399,PARTNER HOUSE GROUP,09.07.2020,Wiertnicza 45,mazowieckie,02-953,Warszawa,https://www.otodom.pl/shop/partner-house-group-IDwtSy/
400,KOLOSEUM NIERUCHOMOŚCI,09.08.2012,Domaniewska 37/31G,mazowieckie,02-672,Warszawa,https://koloseum-nieruchomosci.otodom.pl
401,Freedom Nieruchomości Franczyza,17.04.2018,Pokorna 2 lok. U13,mazowieckie,00-199,Warszawa,https://www.otodom.pl/shop/freedom-nieruchomosci-franczyza-IDh1mU/
402,Expander Advisors,30.04.2015,Ul. Inflancka 4b,mazowieckie,00-189,Warszawa,https://www.otodom.pl/shop/expander-advisors-ID3ICK/
403,Biuro sprzedaży,02.11.2015,Marynarska 21 lok 6,mazowieckie,02-674,Warszawa,https://N-plus.otodom.pl
404,Metrohouse  Franchise S.A.,02.07.2018,Żelazna 28/30,mazowieckie,00-832,Warszawa,https://metrohouse-franchise.otodom.pl
405,Maxon Nieruchomosci Sp. z o.o.,28.06.2018,Powązkowska 44C,mazowieckie,01-797,Warszawa,https://www.otodom.pl/shop/maxon-nieruchomosci-sp-z-o-o-IDiDsI/
406,AdReM Nieruchomości Sp z o.o.,22.01.2018,Bukowińska 24a/34,mazowieckie,02-703,Warszawa,https://adremwarszawa.otodom.pl
407,Retalia Nieruchomości,12.10.2017,Grzybowska 87,mazowieckie,00-844,Warszawa,https://www.otodom.pl/shop/retalia-nieruchomosci-IDcRRe/
408,REALS Nieruchomości sp. z o.o.,20.04.2018,Grzybowska 2B lok. 83,mazowieckie,00-131,Warszawa,https://www.otodom.pl/shop/reals-nieruchomosci-sp-z-o-o-IDgTq0/
409,Wilsons Nieruchomości Sp. z o.o.,22.02.2018,Świętokrzyska 20 lok 311,mazowieckie,00-002,Warszawa,https://wilsons.otodom.pl
410,Mzuri Sp. z o.o.,14.01.2016,Aleja Niepodległości 221/1,mazowieckie,02-087,Warszawa,https://mzuri.otodom.pl
411,Sadyba Metrohouse,23.02.2017,Powsińska 34,mazowieckie,02-903,Warszawa,https://metrohousesadyba.otodom.pl
412,Lions Estate Sp. z o o.,09.09.2016,Wiejska 11/13,mazowieckie,00-480,Warszawa,https://lionsestate.otodom.pl
413,Axi Immo Group Sp. z o.o.,14.04.2011,Twarda 18,mazowieckie,00-105,Warszawa,https://axi.otodom.pl
414,INVESTORIUS Sp. z o.o.,09.01.2015,Śniadeckich 17,mazowieckie,00-654,Warszawa,https://investorius.otodom.pl
415,Euro-House Nieruchomości komercyjne,04.02.2014,ul. Braci Wagów 20 lok u1,mazowieckie,02-791,Warszawa,https://www.otodom.pl/shop/euro-house-nieruchomosci-komercyjne-ID2KPJ/
416,Biuro Na Miarę,20.02.2018,Nowy Świat 47,mazowieckie,00-042,Warszawa,https://biuronamiare.otodom.pl
417,Flatcare - nowoczesny zarządca nieruchomości,02.12.2019,Kępa Tarchomińska 6C/1/2,mazowieckie,03-113,Warszawa,https://flatcare.otodom.pl
418,En Casa Premium Real Estate,19.11.2014,Studencka 55,mazowieckie,02-735,Warszawa,https://encasa.otodom.pl
419,PARTNER HOUSE GROUP,09.07.2020,Wiertnicza 45,mazowieckie,02-953,Warszawa,https://www.otodom.pl/shop/partner-house-group-IDwtSy/
420,KOLOSEUM NIERUCHOMOŚCI,09.08.2012,Domaniewska 37/31G,mazowieckie,02-672,Warszawa,https://koloseum-nieruchomosci.otodom.pl
421,Freedom Nieruchomości Franczyza,17.04.2018,Pokorna 2 lok. U13,mazowieckie,00-199,Warszawa,https://www.otodom.pl/shop/freedom-nieruchomosci-franczyza-IDh1mU/
422,Expander Advisors,30.04.2015,Ul. Inflancka 4b,mazowieckie,00-189,Warszawa,https://www.otodom.pl/shop/expander-advisors-ID3ICK/
423,Biuro sprzedaży,02.11.2015,Marynarska 21 lok 6,mazowieckie,02-674,Warszawa,https://N-plus.otodom.pl
424,Metrohouse  Franchise S.A.,02.07.2018,Żelazna 28/30,mazowieckie,00-832,Warszawa,https://metrohouse-franchise.otodom.pl
425,Maxon Nieruchomosci Sp. z o.o.,28.06.2018,Powązkowska 44C,mazowieckie,01-797,Warszawa,https://www.otodom.pl/shop/maxon-nieruchomosci-sp-z-o-o-IDiDsI/
426,AdReM Nieruchomości Sp z o.o.,22.01.2018,Bukowińska 24a/34,mazowieckie,02-703,Warszawa,https://adremwarszawa.otodom.pl
427,Retalia Nieruchomości,12.10.2017,Grzybowska 87,mazowieckie,00-844,Warszawa,https://www.otodom.pl/shop/retalia-nieruchomosci-IDcRRe/
428,REALS Nieruchomości sp. z o.o.,20.04.2018,Grzybowska 2B lok. 83,mazowieckie,00-131,Warszawa,https://www.otodom.pl/shop/reals-nieruchomosci-sp-z-o-o-IDgTq0/
429,Wilsons Nieruchomości Sp. z o.o.,22.02.2018,Świętokrzyska 20 lok 311,mazowieckie,00-002,Warszawa,https://wilsons.otodom.pl
430,Mzuri Sp. z o.o.,14.01.2016,Aleja Niepodległości 221/1,mazowieckie,02-087,Warszawa,https://mzuri.otodom.pl
431,Sadyba Metrohouse,23.02.2017,Powsińska 34,mazowieckie,02-903,Warszawa,https://metrohousesadyba.otodom.pl
432,Lions Estate Sp. z o o.,09.09.2016,Wiejska 11/13,mazowieckie,00-480,Warszawa,https://lionsestate.otodom.pl
433,Axi Immo Group Sp. z o.o.,14.04.2011,Twarda 18,mazowieckie,00-105,Warszawa,https://axi.otodom.pl
434,INVESTORIUS Sp. z o.o.,09.01.2015,Śniadeckich 17,mazowieckie,00-654,Warszawa,https://investorius.otodom.pl
435,Euro-House Nieruchomości komercyjne,04.02.2014,ul. Braci Wagów 20 lok u1,mazowieckie,02-791,Warszawa,https://www.otodom.pl/shop/euro-house-nieruchomosci-komercyjne-ID2KPJ/
436,Biuro Na Miarę,20.02.2018,Nowy Świat 47,mazowieckie,00-042,Warszawa,https://biuronamiare.otodom.pl
437,Flatcare - nowoczesny zarządca nieruchomości,02.12.2019,Kępa Tarchomińska 6C/1/2,mazowieckie,03-113,Warszawa,https://flatcare.otodom.pl
438,En Casa Premium Real Estate,19.11.2014,Studencka 55,mazowieckie,02-735,Warszawa,https://encasa.otodom.pl
439,PARTNER HOUSE GROUP,09.07.2020,Wiertnicza 45,mazowieckie,02-953,Warszawa,https://www.otodom.pl/shop/partner-house-group-IDwtSy/
440,KOLOSEUM NIERUCHOMOŚCI,09.08.2012,Domaniewska 37/31G,mazowieckie,02-672,Warszawa,https://koloseum-nieruchomosci.otodom.pl
441,Freedom Nieruchomości Franczyza,17.04.2018,Pokorna 2 lok. U13,mazowieckie,00-199,Warszawa,https://www.otodom.pl/shop/freedom-nieruchomosci-franczyza-IDh1mU/
442,Expander Advisors,30.04.2015,Ul. Inflancka 4b,mazowieckie,00-189,Warszawa,https://www.otodom.pl/shop/expander-advisors-ID3ICK/
443,Biuro sprzedaży,02.11.2015,Marynarska 21 lok 6,mazowieckie,02-674,Warszawa,https://N-plus.otodom.pl
444,Metrohouse  Franchise S.A.,02.07.2018,Żelazna 28/30,mazowieckie,00-832,Warszawa,https://metrohouse-franchise.otodom.pl
445,Maxon Nieruchomosci Sp. z o.o.,28.06.2018,Powązkowska 44C,mazowieckie,01-797,Warszawa,https://www.otodom.pl/shop/maxon-nieruchomosci-sp-z-o-o-IDiDsI/
446,AdReM Nieruchomości Sp z o.o.,22.01.2018,Bukowińska 24a/34,mazowieckie,02-703,Warszawa,https://adremwarszawa.otodom.pl
447,Retalia Nieruchomości,12.10.2017,Grzybowska 87,mazowieckie,00-844,Warszawa,https://www.otodom.pl/shop/retalia-nieruchomosci-IDcRRe/
448,REALS Nieruchomości sp. z o.o.,20.04.2018,Grzybowska 2B lok. 83,mazowieckie,00-131,Warszawa,https://www.otodom.pl/shop/reals-nieruchomosci-sp-z-o-o-IDgTq0/
449,Wilsons Nieruchomości Sp. z o.o.,22.02.2018,Świętokrzyska 20 lok 311,mazowieckie,00-002,Warszawa,https://wilsons.otodom.pl
450,Mzuri Sp. z o.o.,14.01.2016,Aleja Niepodległości 221/1,mazowieckie,02-087,Warszawa,https://mzuri.otodom.pl
451,Sadyba Metrohouse,23.02.2017,Powsińska 34,mazowieckie,02-903,Warszawa,https://metrohousesadyba.otodom.pl
452,Lions Estate Sp. z o o.,09.09.2016,Wiejska 11/13,mazowieckie,00-480,Warszawa,https://lionsestate.otodom.pl
453,Axi Immo Group Sp. z o.o.,14.04.2011,Twarda 18,mazowieckie,00-105,Warszawa,https://axi.otodom.pl
454,INVESTORIUS Sp. z o.o.,09.01.2015,Śniadeckich 17,mazowieckie,00-654,Warszawa,https://investorius.otodom.pl
455,Euro-House Nieruchomości komercyjne,04.02.2014,ul. Braci Wagów 20 lok u1,mazowieckie,02-791,Warszawa,https://www.otodom.pl/shop/euro-house-nieruchomosci-komercyjne-ID2KPJ/
456,Biuro Na Miarę,20.02.2018,Nowy Świat 47,mazowieckie,00-042,Warszawa,https://biuronamiare.otodom.pl
457,Flatcare - nowoczesny zarządca nieruchomości,02.12.2019,Kępa Tarchomińska 6C/1/2,mazowieckie,03-113,Warszawa,https://flatcare.otodom.pl
458,En Casa Premium Real Estate,19.11.2014,Studencka 55,mazowieckie,02-735,Warszawa,https://encasa.otodom.pl
459,PARTNER HOUSE GROUP,09.07.2020,Wiertnicza 45,mazowieckie,02-953,Warszawa,https://www.otodom.pl/shop/partner-house-group-IDwtSy/
460,KOLOSEUM NIERUCHOMOŚCI,09.08.2012,Domaniewska 37/31G,mazowieckie,02-672,Warszawa,https://koloseum-nieruchomosci.otodom.pl
461,Freedom Nieruchomości Franczyza,17.04.2018,Pokorna 2 lok. U13,mazowieckie,00-199,Warszawa,https://www.otodom.pl/shop/freedom-nieruchomosci-franczyza-IDh1mU/
462,Expander Advisors,30.04.2015,Ul. Inflancka 4b,mazowieckie,00-189,Warszawa,https://www.otodom.pl/shop/expander-advisors-ID3ICK/
463,Biuro sprzedaży,02.11.2015,Marynarska 21 lok 6,mazowieckie,02-674,Warszawa,https://N-plus.otodom.pl
464,Metrohouse  Franchise S.A.,02.07.2018,Żelazna 28/30,mazowieckie,00-832,Warszawa,https://metrohouse-franchise.otodom.pl
465,Maxon Nieruchomosci Sp. z o.o.,28.06.2018,Powązkowska 44C,mazowieckie,01-797,Warszawa,https://www.otodom.pl/shop/maxon-nieruchomosci-sp-z-o-o-IDiDsI/
466,AdReM Nieruchomości Sp z o.o.,22.01.2018,Bukowińska 24a/34,mazowieckie,02-703,Warszawa,https://adremwarszawa.otodom.pl
467,Retalia Nieruchomości,12.10.2017,Grzybowska 87,mazowieckie,00-844,Warszawa,https://www.otodom.pl/shop/retalia-nieruchomosci-IDcRRe/
468,REALS Nieruchomości sp. z o.o.,20.04.2018,Grzybowska 2B lok. 83,mazowieckie,00-131,Warszawa,https://www.otodom.pl/shop/reals-nieruchomosci-sp-z-o-o-IDgTq0/
469,Wilsons Nieruchomości Sp. z o.o.,22.02.2018,Świętokrzyska 20 lok 311,mazowieckie,00-002,Warszawa,https://wilsons.otodom.pl
470,Mzuri Sp. z o.o.,14.01.2016,Aleja Niepodległości 221/1,mazowieckie,02-087,Warszawa,https://mzuri.otodom.pl
471,Sadyba Metrohouse,23.02.2017,Powsińska 34,mazowieckie,02-903,Warszawa,https://metrohousesadyba.otodom.pl
472,Lions Estate Sp. z o o.,09.09.2016,Wiejska 11/13,mazowieckie,00-480,Warszawa,https://lionsestate.otodom.pl
473,Axi Immo Group Sp. z o.o.,14.04.2011,Twarda 18,mazowieckie,00-105,Warszawa,https://axi.otodom.pl
474,INVESTORIUS Sp. z o.o.,09.01.2015,Śniadeckich 17,mazowieckie,00-654,Warszawa,https://investorius.otodom.pl
475,Euro-House Nieruchomości komercyjne,04.02.2014,ul. Braci Wagów 20 lok u1,mazowieckie,02-791,Warszawa,https://www.otodom.pl/shop/euro-house-nieruchomosci-komercyjne-ID2KPJ/
476,Biuro Na Miarę,20.02.2018,Nowy Świat 47,mazowieckie,00-042,Warszawa,https://biuronamiare.otodom.pl
477,Flatcare - nowoczesny zarządca nieruchomości,02.12.2019,Kępa Tarchomińska 6C/1/2,mazowieckie,03-113,Warszawa,https://flatcare.otodom.pl
478,En Casa Premium Real Estate,19.11.2014,Studencka 55,mazowieckie,02-735,Warszawa,https://encasa.otodom.pl
479,PARTNER HOUSE GROUP,09.07.2020,Wiertnicza 45,mazowieckie,02-953,Warszawa,https://www.otodom.pl/shop/partner-house-group-IDwtSy/
480,KOLOSEUM NIERUCHOMOŚCI,09.08.2012,Domaniewska 37/31G,mazowieckie,02-672,Warszawa,https://koloseum-nieruchomosci.otodom.pl
481,Freedom Nieruchomości Franczyza,17.04.2018,Pokorna 2 lok. U13,mazowieckie,00-199,Warszawa,https://www.otodom.pl/shop/freedom-nieruchomosci-franczyza-IDh1mU/
482,Expander Advisors,30.04.2015,Ul. Inflancka 4b,mazowieckie,00-189,Warszawa,https://www.otodom.pl/shop/expander-advisors-ID3ICK/
483,Biuro sprzedaży,02.11.2015,Marynarska 21 lok 6,mazowieckie,02-674,Warszawa,https://N-plus.otodom.pl
484,Metrohouse  Franchise S.A.,02.07.2018,Żelazna 28/30,mazowieckie,00-832,Warszawa,https://metrohouse-franchise.otodom.pl
485,Maxon Nieruchomosci Sp. z o.o.,28.06.2018,Powązkowska 44C,mazowieckie,01-797,Warszawa,https://www.otodom.pl/shop/maxon-nieruchomosci-sp-z-o-o-IDiDsI/
486,AdReM Nieruchomości Sp z o.o.,22.01.2018,Bukowińska 24a/34,mazowieckie,02-703,Warszawa,https://adremwarszawa.otodom.pl
487,Retalia Nieruchomości,12.10.2017,Grzybowska 87,mazowieckie,00-844,Warszawa,https://www.otodom.pl/shop/retalia-nieruchomosci-IDcRRe/
488,REALS Nieruchomości sp. z o.o.,20.04.2018,Grzybowska 2B lok. 83,mazowieckie,00-131,Warszawa,https://www.otodom.pl/shop/reals-nieruchomosci-sp-z-o-o-IDgTq0/
489,Wilsons Nieruchomości Sp. z o.o.,22.02.2018,Świętokrzyska 20 lok 311,mazowieckie,00-002,Warszawa,https://wilsons.otodom.pl
490,Mzuri Sp. z o.o.,14.01.2016,Aleja Niepodległości 221/1,mazowieckie,02-087,Warszawa,https://mzuri.otodom.pl
491,Sadyba Metrohouse,23.02.2017,Powsińska 34,mazowieckie,02-903,Warszawa,https://metrohousesadyba.otodom.pl
492,Lions Estate Sp. z o o.,09.09.2016,Wiejska 11/13,mazowieckie,00-480,Warszawa,https://lionsestate.otodom.pl
493,Axi Immo Group Sp. z o.o.,14.04.2011,Twarda 18,mazowieckie,00-105,Warszawa,https://axi.otodom.pl
494,INVESTORIUS Sp. z o.o.,09.01.2015,Śniadeckich 17,mazowieckie,00-654,Warszawa,https://investorius.otodom.pl
495,Euro-House Nieruchomości komercyjne,04.02.2014,ul. Braci Wagów 20 lok u1,mazowieckie,02-791,Warszawa,https://www.otodom.pl/shop/euro-house-nieruchomosci-komercyjne-ID2KPJ/
496,Biuro Na Miarę,20.02.2018,Nowy Świat 47,mazowieckie,00-042,Warszawa,https://biuronamiare.otodom.pl
497,Flatcare - nowoczesny zarządca nieruchomości,02.12.2019,Kępa Tarchomińska 6C/1/2,mazowieckie,03-113,Warszawa,https://flatcare.otodom.pl
498,En Casa Premium Real Estate,19.11.2014,Studencka 55,mazowieckie,02-735,Warszawa,https://encasa.otodom.pl
499,PARTNER HOUSE GROUP,09.07.2020,Wiertnicza 45,mazowieckie,02-953,Warszawa,https://www.otodom.pl/shop/partner-house-group-IDwtSy/
500,KOLOSEUM NIERUCHOMOŚCI,09.08.2012,Domaniewska 37/31G,mazowieckie,02-672,Warszawa,https://koloseum-nieruchomosci.otodom.pl
501,Freedom Nieruchomości Franczyza,17.04.2018,Pokorna 2 lok. U13,mazowieckie,00-199,Warszawa,https://www.otodom.pl/shop/freedom-nieruchomosci-franczyza-IDh1mU/
502,Expander Advisors,30.04.2015,Ul. Inflancka 4b,mazowieckie,00-189,Warszawa,https://www.otodom.pl/shop/expander-advisors-ID3ICK/
503,Biuro sprzedaży,02.11.2015,Marynarska 21 lok 6,mazowieckie,02-674,Warszawa,https://N-plus.otodom.pl
504,Metrohouse  Franchise S.A.,02.07.2018,Żelazna 28/30,mazowieckie,00-832,Warszawa,https://metrohouse-franchise.otodom.pl
505,Maxon Nieruchomosci Sp. z o.o.,28.06.2018,Powązkowska 44C,mazowieckie,01-797,Warszawa,https://www.otodom.pl/shop/maxon-nieruchomosci-sp-z-o-o-IDiDsI/
506,AdReM Nieruchomości Sp z o.o.,22.01.2018,Bukowińska 24a/34,mazowieckie,02-703,Warszawa,https://adremwarszawa.otodom.pl
507,Retalia Nieruchomości,12.10.2017,Grzybowska 87,mazowieckie,00-844,Warszawa,https://www.otodom.pl/shop/retalia-nieruchomosci-IDcRRe/
508,REALS Nieruchomości sp. z o.o.,20.04.2018,Grzybowska 2B lok. 83,mazowieckie,00-131,Warszawa,https://www.otodom.pl/shop/reals-nieruchomosci-sp-z-o-o-IDgTq0/
509,Wilsons Nieruchomości Sp. z o.o.,22.02.2018,Świętokrzyska 20 lok 311,mazowieckie,00-002,Warszawa,https://wilsons.otodom.pl
510,Mzuri Sp. z o.o.,14.01.2016,Aleja Niepodległości 221/1,mazowieckie,02-087,Warszawa,https://mzuri.otodom.pl
511,Sadyba Metrohouse,23.02.2017,Powsińska 34,mazowieckie,02-903,Warszawa,https://metrohousesadyba.otodom.pl
512,Lions Estate Sp. z o o.,09.09.2016,Wiejska 11/13,mazowieckie,00-480,Warszawa,https://lionsestate.otodom.pl
513,Axi Immo Group Sp. z o.o.,14.04.2011,Twarda 18,mazowieckie,00-105,Warszawa,https://axi.otodom.pl
514,INVESTORIUS Sp. z o.o.,09.01.2015,Śniadeckich 17,mazowieckie,00-654,Warszawa,https://investorius.otodom.pl
515,Euro-House Nieruchomości komercyjne,04.02.2014,ul. Braci Wagów 20 lok u1,mazowieckie,02-791,Warszawa,https://www.otodom.pl/shop/euro-house-nieruchomosci-komercyjne-ID2KPJ/
516,Biuro Na Miarę,20.02.2018,Nowy Świat 47,mazowieckie,00-042,Warszawa,https://biuronamiare.otodom.pl
517,Flatcare - nowoczesny zarządca nieruchomości,02.12.2019,Kępa Tarchomińska 6C/1/2,mazowieckie,03-113,Warszawa,https://flatcare.otodom.pl
518,En Casa Premium Real Estate,19.11.2014,Studencka 55,mazowieckie,02-735,Warszawa,https://encasa.otodom.pl
519,PARTNER HOUSE GROUP,09.07.2020,Wiertnicza 45,mazowieckie,02-953,Warszawa,https://www.otodom.pl/shop/partner-house-group-IDwtSy/
520,KOLOSEUM NIERUCHOMOŚCI,09.08.2012,Domaniewska 37/31G,mazowieckie,02-672,Warszawa,https://koloseum-nieruchomosci.otodom.pl
521,Freedom Nieruchomości Franczyza,17.04.2018,Pokorna 2 lok. U13,mazowieckie,00-199,Warszawa,https://www.otodom.pl/shop/freedom-nieruchomosci-franczyza-IDh1mU/
522,Expander Advisors,30.04.2015,Ul. Inflancka 4b,mazowieckie,00-189,Warszawa,https://www.otodom.pl/shop/expander-advisors-ID3ICK/
523,Biuro sprzedaży,02.11.2015,Marynarska 21 lok 6,mazowieckie,02-674,Warszawa,https://N-plus.otodom.pl
524,Metrohouse  Franchise S.A.,02.07.2018,Żelazna 28/30,mazowieckie,00-832,Warszawa,https://metrohouse-franchise.otodom.pl
525,Maxon Nieruchomosci Sp. z o.o.,28.06.2018,Powązkowska 44C,mazowieckie,01-797,Warszawa,https://www.otodom.pl/shop/maxon-nieruchomosci-sp-z-o-o-IDiDsI/
526,AdReM Nieruchomości Sp z o.o.,22.01.2018,Bukowińska 24a/34,mazowieckie,02-703,Warszawa,https://adremwarszawa.otodom.pl
527,Retalia Nieruchomości,12.10.2017,Grzybowska 87,mazowieckie,00-844,Warszawa,https://www.otodom.pl/shop/retalia-nieruchomosci-IDcRRe/
528,REALS Nieruchomości sp. z o.o.,20.04.2018,Grzybowska 2B lok. 83,mazowieckie,00-131,Warszawa,https://www.otodom.pl/shop/reals-nieruchomosci-sp-z-o-o-IDgTq0/
529,Wilsons Nieruchomości Sp. z o.o.,22.02.2018,Świętokrzyska 20 lok 311,mazowieckie,00-002,Warszawa,https://wilsons.otodom.pl
530,Mzuri Sp. z o.o.,14.01.2016,Aleja Niepodległości 221/1,mazowieckie,02-087,Warszawa,https://mzuri.otodom.pl
531,Sadyba Metrohouse,23.02.2017,Powsińska 34,mazowieckie,02-903,Warszawa,https://metrohousesadyba.otodom.pl
532,Lions Estate Sp. z o o.,09.09.2016,Wiejska 11/13,mazowieckie,00-480,Warszawa,https://lionsestate.otodom.pl
533,Axi Immo Group Sp. z o.o.,14.04.2011,Twarda 18,mazowieckie,00-105,Warszawa,https://axi.otodom.pl
534,INVESTORIUS Sp. z o.o.,09.01.2015,Śniadeckich 17,mazowieckie,00-654,Warszawa,https://investorius.otodom.pl
535,Euro-House Nieruchomości komercyjne,04.02.2014,ul. Braci Wagów 20 lok u1,mazowieckie,02-791,Warszawa,https://www.otodom.pl/shop/euro-house-nieruchomosci-komercyjne-ID2KPJ/
536,Biuro Na Miarę,20.02.2018,Nowy Świat 47,mazowieckie,00-042,Warszawa,https://biuronamiare.otodom.pl
537,Flatcare - nowoczesny zarządca nieruchomości,02.12.2019,Kępa Tarchomińska 6C/1/2,mazowieckie,03-113,Warszawa,https://flatcare.otodom.pl
538,En Casa Premium Real Estate,19.11.2014,Studencka 55,mazowieckie,02-735,Warszawa,https://encasa.otodom.pl
539,PARTNER HOUSE GROUP,09.07.2020,Wiertnicza 45,mazowieckie,02-953,Warszawa,https://www.otodom.pl/shop/partner-house-group-IDwtSy/
540,KOLOSEUM NIERUCHOMOŚCI,09.08.2012,Domaniewska 37/31G,mazowieckie,02-672,Warszawa,https://koloseum-nieruchomosci.otodom.pl
541,Freedom Nieruchomości Franczyza,17.04.2018,Pokorna 2 lok. U13,mazowieckie,00-199,Warszawa,https://www.otodom.pl/shop/freedom-nieruchomosci-franczyza-IDh1mU/
542,Expander Advisors,30.04.2015,Ul. Inflancka 4b,mazowieckie,00-189,Warszawa,https://www.otodom.pl/shop/expander-advisors-ID3ICK/
543,Biuro sprzedaży,02.11.2015,Marynarska 21 lok 6,mazowieckie,02-674,Warszawa,https://N-plus.otodom.pl
544,Metrohouse  Franchise S.A.,02.07.2018,Żelazna 28/30,mazowieckie,00-832,Warszawa,https://metrohouse-franchise.otodom.pl
545,Maxon Nieruchomosci Sp. z o.o.,28.06.2018,Powązkowska 44C,mazowieckie,01-797,Warszawa,https://www.otodom.pl/shop/maxon-nieruchomosci-sp-z-o-o-IDiDsI/
546,AdReM Nieruchomości Sp z o.o.,22.01.2018,Bukowińska 24a/34,mazowieckie,02-703,Warszawa,https://adremwarszawa.otodom.pl
547,Retalia Nieruchomości,12.10.2017,Grzybowska 87,mazowieckie,00-844,Warszawa,https://www.otodom.pl/shop/retalia-nieruchomosci-IDcRRe/
548,REALS Nieruchomości sp. z o.o.,20.04.2018,Grzybowska 2B lok. 83,mazowieckie,00-131,Warszawa,https://www.otodom.pl/shop/reals-nieruchomosci-sp-z-o-o-IDgTq0/
549,Wilsons Nieruchomości Sp. z o.o.,22.02.2018,Świętokrzyska 20 lok 311,mazowieckie,00-002,Warszawa,https://wilsons.otodom.pl
550,Mzuri Sp. z o.o.,14.01.2016,Aleja Niepodległości 221/1,mazowieckie,02-087,Warszawa,https://mzuri.otodom.pl
551,Sadyba Metrohouse,23.02.2017,Powsińska 34,mazowieckie,02-903,Warszawa,https://metrohousesadyba.otodom.pl
552,Lions Estate Sp. z o o.,09.09.2016,Wiejska 11/13,mazowieckie,00-480,Warszawa,https://lionsestate.otodom.pl
553,Axi Immo Group Sp. z o.o.,14.04.2011,Twarda 18,mazowieckie,00-105,Warszawa,https://axi.otodom.pl
554,INVESTORIUS Sp. z o.o.,09.01.2015,Śniadeckich 17,mazowieckie,00-654,Warszawa,https://investorius.otodom.pl
555,Euro-House Nieruchomości komercyjne,04.02.2014,ul. Braci Wagów 20 lok u1,mazowieckie,02-791,Warszawa,https://www.otodom.pl/shop/euro-house-nieruchomosci-komercyjne-ID2KPJ/
556,Biuro Na Miarę,20.02.2018,Nowy Świat 47,mazowieckie,00-042,Warszawa,https://biuronamiare.otodom.pl
557,Flatcare - nowoczesny zarządca nieruchomości,02.12.2019,Kępa Tarchomińska 6C/1/2,mazowieckie,03-113,Warszawa,https://flatcare.otodom.pl
558,En Casa Premium Real Estate,19.11.2014,Studencka 55,mazowieckie,02-735,Warszawa,https://encasa.otodom.pl
559,PARTNER HOUSE GROUP,09.07.2020,Wiertnicza 45,mazowieckie,02-953,Warszawa,https://www.otodom.pl/shop/partner-house-group-IDwtSy/
560,KOLOSEUM NIERUCHOMOŚCI,09.08.2012,Domaniewska 37/31G,mazowieckie,02-672,Warszawa,https://koloseum-nieruchomosci.otodom.pl
561,Freedom Nieruchomości Franczyza,17.04.2018,Pokorna 2 lok. U13,mazowieckie,00-199,Warszawa,https://www.otodom.pl/shop/freedom-nieruchomosci-franczyza-IDh1mU/
562,Expander Advisors,30.04.2015,Ul. Inflancka 4b,mazowieckie,00-189,Warszawa,https://www.otodom.pl/shop/expander-advisors-ID3ICK/
563,Biuro sprzedaży,02.11.2015,Marynarska 21 lok 6,mazowieckie,02-674,Warszawa,https://N-plus.otodom.pl
564,Metrohouse  Franchise S.A.,02.07.2018,Żelazna 28/30,mazowieckie,00-832,Warszawa,https://metrohouse-franchise.otodom.pl
565,Maxon Nieruchomosci Sp. z o.o.,28.06.2018,Powązkowska 44C,mazowieckie,01-797,Warszawa,https://www.otodom.pl/shop/maxon-nieruchomosci-sp-z-o-o-IDiDsI/
566,AdReM Nieruchomości Sp z o.o.,22.01.2018,Bukowińska 24a/34,mazowieckie,02-703,Warszawa,https://adremwarszawa.otodom.pl
567,Retalia Nieruchomości,12.10.2017,Grzybowska 87,mazowieckie,00-844,Warszawa,https://www.otodom.pl/shop/retalia-nieruchomosci-IDcRRe/
568,REALS Nieruchomości sp. z o.o.,20.04.2018,Grzybowska 2B lok. 83,mazowieckie,00-131,Warszawa,https://www.otodom.pl/shop/reals-nieruchomosci-sp-z-o-o-IDgTq0/
569,Wilsons Nieruchomości Sp. z o.o.,22.02.2018,Świętokrzyska 20 lok 311,mazowieckie,00-002,Warszawa,https://wilsons.otodom.pl
570,Mzuri Sp. z o.o.,14.01.2016,Aleja Niepodległości 221/1,mazowieckie,02-087,Warszawa,https://mzuri.otodom.pl
571,Sadyba Metrohouse,23.02.2017,Powsińska 34,mazowieckie,02-903,Warszawa,https://metrohousesadyba.otodom.pl
572,Lions Estate Sp. z o o.,09.09.2016,Wiejska 11/13,mazowieckie,00-480,Warszawa,https://lionsestate.otodom.pl
573,Axi Immo Group Sp. z o.o.,14.04.2011,Twarda 18,mazowieckie,00-105,Warszawa,https://axi.otodom.pl
574,INVESTORIUS Sp. z o.o.,09.01.2015,Śniadeckich 17,mazowieckie,00-654,Warszawa,https://investorius.otodom.pl
575,Euro-House Nieruchomości komercyjne,04.02.2014,ul. Braci Wagów 20 lok u1,mazowieckie,02-791,Warszawa,https://www.otodom.pl/shop/euro-house-nieruchomosci-komercyjne-ID2KPJ/
576,Biuro Na Miarę,20.02.2018,Nowy Świat 47,mazowieckie,00-042,Warszawa,https://biuronamiare.otodom.pl
577,Flatcare - nowoczesny zarządca nieruchomości,02.12.2019,Kępa Tarchomińska 6C/1/2,mazowieckie,03-113,Warszawa,https://flatcare.otodom.pl
578,En Casa Premium Real Estate,19.11.2014,Studencka 55,mazowieckie,02-735,Warszawa,https://encasa.otodom.pl
579,PARTNER HOUSE GROUP,09.07.2020,Wiertnicza 45,mazowieckie,02-953,Warszawa,https://www.otodom.pl/shop/partner-house-group-IDwtSy/
580,KOLOSEUM NIERUCHOMOŚCI,09.08.2012,Domaniewska 37/31G,mazowieckie,02-672,Warszawa,https://koloseum-nieruchomosci.otodom.pl
581,Freedom Nieruchomości Franczyza,17.04.2018,Pokorna 2 lok. U13,mazowieckie,00-199,Warszawa,https://www.otodom.pl/shop/freedom-nieruchomosci-franczyza-IDh1mU/
582,Expander Advisors,30.04.2015,Ul. Inflancka 4b,mazowieckie,00-189,Warszawa,https://www.otodom.pl/shop/expander-advisors-ID3ICK/
583,Biuro sprzedaży,02.11.2015,Marynarska 21 lok 6,mazowieckie,02-674,Warszawa,https://N-plus.otodom.pl
584,Metrohouse  Franchise S.A.,02.07.2018,Żelazna 28/30,mazowieckie,00-832,Warszawa,https://metrohouse-franchise.otodom.pl
585,Maxon Nieruchomosci Sp. z o.o.,28.06.2018,Powązkowska 44C,mazowieckie,01-797,Warszawa,https://www.otodom.pl/shop/maxon-nieruchomosci-sp-z-o-o-IDiDsI/
586,AdReM Nieruchomości Sp z o.o.,22.01.2018,Bukowińska 24a/34,mazowieckie,02-703,Warszawa,https://adremwarszawa.otodom.pl
587,Retalia Nieruchomości,12.10.2017,Grzybowska 87,mazowieckie,00-844,Warszawa,https://www.otodom.pl/shop/retalia-nieruchomosci-IDcRRe/
588,REALS Nieruchomości sp. z o.o.,20.04.2018,Grzybowska 2B lok. 83,mazowieckie,00-131,Warszawa,https://www.otodom.pl/shop/reals-nieruchomosci-sp-z-o-o-IDgTq0/
589,Wilsons Nieruchomości Sp. z o.o.,22.02.2018,Świętokrzyska 20 lok 311,mazowieckie,00-002,Warszawa,https://wilsons.otodom.pl
590,Mzuri Sp. z o.o.,14.01.2016,Aleja Niepodległości 221/1,mazowieckie,02-087,Warszawa,https://mzuri.otodom.pl
591,Sadyba Metrohouse,23.02.2017,Powsińska 34,mazowieckie,02-903,Warszawa,https://metrohousesadyba.otodom.pl
592,Lions Estate Sp. z o o.,09.09.2016,Wiejska 11/13,mazowieckie,00-480,Warszawa,https://lionsestate.otodom.pl
593,Axi Immo Group Sp. z o.o.,14.04.2011,Twarda 18,mazowieckie,00-105,Warszawa,https://axi.otodom.pl
594,INVESTORIUS Sp. z o.o.,09.01.2015,Śniadeckich 17,mazowieckie,00-654,Warszawa,https://investorius.otodom.pl
595,Euro-House Nieruchomości komercyjne,04.02.2014,ul. Braci Wagów 20 lok u1,mazowieckie,02-791,Warszawa,https://www.otodom.pl/shop/euro-house-nieruchomosci-komercyjne-ID2KPJ/
596,Biuro Na Miarę,20.02.2018,Nowy Świat 47,mazowieckie,00-042,Warszawa,https://biuronamiare.otodom.pl
597,Flatcare - nowoczesny zarządca nieruchomości,02.12.2019,Kępa Tarchomińska 6C/1/2,mazowieckie,03-113,Warszawa,https://flatcare.otodom.pl
598,En Casa Premium Real Estate,19.11.2014,Studencka 55,mazowieckie,02-735,Warszawa,https://encasa.otodom.pl
599,PARTNER HOUSE GROUP,09.07.2020,Wiertnicza 45,mazowieckie,02-953,Warszawa,https://www.otodom.pl/shop/partner-house-group-IDwtSy/
600,KOLOSEUM NIERUCHOMOŚCI,09.08.2012,Domaniewska 37/31G,mazowieckie,02-672,Warszawa,https://koloseum-nieruchomosci.otodom.pl
601,Freedom Nieruchomości Franczyza,17.04.2018,Pokorna 2 lok. U13,mazowieckie,00-199,Warszawa,https://www.otodom.pl/shop/freedom-nieruchomosci-franczyza-IDh1mU/
602,Expander Advisors,30.04.2015,Ul. Inflancka 4b,mazowieckie,00-189,Warszawa,https://www.otodom.pl/shop/expander-advisors-ID3ICK/
603,Biuro sprzedaży,02.11.2015,Marynarska 21 lok 6,mazowieckie,02-674,Warszawa,https://N-plus.otodom.pl
604,Metrohouse  Franchise S.A.,02.07.2018,Żelazna 28/30,mazowieckie,00-832,Warszawa,https://metrohouse-franchise.otodom.pl
605,Maxon Nieruchomosci Sp. z o.o.,28.06.2018,Powązkowska 44C,mazowieckie,01-797,Warszawa,https://www.otodom.pl/shop/maxon-nieruchomosci-sp-z-o-o-IDiDsI/
606,AdReM Nieruchomości Sp z o.o.,22.01.2018,Bukowińska 24a/34,mazowieckie,02-703,Warszawa,https://adremwarszawa.otodom.pl
607,Retalia Nieruchomości,12.10.2017,Grzybowska 87,mazowieckie,00-844,Warszawa,https://www.otodom.pl/shop/retalia-nieruchomosci-IDcRRe/
608,REALS Nieruchomości sp. z o.o.,20.04.2018,Grzybowska 2B lok. 83,mazowieckie,00-131,Warszawa,https://www.otodom.pl/shop/reals-nieruchomosci-sp-z-o-o-IDgTq0/
609,Wilsons Nieruchomości Sp. z o.o.,22.02.2018,Świętokrzyska 20 lok 311,mazowieckie,00-002,Warszawa,https://wilsons.otodom.pl
610,Mzuri Sp. z o.o.,14.01.2016,Aleja Niepodległości 221/1,mazowieckie,02-087,Warszawa,https://mzuri.otodom.pl
611,Sadyba Metrohouse,23.02.2017,Powsińska 34,mazowieckie,02-903,Warszawa,https://metrohousesadyba.otodom.pl
612,Lions Estate Sp. z o o.,09.09.2016,Wiejska 11/13,mazowieckie,00-480,Warszawa,https://lionsestate.otodom.pl
613,Axi Immo Group Sp. z o.o.,14.04.2011,Twarda 18,mazowieckie,00-105,Warszawa,https://axi.otodom.pl
614,INVESTORIUS Sp. z o.o.,09.01.2015,Śniadeckich 17,mazowieckie,00-654,Warszawa,https://investorius.otodom.pl
615,Euro-House Nieruchomości komercyjne,04.02.2014,ul. Braci Wagów 20 lok u1,mazowieckie,02-791,Warszawa,https://www.otodom.pl/shop/euro-house-nieruchomosci-komercyjne-ID2KPJ/
616,Biuro Na Miarę,20.02.2018,Nowy Świat 47,mazowieckie,00-042,Warszawa,https://biuronamiare.otodom.pl
617,Flatcare - nowoczesny zarządca nieruchomości,02.12.2019,Kępa Tarchomińska 6C/1/2,mazowieckie,03-113,Warszawa,https://flatcare.otodom.pl
618,En Casa Premium Real Estate,19.11.2014,Studencka 55,mazowieckie,02-735,Warszawa,https://encasa.otodom.pl
619,PARTNER HOUSE GROUP,09.07.2020,Wiertnicza 45,mazowieckie,02-953,Warszawa,https://www.otodom.pl/shop/partner-house-group-IDwtSy/
620,KOLOSEUM NIERUCHOMOŚCI,09.08.2012,Domaniewska 37/31G,mazowieckie,02-672,Warszawa,https://koloseum-nieruchomosci.otodom.pl
621,Freedom Nieruchomości Franczyza,17.04.2018,Pokorna 2 lok. U13,mazowieckie,00-199,Warszawa,https://www.otodom.pl/shop/freedom-nieruchomosci-franczyza-IDh1mU/
622,Expander Advisors,30.04.2015,Ul. Inflancka 4b,mazowieckie,00-189,Warszawa,https://www.otodom.pl/shop/expander-advisors-ID3ICK/
623,Biuro sprzedaży,02.11.2015,Marynarska 21 lok 6,mazowieckie,02-674,Warszawa,https://N-plus.otodom.pl
624,Metrohouse  Franchise S.A.,02.07.2018,Żelazna 28/30,mazowieckie,00-832,Warszawa,https://metrohouse-franchise.otodom.pl
625,Maxon Nieruchomosci Sp. z o.o.,28.06.2018,Powązkowska 44C,mazowieckie,01-797,Warszawa,https://www.otodom.pl/shop/maxon-nieruchomosci-sp-z-o-o-IDiDsI/
626,AdReM Nieruchomości Sp z o.o.,22.01.2018,Bukowińska 24a/34,mazowieckie,02-703,Warszawa,https://adremwarszawa.otodom.pl
627,Retalia Nieruchomości,12.10.2017,Grzybowska 87,mazowieckie,00-844,Warszawa,https://www.otodom.pl/shop/retalia-nieruchomosci-IDcRRe/
628,REALS Nieruchomości sp. z o.o.,20.04.2018,Grzybowska 2B lok. 83,mazowieckie,00-131,Warszawa,https://www.otodom.pl/shop/reals-nieruchomosci-sp-z-o-o-IDgTq0/
629,Wilsons Nieruchomości Sp. z o.o.,22.02.2018,Świętokrzyska 20 lok 311,mazowieckie,00-002,Warszawa,https://wilsons.otodom.pl
630,Mzuri Sp. z o.o.,14.01.2016,Aleja Niepodległości 221/1,mazowieckie,02-087,Warszawa,https://mzuri.otodom.pl
631,Sadyba Metrohouse,23.02.2017,Powsińska 34,mazowieckie,02-903,Warszawa,https://metrohousesadyba.otodom.pl
632,Lions Estate Sp. z o o.,09.09.2016,Wiejska 11/13,mazowieckie,00-480,Warszawa,https://lionsestate.otodom.pl
633,Axi Immo Group Sp. z o.o.,14.04.2011,Twarda 18,mazowieckie,00-105,Warszawa,https://axi.otodom.pl
634,INVESTORIUS Sp. z o.o.,09.01.2015,Śniadeckich 17,mazowieckie,00-654,Warszawa,https://investorius.otodom.pl
635,Euro-House Nieruchomości komercyjne,04.02.2014,ul. Braci Wagów 20 lok u1,mazowieckie,02-791,Warszawa,https://www.otodom.pl/shop/euro-house-nieruchomosci-komercyjne-ID2KPJ/
636,Biuro Na Miarę,20.02.2018,Nowy Świat 47,mazowieckie,00-042,Warszawa,https://biuronamiare.otodom.pl
637,Flatcare - nowoczesny zarządca nieruchomości,02.12.2019,Kępa Tarchomińska 6C/1/2,mazowieckie,03-113,Warszawa,https://flatcare.otodom.pl
638,En Casa Premium Real Estate,19.11.2014,Studencka 55,mazowieckie,02-735,Warszawa,https://encasa.otodom.pl
639,PARTNER HOUSE GROUP,09.07.2020,Wiertnicza 45,mazowieckie,02-953,Warszawa,https://www.otodom.pl/shop/partner-house-group-IDwtSy/
640,KOLOSEUM NIERUCHOMOŚCI,09.08.2012,Domaniewska 37/31G,mazowieckie,02-672,Warszawa,https://koloseum-nieruchomosci.otodom.pl
641,Freedom Nieruchomości Franczyza,17.04.2018,Pokorna 2 lok. U13,mazowieckie,00-199,Warszawa,https://www.otodom.pl/shop/freedom-nieruchomosci-franczyza-IDh1mU/
642,Expander Advisors,30.04.2015,Ul. Inflancka 4b,mazowieckie,00-189,Warszawa,https://www.otodom.pl/shop/expander-advisors-ID3ICK/
643,Biuro sprzedaży,02.11.2015,Marynarska 21 lok 6,mazowieckie,02-674,Warszawa,https://N-plus.otodom.pl
644,Metrohouse  Franchise S.A.,02.07.2018,Żelazna 28/30,mazowieckie,00-832,Warszawa,https://metrohouse-franchise.otodom.pl
645,Maxon Nieruchomosci Sp. z o.o.,28.06.2018,Powązkowska 44C,mazowieckie,01-797,Warszawa,https://www.otodom.pl/shop/maxon-nieruchomosci-sp-z-o-o-IDiDsI/
646,AdReM Nieruchomości Sp z o.o.,22.01.2018,Bukowińska 24a/34,mazowieckie,02-703,Warszawa,https://adremwarszawa.otodom.pl
647,Retalia Nieruchomości,12.10.2017,Grzybowska 87,mazowieckie,00-844,Warszawa,https://www.otodom.pl/shop/retalia-nieruchomosci-IDcRRe/
648,REALS Nieruchomości sp. z o.o.,20.04.2018,Grzybowska 2B lok. 83,mazowieckie,00-131,Warszawa,https://www.otodom.pl/shop/reals-nieruchomosci-sp-z-o-o-IDgTq0/
649,Wilsons Nieruchomości Sp. z o.o.,22.02.2018,Świętokrzyska 20 lok 311,mazowieckie,00-002,Warszawa,https://wilsons.otodom.pl
650,Mzuri Sp. z o.o.,14.01.2016,Aleja Niepodległości 221/1,mazowieckie,02-087,Warszawa,https://mzuri.otodom.pl
651,Sadyba Metrohouse,23.02.2017,Powsińska 34,mazowieckie,02-903,Warszawa,https://metrohousesadyba.otodom.pl
652,Lions Estate Sp. z o o.,09.09.2016,Wiejska 11/13,mazowieckie,00-480,Warszawa,https://lionsestate.otodom.pl
653,Axi Immo Group Sp. z o.o.,14.04.2011,Twarda 18,mazowieckie,00-105,Warszawa,https://axi.otodom.pl
654,INVESTORIUS Sp. z o.o.,09.01.2015,Śniadeckich 17,mazowieckie,00-654,Warszawa,https://investorius.otodom.pl
655,Euro-House Nieruchomości komercyjne,04.02.2014,ul. Braci Wagów 20 lok u1,mazowieckie,02-791,Warszawa,https://www.otodom.pl/shop/euro-house-nieruchomosci-komercyjne-ID2KPJ/
656,Biuro Na Miarę,20.02.2018,Nowy Świat 47,mazowieckie,00-042,Warszawa,https://biuronamiare.otodom.pl
657,Flatcare - nowoczesny zarządca nieruchomości,02.12.2019,Kępa Tarchomińska 6C/1/2,mazowieckie,03-113,Warszawa,https://flatcare.otodom.pl
658,En Casa Premium Real Estate,19.11.2014,Studencka 55,mazowieckie,02-735,Warszawa,https://encasa.otodom.pl
659,PARTNER HOUSE GROUP,09.07.2020,Wiertnicza 45,mazowieckie,02-953,Warszawa,https://www.otodom.pl/shop/partner-house-group-IDwtSy/
660,KOLOSEUM NIERUCHOMOŚCI,09.08.2012,Domaniewska 37/31G,mazowieckie,02-672,Warszawa,https://koloseum-nieruchomosci.otodom.pl
661,Freedom Nieruchomości Franczyza,17.04.2018,Pokorna 2 lok. U13,mazowieckie,00-199,Warszawa,https://www.otodom.pl/shop/freedom-nieruchomosci-franczyza-IDh1mU/
662,Expander Advisors,30.04.2015,Ul. Inflancka 4b,mazowieckie,00-189,Warszawa,https://www.otodom.pl/shop/expander-advisors-ID3ICK/
663,Biuro sprzedaży,02.11.2015,Marynarska 21 lok 6,mazowieckie,02-674,Warszawa,https://N-plus.otodom.pl
664,Metrohouse  Franchise S.A.,02.07.2018,Żelazna 28/30,mazowieckie,00-832,Warszawa,https://metrohouse-franchise.otodom.pl
665,Maxon Nieruchomosci Sp. z o.o.,28.06.2018,Powązkowska 44C,mazowieckie,01-797,Warszawa,https://www.otodom.pl/shop/maxon-nieruchomosci-sp-z-o-o-IDiDsI/
666,AdReM Nieruchomości Sp z o.o.,22.01.2018,Bukowińska 24a/34,mazowieckie,02-703,Warszawa,https://adremwarszawa.otodom.pl
667,Retalia Nieruchomości,12.10.2017,Grzybowska 87,mazowieckie,00-844,Warszawa,https://www.otodom.pl/shop/retalia-nieruchomosci-IDcRRe/
668,REALS Nieruchomości sp. z o.o.,20.04.2018,Grzybowska 2B lok. 83,mazowieckie,00-131,Warszawa,https://www.otodom.pl/shop/reals-nieruchomosci-sp-z-o-o-IDgTq0/
669,Wilsons Nieruchomości Sp. z o.o.,22.02.2018,Świętokrzyska 20 lok 311,mazowieckie,00-002,Warszawa,https://wilsons.otodom.pl
670,Mzuri Sp. z o.o.,14.01.2016,Aleja Niepodległości 221/1,mazowieckie,02-087,Warszawa,https://mzuri.otodom.pl
671,Sadyba Metrohouse,23.02.2017,Powsińska 34,mazowieckie,02-903,Warszawa,https://metrohousesadyba.otodom.pl
672,Lions Estate Sp. z o o.,09.09.2016,Wiejska 11/13,mazowieckie,00-480,Warszawa,https://lionsestate.otodom.pl
673,Axi Immo Group Sp. z o.o.,14.04.2011,Twarda 18,mazowieckie,00-105,Warszawa,https://axi.otodom.pl
674,INVESTORIUS Sp. z o.o.,09.01.2015,Śniadeckich 17,mazowieckie,00-654,Warszawa,https://investorius.otodom.pl
675,Euro-House Nieruchomości komercyjne,04.02.2014,ul. Braci Wagów 20 lok u1,mazowieckie,02-791,Warszawa,https://www.otodom.pl/shop/euro-house-nieruchomosci-komercyjne-ID2KPJ/
676,Biuro Na Miarę,20.02.2018,Nowy Świat 47,mazowieckie,00-042,Warszawa,https://biuronamiare.otodom.pl
677,Flatcare - nowoczesny zarządca nieruchomości,02.12.2019,Kępa Tarchomińska 6C/1/2,mazowieckie,03-113,Warszawa,https://flatcare.otodom.pl
678,En Casa Premium Real Estate,19.11.2014,Studencka 55,mazowieckie,02-735,Warszawa,https://encasa.otodom.pl
679,PARTNER HOUSE GROUP,09.07.2020,Wiertnicza 45,mazowieckie,02-953,Warszawa,https://www.otodom.pl/shop/partner-house-group-IDwtSy/
680,KOLOSEUM NIERUCHOMOŚCI,09.08.2012,Domaniewska 37/31G,mazowieckie,02-672,Warszawa,https://koloseum-nieruchomosci.otodom.pl
681,Freedom Nieruchomości Franczyza,17.04.2018,Pokorna 2 lok. U13,mazowieckie,00-199,Warszawa,https://www.otodom.pl/shop/freedom-nieruchomosci-franczyza-IDh1mU/
682,Expander Advisors,30.04.2015,Ul. Inflancka 4b,mazowieckie,00-189,Warszawa,https://www.otodom.pl/shop/expander-advisors-ID3ICK/
683,Biuro sprzedaży,02.11.2015,Marynarska 21 lok 6,mazowieckie,02-674,Warszawa,https://N-plus.otodom.pl
684,Metrohouse  Franchise S.A.,02.07.2018,Żelazna 28/30,mazowieckie,00-832,Warszawa,https://metrohouse-franchise.otodom.pl
685,Maxon Nieruchomosci Sp. z o.o.,28.06.2018,Powązkowska 44C,mazowieckie,01-797,Warszawa,https://www.otodom.pl/shop/maxon-nieruchomosci-sp-z-o-o-IDiDsI/
686,AdReM Nieruchomości Sp z o.o.,22.01.2018,Bukowińska 24a/34,mazowieckie,02-703,Warszawa,https://adremwarszawa.otodom.pl
687,Retalia Nieruchomości,12.10.2017,Grzybowska 87,mazowieckie,00-844,Warszawa,https://www.otodom.pl/shop/retalia-nieruchomosci-IDcRRe/
688,REALS Nieruchomości sp. z o.o.,20.04.2018,Grzybowska 2B lok. 83,mazowieckie,00-131,Warszawa,https://www.otodom.pl/shop/reals-nieruchomosci-sp-z-o-o-IDgTq0/
689,Wilsons Nieruchomości Sp. z o.o.,22.02.2018,Świętokrzyska 20 lok 311,mazowieckie,00-002,Warszawa,https://wilsons.otodom.pl
690,Mzuri Sp. z o.o.,14.01.2016,Aleja Niepodległości 221/1,mazowieckie,02-087,Warszawa,https://mzuri.otodom.pl
691,Sadyba Metrohouse,23.02.2017,Powsińska 34,mazowieckie,02-903,Warszawa,https://metrohousesadyba.otodom.pl
692,Lions Estate Sp. z o o.,09.09.2016,Wiejska 11/13,mazowieckie,00-480,Warszawa,https://lionsestate.otodom.pl
693,Axi Immo Group Sp. z o.o.,14.04.2011,Twarda 18,mazowieckie,00-105,Warszawa,https://axi.otodom.pl
694,INVESTORIUS Sp. z o.o.,09.01.2015,Śniadeckich 17,mazowieckie,00-654,Warszawa,https://investorius.otodom.pl
695,Euro-House Nieruchomości komercyjne,04.02.2014,ul. Braci Wagów 20 lok u1,mazowieckie,02-791,Warszawa,https://www.otodom.pl/shop/euro-house-nieruchomosci-komercyjne-ID2KPJ/
696,Biuro Na Miarę,20.02.2018,Nowy Świat 47,mazowieckie,00-042,Warszawa,https://biuronamiare.otodom.pl
697,Flatcare - nowoczesny zarządca nieruchomości,02.12.2019,Kępa Tarchomińska 6C/1/2,mazowieckie,03-113,Warszawa,https://flatcare.otodom.pl
698,En Casa Premium Real Estate,19.11.2014,Studencka 55,mazowieckie,02-735,Warszawa,https://encasa.otodom.pl
699,PARTNER HOUSE GROUP,09.07.2020,Wiertnicza 45,mazowieckie,02-953,Warszawa,https://www.otodom.pl/shop/partner-house-group-IDwtSy/
700,KOLOSEUM NIERUCHOMOŚCI,09.08.2012,Domaniewska 37/31G,mazowieckie,02-672,Warszawa,https://koloseum-nieruchomosci.otodom.pl
701,Freedom Nieruchomości Franczyza,17.04.2018,Pokorna 2 lok. U13,mazowieckie,00-199,Warszawa,https://www.otodom.pl/shop/freedom-nieruchomosci-franczyza-IDh1mU/
702,Expander Advisors,30.04.2015,Ul. Inflancka 4b,mazowieckie,00-189,Warszawa,https://www.otodom.pl/shop/expander-advisors-ID3ICK/
703,Biuro sprzedaży,02.11.2015,Marynarska 21 lok 6,mazowieckie,02-674,Warszawa,https://N-plus.otodom.pl
704,Metrohouse  Franchise S.A.,02.07.2018,Żelazna 28/30,mazowieckie,00-832,Warszawa,https://metrohouse-franchise.otodom.pl
705,Maxon Nieruchomosci Sp. z o.o.,28.06.2018,Powązkowska 44C,mazowieckie,01-797,Warszawa,https://www.otodom.pl/shop/maxon-nieruchomosci-sp-z-o-o-IDiDsI/
706,AdReM Nieruchomości Sp z o.o.,22.01.2018,Bukowińska 24a/34,mazowieckie,02-703,Warszawa,https://adremwarszawa.otodom.pl
707,Retalia Nieruchomości,12.10.2017,Grzybowska 87,mazowieckie,00-844,Warszawa,https://www.otodom.pl/shop/retalia-nieruchomosci-IDcRRe/
708,REALS Nieruchomości sp. z o.o.,20.04.2018,Grzybowska 2B lok. 83,mazowieckie,00-131,Warszawa,https://www.otodom.pl/shop/reals-nieruchomosci-sp-z-o-o-IDgTq0/
709,Wilsons Nieruchomości Sp. z o.o.,22.02.2018,Świętokrzyska 20 lok 311,mazowieckie,00-002,Warszawa,https://wilsons.otodom.pl
710,Mzuri Sp. z o.o.,14.01.2016,Aleja Niepodległości 221/1,mazowieckie,02-087,Warszawa,https://mzuri.otodom.pl
711,Sadyba Metrohouse,23.02.2017,Powsińska 34,mazowieckie,02-903,Warszawa,https://metrohousesadyba.otodom.pl
712,Lions Estate Sp. z o o.,09.09.2016,Wiejska 11/13,mazowieckie,00-480,Warszawa,https://lionsestate.otodom.pl
713,Axi Immo Group Sp. z o.o.,14.04.2011,Twarda 18,mazowieckie,00-105,Warszawa,https://axi.otodom.pl
714,INVESTORIUS Sp. z o.o.,09.01.2015,Śniadeckich 17,mazowieckie,00-654,Warszawa,https://investorius.otodom.pl
715,Euro-House Nieruchomości komercyjne,04.02.2014,ul. Braci Wagów 20 lok u1,mazowieckie,02-791,Warszawa,https://www.otodom.pl/shop/euro-house-nieruchomosci-komercyjne-ID2KPJ/
716,Biuro Na Miarę,20.02.2018,Nowy Świat 47,mazowieckie,00-042,Warszawa,https://biuronamiare.otodom.pl
717,Flatcare - nowoczesny zarządca nieruchomości,02.12.2019,Kępa Tarchomińska 6C/1/2,mazowieckie,03-113,Warszawa,https://flatcare.otodom.pl
718,En Casa Premium Real Estate,19.11.2014,Studencka 55,mazowieckie,02-735,Warszawa,https://encasa.otodom.pl
719,PARTNER HOUSE GROUP,09.07.2020,Wiertnicza 45,mazowieckie,02-953,Warszawa,https://www.otodom.pl/shop/partner-house-group-IDwtSy/
720,KOLOSEUM NIERUCHOMOŚCI,09.08.2012,Domaniewska 37/31G,mazowieckie,02-672,Warszawa,https://koloseum-nieruchomosci.otodom.pl
721,Freedom Nieruchomości Franczyza,17.04.2018,Pokorna 2 lok. U13,mazowieckie,00-199,Warszawa,https://www.otodom.pl/shop/freedom-nieruchomosci-franczyza-IDh1mU/
722,Expander Advisors,30.04.2015,Ul. Inflancka 4b,mazowieckie,00-189,Warszawa,https://www.otodom.pl/shop/expander-advisors-ID3ICK/
723,Biuro sprzedaży,02.11.2015,Marynarska 21 lok 6,mazowieckie,02-674,Warszawa,https://N-plus.otodom.pl
724,Metrohouse  Franchise S.A.,02.07.2018,Żelazna 28/30,mazowieckie,00-832,Warszawa,https://metrohouse-franchise.otodom.pl
725,Maxon Nieruchomosci Sp. z o.o.,28.06.2018,Powązkowska 44C,mazowieckie,01-797,Warszawa,https://www.otodom.pl/shop/maxon-nieruchomosci-sp-z-o-o-IDiDsI/
726,AdReM Nieruchomości Sp z o.o.,22.01.2018,Bukowińska 24a/34,mazowieckie,02-703,Warszawa,https://adremwarszawa.otodom.pl
727,Retalia Nieruchomości,12.10.2017,Grzybowska 87,mazowieckie,00-844,Warszawa,https://www.otodom.pl/shop/retalia-nieruchomosci-IDcRRe/
728,REALS Nieruchomości sp. z o.o.,20.04.2018,Grzybowska 2B lok. 83,mazowieckie,00-131,Warszawa,https://www.otodom.pl/shop/reals-nieruchomosci-sp-z-o-o-IDgTq0/
729,Wilsons Nieruchomości Sp. z o.o.,22.02.2018,Świętokrzyska 20 lok 311,mazowieckie,00-002,Warszawa,https://wilsons.otodom.pl
730,Mzuri Sp. z o.o.,14.01.2016,Aleja Niepodległości 221/1,mazowieckie,02-087,Warszawa,https://mzuri.otodom.pl
731,Sadyba Metrohouse,23.02.2017,Powsińska 34,mazowieckie,02-903,Warszawa,https://metrohousesadyba.otodom.pl
732,Lions Estate Sp. z o o.,09.09.2016,Wiejska 11/13,mazowieckie,00-480,Warszawa,https://lionsestate.otodom.pl
733,Axi Immo Group Sp. z o.o.,14.04.2011,Twarda 18,mazowieckie,00-105,Warszawa,https://axi.otodom.pl
734,INVESTORIUS Sp. z o.o.,09.01.2015,Śniadeckich 17,mazowieckie,00-654,Warszawa,https://investorius.otodom.pl
735,Euro-House Nieruchomości komercyjne,04.02.2014,ul. Braci Wagów 20 lok u1,mazowieckie,02-791,Warszawa,https://www.otodom.pl/shop/euro-house-nieruchomosci-komercyjne-ID2KPJ/
736,Biuro Na Miarę,20.02.2018,Nowy Świat 47,mazowieckie,00-042,Warszawa,https://biuronamiare.otodom.pl
737,Flatcare - nowoczesny zarządca nieruchomości,02.12.2019,Kępa Tarchomińska 6C/1/2,mazowieckie,03-113,Warszawa,https://flatcare.otodom.pl
738,En Casa Premium Real Estate,19.11.2014,Studencka 55,mazowieckie,02-735,Warszawa,https://encasa.otodom.pl
739,PARTNER HOUSE GROUP,09.07.2020,Wiertnicza 45,mazowieckie,02-953,Warszawa,https://www.otodom.pl/shop/partner-house-group-IDwtSy/
740,KOLOSEUM NIERUCHOMOŚCI,09.08.2012,Domaniewska 37/31G,mazowieckie,02-672,Warszawa,https://koloseum-nieruchomosci.otodom.pl
741,Freedom Nieruchomości Franczyza,17.04.2018,Pokorna 2 lok. U13,mazowieckie,00-199,Warszawa,https://www.otodom.pl/shop/freedom-nieruchomosci-franczyza-IDh1mU/
742,Expander Advisors,30.04.2015,Ul. Inflancka 4b,mazowieckie,00-189,Warszawa,https://www.otodom.pl/shop/expander-advisors-ID3ICK/
743,Biuro sprzedaży,02.11.2015,Marynarska 21 lok 6,mazowieckie,02-674,Warszawa,https://N-plus.otodom.pl
744,Metrohouse  Franchise S.A.,02.07.2018,Żelazna 28/30,mazowieckie,00-832,Warszawa,https://metrohouse-franchise.otodom.pl
745,Maxon Nieruchomosci Sp. z o.o.,28.06.2018,Powązkowska 44C,mazowieckie,01-797,Warszawa,https://www.otodom.pl/shop/maxon-nieruchomosci-sp-z-o-o-IDiDsI/
746,AdReM Nieruchomości Sp z o.o.,22.01.2018,Bukowińska 24a/34,mazowieckie,02-703,Warszawa,https://adremwarszawa.otodom.pl
747,Retalia Nieruchomości,12.10.2017,Grzybowska 87,mazowieckie,00-844,Warszawa,https://www.otodom.pl/shop/retalia-nieruchomosci-IDcRRe/
748,REALS Nieruchomości sp. z o.o.,20.04.2018,Grzybowska 2B lok. 83,mazowieckie,00-131,Warszawa,https://www.otodom.pl/shop/reals-nieruchomosci-sp-z-o-o-IDgTq0/
749,Wilsons Nieruchomości Sp. z o.o.,22.02.2018,Świętokrzyska 20 lok 311,mazowieckie,00-002,Warszawa,https://wilsons.otodom.pl
750,Mzuri Sp. z o.o.,14.01.2016,Aleja Niepodległości 221/1,mazowieckie,02-087,Warszawa,https://mzuri.otodom.pl
751,Sadyba Metrohouse,23.02.2017,Powsińska 34,mazowieckie,02-903,Warszawa,https://metrohousesadyba.otodom.pl
752,Lions Estate Sp. z o o.,09.09.2016,Wiejska 11/13,mazowieckie,00-480,Warszawa,https://lionsestate.otodom.pl
753,Axi Immo Group Sp. z o.o.,14.04.2011,Twarda 18,mazowieckie,00-105,Warszawa,https://axi.otodom.pl
754,INVESTORIUS Sp. z o.o.,09.01.2015,Śniadeckich 17,mazowieckie,00-654,Warszawa,https://investorius.otodom.pl
755,Euro-House Nieruchomości komercyjne,04.02.2014,ul. Braci Wagów 20 lok u1,mazowieckie,02-791,Warszawa,https://www.otodom.pl/shop/euro-house-nieruchomosci-komercyjne-ID2KPJ/
756,Biuro Na Miarę,20.02.2018,Nowy Świat 47,mazowieckie,00-042,Warszawa,https://biuronamiare.otodom.pl
757,Flatcare - nowoczesny zarządca nieruchomości,02.12.2019,Kępa Tarchomińska 6C/1/2,mazowieckie,03-113,Warszawa,https://flatcare.otodom.pl
758,En Casa Premium Real Estate,19.11.2014,Studencka 55,mazowieckie,02-735,Warszawa,https://encasa.otodom.pl
759,PARTNER HOUSE GROUP,09.07.2020,Wiertnicza 45,mazowieckie,02-953,Warszawa,https://www.otodom.pl/shop/partner-house-group-IDwtSy/
760,KOLOSEUM NIERUCHOMOŚCI,09.08.2012,Domaniewska 37/31G,mazowieckie,02-672,Warszawa,https://koloseum-nieruchomosci.otodom.pl
761,Freedom Nieruchomości Franczyza,17.04.2018,Pokorna 2 lok. U13,mazowieckie,00-199,Warszawa,https://www.otodom.pl/shop/freedom-nieruchomosci-franczyza-IDh1mU/
762,Expander Advisors,30.04.2015,Ul. Inflancka 4b,mazowieckie,00-189,Warszawa,https://www.otodom.pl/shop/expander-advisors-ID3ICK/
763,Biuro sprzedaży,02.11.2015,Marynarska 21 lok 6,mazowieckie,02-674,Warszawa,https://N-plus.otodom.pl
764,Metrohouse  Franchise S.A.,02.07.2018,Żelazna 28/30,mazowieckie,00-832,Warszawa,https://metrohouse-franchise.otodom.pl
765,Maxon Nieruchomosci Sp. z o.o.,28.06.2018,Powązkowska 44C,mazowieckie,01-797,Warszawa,https://www.otodom.pl/shop/maxon-nieruchomosci-sp-z-o-o-IDiDsI/
766,AdReM Nieruchomości Sp z o.o.,22.01.2018,Bukowińska 24a/34,mazowieckie,02-703,Warszawa,https://adremwarszawa.otodom.pl
767,Retalia Nieruchomości,12.10.2017,Grzybowska 87,mazowieckie,00-844,Warszawa,https://www.otodom.pl/shop/retalia-nieruchomosci-IDcRRe/
768,REALS Nieruchomości sp. z o.o.,20.04.2018,Grzybowska 2B lok. 83,mazowieckie,00-131,Warszawa,https://www.otodom.pl/shop/reals-nieruchomosci-sp-z-o-o-IDgTq0/
769,Wilsons Nieruchomości Sp. z o.o.,22.02.2018,Świętokrzyska 20 lok 311,mazowieckie,00-002,Warszawa,https://wilsons.otodom.pl
770,Mzuri Sp. z o.o.,14.01.2016,Aleja Niepodległości 221/1,mazowieckie,02-087,Warszawa,https://mzuri.otodom.pl
771,Sadyba Metrohouse,23.02.2017,Powsińska 34,mazowieckie,02-903,Warszawa,https://metrohousesadyba.otodom.pl
772,Lions Estate Sp. z o o.,09.09.2016,Wiejska 11/13,mazowieckie,00-480,Warszawa,https://lionsestate.otodom.pl
773,Axi Immo Group Sp. z o.o.,14.04.2011,Twarda 18,mazowieckie,00-105,Warszawa,https://axi.otodom.pl
774,INVESTORIUS Sp. z o.o.,09.01.2015,Śniadeckich 17,mazowieckie,00-654,Warszawa,https://investorius.otodom.pl
775,Euro-House Nieruchomości komercyjne,04.02.2014,ul. Braci Wagów 20 lok u1,mazowieckie,02-791,Warszawa,https://www.otodom.pl/shop/euro-house-nieruchomosci-komercyjne-ID2KPJ/
776,Biuro Na Miarę,20.02.2018,Nowy Świat 47,mazowieckie,00-042,Warszawa,https://biuronamiare.otodom.pl
777,Flatcare - nowoczesny zarządca nieruchomości,02.12.2019,Kępa Tarchomińska 6C/1/2,mazowieckie,03-113,Warszawa,https://flatcare.otodom.pl
778,En Casa Premium Real Estate,19.11.2014,Studencka 55,mazowieckie,02-735,Warszawa,https://encasa.otodom.pl
779,PARTNER HOUSE GROUP,09.07.2020,Wiertnicza 45,mazowieckie,02-953,Warszawa,https://www.otodom.pl/shop/partner-house-group-IDwtSy/
780,KOLOSEUM NIERUCHOMOŚCI,09.08.2012,Domaniewska 37/31G,mazowieckie,02-672,Warszawa,https://koloseum-nieruchomosci.otodom.pl
781,Freedom Nieruchomości Franczyza,17.04.2018,Pokorna 2 lok. U13,mazowieckie,00-199,Warszawa,https://www.otodom.pl/shop/freedom-nieruchomosci-franczyza-IDh1mU/
782,Expander Advisors,30.04.2015,Ul. Inflancka 4b,mazowieckie,00-189,Warszawa,https://www.otodom.pl/shop/expander-advisors-ID3ICK/
783,Biuro sprzedaży,02.11.2015,Marynarska 21 lok 6,mazowieckie,02-674,Warszawa,https://N-plus.otodom.pl
784,Metrohouse  Franchise S.A.,02.07.2018,Żelazna 28/30,mazowieckie,00-832,Warszawa,https://metrohouse-franchise.otodom.pl
785,Maxon Nieruchomosci Sp. z o.o.,28.06.2018,Powązkowska 44C,mazowieckie,01-797,Warszawa,https://www.otodom.pl/shop/maxon-nieruchomosci-sp-z-o-o-IDiDsI/
786,AdReM Nieruchomości Sp z o.o.,22.01.2018,Bukowińska 24a/34,mazowieckie,02-703,Warszawa,https://adremwarszawa.otodom.pl
787,Retalia Nieruchomości,12.10.2017,Grzybowska 87,mazowieckie,00-844,Warszawa,https://www.otodom.pl/shop/retalia-nieruchomosci-IDcRRe/
788,REALS Nieruchomości sp. z o.o.,20.04.2018,Grzybowska 2B lok. 83,mazowieckie,00-131,Warszawa,https://www.otodom.pl/shop/reals-nieruchomosci-sp-z-o-o-IDgTq0/
789,Wilsons Nieruchomości Sp. z o.o.,22.02.2018,Świętokrzyska 20 lok 311,mazowieckie,00-002,Warszawa,https://wilsons.otodom.pl
790,Mzuri Sp. z o.o.,14.01.2016,Aleja Niepodległości 221/1,mazowieckie,02-087,Warszawa,https://mzuri.otodom.pl
791,Sadyba Metrohouse,23.02.2017,Powsińska 34,mazowieckie,02-903,Warszawa,https://metrohousesadyba.otodom.pl
792,Lions Estate Sp. z o o.,09.09.2016,Wiejska 11/13,mazowieckie,00-480,Warszawa,https://lionsestate.otodom.pl
793,Axi Immo Group Sp. z o.o.,14.04.2011,Twarda 18,mazowieckie,00-105,Warszawa,https://axi.otodom.pl
794,INVESTORIUS Sp. z o.o.,09.01.2015,Śniadeckich 17,mazowieckie,00-654,Warszawa,https://investorius.otodom.pl
795,Euro-House Nieruchomości komercyjne,04.02.2014,ul. Braci Wagów 20 lok u1,mazowieckie,02-791,Warszawa,https://www.otodom.pl/shop/euro-house-nieruchomosci-komercyjne-ID2KPJ/
796,Biuro Na Miarę,20.02.2018,Nowy Świat 47,mazowieckie,00-042,Warszawa,https://biuronamiare.otodom.pl
797,Flatcare - nowoczesny zarządca nieruchomości,02.12.2019,Kępa Tarchomińska 6C/1/2,mazowieckie,03-113,Warszawa,https://flatcare.otodom.pl
798,En Casa Premium Real Estate,19.11.2014,Studencka 55,mazowieckie,02-735,Warszawa,https://encasa.otodom.pl
799,PARTNER HOUSE GROUP,09.07.2020,Wiertnicza 45,mazowieckie,02-953,Warszawa,https://www.otodom.pl/shop/partner-house-group-IDwtSy/
800,KOLOSEUM NIERUCHOMOŚCI,09.08.2012,Domaniewska 37/31G,mazowieckie,02-672,Warszawa,https://koloseum-nieruchomosci.otodom.pl
801,Freedom Nieruchomości Franczyza,17.04.2018,Pokorna 2 lok. U13,mazowieckie,00-199,Warszawa,https://www.otodom.pl/shop/freedom-nieruchomosci-franczyza-IDh1mU/
802,Expander Advisors,30.04.2015,Ul. Inflancka 4b,mazowieckie,00-189,Warszawa,https://www.otodom.pl/shop/expander-advisors-ID3ICK/
803,Biuro sprzedaży,02.11.2015,Marynarska 21 lok 6,mazowieckie,02-674,Warszawa,https://N-plus.otodom.pl
804,Metrohouse  Franchise S.A.,02.07.2018,Żelazna 28/30,mazowieckie,00-832,Warszawa,https://metrohouse-franchise.otodom.pl
805,Maxon Nieruchomosci Sp. z o.o.,28.06.2018,Powązkowska 44C,mazowieckie,01-797,Warszawa,https://www.otodom.pl/shop/maxon-nieruchomosci-sp-z-o-o-IDiDsI/
806,AdReM Nieruchomości Sp z o.o.,22.01.2018,Bukowińska 24a/34,mazowieckie,02-703,Warszawa,https://adremwarszawa.otodom.pl
807,Retalia Nieruchomości,12.10.2017,Grzybowska 87,mazowieckie,00-844,Warszawa,https://www.otodom.pl/shop/retalia-nieruchomosci-IDcRRe/
808,REALS Nieruchomości sp. z o.o.,20.04.2018,Grzybowska 2B lok. 83,mazowieckie,00-131,Warszawa,https://www.otodom.pl/shop/reals-nieruchomosci-sp-z-o-o-IDgTq0/
809,Wilsons Nieruchomości Sp. z o.o.,22.02.2018,Świętokrzyska 20 lok 311,mazowieckie,00-002,Warszawa,https://wilsons.otodom.pl
810,Mzuri Sp. z o.o.,14.01.2016,Aleja Niepodległości 221/1,mazowieckie,02-087,Warszawa,https://mzuri.otodom.pl
811,Sadyba Metrohouse,23.02.2017,Powsińska 34,mazowieckie,02-903,Warszawa,https://metrohousesadyba.otodom.pl
812,Lions Estate Sp. z o o.,09.09.2016,Wiejska 11/13,mazowieckie,00-480,Warszawa,https://lionsestate.otodom.pl
813,Axi Immo Group Sp. z o.o.,14.04.2011,Twarda 18,mazowieckie,00-105,Warszawa,https://axi.otodom.pl
814,INVESTORIUS Sp. z o.o.,09.01.2015,Śniadeckich 17,mazowieckie,00-654,Warszawa,https://investorius.otodom.pl
815,Euro-House Nieruchomości komercyjne,04.02.2014,ul. Braci Wagów 20 lok u1,mazowieckie,02-791,Warszawa,https://www.otodom.pl/shop/euro-house-nieruchomosci-komercyjne-ID2KPJ/
816,Biuro Na Miarę,20.02.2018,Nowy Świat 47,mazowieckie,00-042,Warszawa,https://biuronamiare.otodom.pl
817,Flatcare - nowoczesny zarządca nieruchomości,02.12.2019,Kępa Tarchomińska 6C/1/2,mazowieckie,03-113,Warszawa,https://flatcare.otodom.pl
818,En Casa Premium Real Estate,19.11.2014,Studencka 55,mazowieckie,02-735,Warszawa,https://encasa.otodom.pl
819,PARTNER HOUSE GROUP,09.07.2020,Wiertnicza 45,mazowieckie,02-953,Warszawa,https://www.otodom.pl/shop/partner-house-group-IDwtSy/
820,KOLOSEUM NIERUCHOMOŚCI,09.08.2012,Domaniewska 37/31G,mazowieckie,02-672,Warszawa,https://koloseum-nieruchomosci.otodom.pl
821,Freedom Nieruchomości Franczyza,17.04.2018,Pokorna 2 lok. U13,mazowieckie,00-199,Warszawa,https://www.otodom.pl/shop/freedom-nieruchomosci-franczyza-IDh1mU/
822,Expander Advisors,30.04.2015,Ul. Inflancka 4b,mazowieckie,00-189,Warszawa,https://www.otodom.pl/shop/expander-advisors-ID3ICK/
823,Biuro sprzedaży,02.11.2015,Marynarska 21 lok 6,mazowieckie,02-674,Warszawa,https://N-plus.otodom.pl
824,Metrohouse  Franchise S.A.,02.07.2018,Żelazna 28/30,mazowieckie,00-832,Warszawa,https://metrohouse-franchise.otodom.pl
825,Maxon Nieruchomosci Sp. z o.o.,28.06.2018,Powązkowska 44C,mazowieckie,01-797,Warszawa,https://www.otodom.pl/shop/maxon-nieruchomosci-sp-z-o-o-IDiDsI/
826,AdReM Nieruchomości Sp z o.o.,22.01.2018,Bukowińska 24a/34,mazowieckie,02-703,Warszawa,https://adremwarszawa.otodom.pl
827,Retalia Nieruchomości,12.10.2017,Grzybowska 87,mazowieckie,00-844,Warszawa,https://www.otodom.pl/shop/retalia-nieruchomosci-IDcRRe/
828,REALS Nieruchomości sp. z o.o.,20.04.2018,Grzybowska 2B lok. 83,mazowieckie,00-131,Warszawa,https://www.otodom.pl/shop/reals-nieruchomosci-sp-z-o-o-IDgTq0/
829,Wilsons Nieruchomości Sp. z o.o.,22.02.2018,Świętokrzyska 20 lok 311,mazowieckie,00-002,Warszawa,https://wilsons.otodom.pl
830,Mzuri Sp. z o.o.,14.01.2016,Aleja Niepodległości 221/1,mazowieckie,02-087,Warszawa,https://mzuri.otodom.pl
831,Sadyba Metrohouse,23.02.2017,Powsińska 34,mazowieckie,02-903,Warszawa,https://metrohousesadyba.otodom.pl
832,Lions Estate Sp. z o o.,09.09.2016,Wiejska 11/13,mazowieckie,00-480,Warszawa,https://lionsestate.otodom.pl
833,Axi Immo Group Sp. z o.o.,14.04.2011,Twarda 18,mazowieckie,00-105,Warszawa,https://axi.otodom.pl
834,INVESTORIUS Sp. z o.o.,09.01.2015,Śniadeckich 17,mazowieckie,00-654,Warszawa,https://investorius.otodom.pl
835,Euro-House Nieruchomości komercyjne,04.02.2014,ul. Braci Wagów 20 lok u1,mazowieckie,02-791,Warszawa,https://www.otodom.pl/shop/euro-house-nieruchomosci-komercyjne-ID2KPJ/
836,Biuro Na Miarę,20.02.2018,Nowy Świat 47,mazowieckie,00-042,Warszawa,https://biuronamiare.otodom.pl
837,Flatcare - nowoczesny zarządca nieruchomości,02.12.2019,Kępa Tarchomińska 6C/1/2,mazowieckie,03-113,Warszawa,https://flatcare.otodom.pl
838,En Casa Premium Real Estate,19.11.2014,Studencka 55,mazowieckie,02-735,Warszawa,https://encasa.otodom.pl
839,PARTNER HOUSE GROUP,09.07.2020,Wiertnicza 45,mazowieckie,02-953,Warszawa,https://www.otodom.pl/shop/partner-house-group-IDwtSy/
840,KOLOSEUM NIERUCHOMOŚCI,09.08.2012,Domaniewska 37/31G,mazowieckie,02-672,Warszawa,https://koloseum-nieruchomosci.otodom.pl
841,Freedom Nieruchomości Franczyza,17.04.2018,Pokorna 2 lok. U13,mazowieckie,00-199,Warszawa,https://www.otodom.pl/shop/freedom-nieruchomosci-franczyza-IDh1mU/
842,Expander Advisors,30.04.2015,Ul. Inflancka 4b,mazowieckie,00-189,Warszawa,https://www.otodom.pl/shop/expander-advisors-ID3ICK/
843,Biuro sprzedaży,02.11.2015,Marynarska 21 lok 6,mazowieckie,02-674,Warszawa,https://N-plus.otodom.pl
844,Metrohouse  Franchise S.A.,02.07.2018,Żelazna 28/30,mazowieckie,00-832,Warszawa,https://metrohouse-franchise.otodom.pl
845,Maxon Nieruchomosci Sp. z o.o.,28.06.2018,Powązkowska 44C,mazowieckie,01-797,Warszawa,https://www.otodom.pl/shop/maxon-nieruchomosci-sp-z-o-o-IDiDsI/
846,AdReM Nieruchomości Sp z o.o.,22.01.2018,Bukowińska 24a/34,mazowieckie,02-703,Warszawa,https://adremwarszawa.otodom.pl
847,Retalia Nieruchomości,12.10.2017,Grzybowska 87,mazowieckie,00-844,Warszawa,https://www.otodom.pl/shop/retalia-nieruchomosci-IDcRRe/
848,REALS Nieruchomości sp. z o.o.,20.04.2018,Grzybowska 2B lok. 83,mazowieckie,00-131,Warszawa,https://www.otodom.pl/shop/reals-nieruchomosci-sp-z-o-o-IDgTq0/
849,Wilsons Nieruchomości Sp. z o.o.,22.02.2018,Świętokrzyska 20 lok 311,mazowieckie,00-002,Warszawa,https://wilsons.otodom.pl
850,Mzuri Sp. z o.o.,14.01.2016,Aleja Niepodległości 221/1,mazowieckie,02-087,Warszawa,https://mzuri.otodom.pl
851,Sadyba Metrohouse,23.02.2017,Powsińska 34,mazowieckie,02-903,Warszawa,https://metrohousesadyba.otodom.pl
852,Lions Estate Sp. z o o.,09.09.2016,Wiejska 11/13,mazowieckie,00-480,Warszawa,https://lionsestate.otodom.pl
853,Axi Immo Group Sp. z o.o.,14.04.2011,Twarda 18,mazowieckie,00-105,Warszawa,https://axi.otodom.pl
854,INVESTORIUS Sp. z o.o.,09.01.2015,Śniadeckich 17,mazowieckie,00-654,Warszawa,https://investorius.otodom.pl
855,Euro-House Nieruchomości komercyjne,04.02.2014,ul. Braci Wagów 20 lok u1,mazowieckie,02-791,Warszawa,https://www.otodom.pl/shop/euro-house-nieruchomosci-komercyjne-ID2KPJ/
856,Biuro Na Miarę,20.02.2018,Nowy Świat 47,mazowieckie,00-042,Warszawa,https://biuronamiare.otodom.pl
857,Flatcare - nowoczesny zarządca nieruchomości,02.12.2019,Kępa Tarchomińska 6C/1/2,mazowieckie,03-113,Warszawa,https://flatcare.otodom.pl
858,En Casa Premium Real Estate,19.11.2014,Studencka 55,mazowieckie,02-735,Warszawa,https://encasa.otodom.pl
859,PARTNER HOUSE GROUP,09.07.2020,Wiertnicza 45,mazowieckie,02-953,Warszawa,https://www.otodom.pl/shop/partner-house-group-IDwtSy/
860,KOLOSEUM NIERUCHOMOŚCI,09.08.2012,Domaniewska 37/31G,mazowieckie,02-672,Warszawa,https://koloseum-nieruchomosci.otodom.pl
861,Freedom Nieruchomości Franczyza,17.04.2018,Pokorna 2 lok. U13,mazowieckie,00-199,Warszawa,https://www.otodom.pl/shop/freedom-nieruchomosci-franczyza-IDh1mU/
862,Expander Advisors,30.04.2015,Ul. Inflancka 4b,mazowieckie,00-189,Warszawa,https://www.otodom.pl/shop/expander-advisors-ID3ICK/
863,Biuro sprzedaży,02.11.2015,Marynarska 21 lok 6,mazowieckie,02-674,Warszawa,https://N-plus.otodom.pl
864,Metrohouse  Franchise S.A.,02.07.2018,Żelazna 28/30,mazowieckie,00-832,Warszawa,https://metrohouse-franchise.otodom.pl
865,Maxon Nieruchomosci Sp. z o.o.,28.06.2018,Powązkowska 44C,mazowieckie,01-797,Warszawa,https://www.otodom.pl/shop/maxon-nieruchomosci-sp-z-o-o-IDiDsI/
866,AdReM Nieruchomości Sp z o.o.,22.01.2018,Bukowińska 24a/34,mazowieckie,02-703,Warszawa,https://adremwarszawa.otodom.pl
867,Retalia Nieruchomości,12.10.2017,Grzybowska 87,mazowieckie,00-844,Warszawa,https://www.otodom.pl/shop/retalia-nieruchomosci-IDcRRe/
868,REALS Nieruchomości sp. z o.o.,20.04.2018,Grzybowska 2B lok. 83,mazowieckie,00-131,Warszawa,https://www.otodom.pl/shop/reals-nieruchomosci-sp-z-o-o-IDgTq0/
869,Wilsons Nieruchomości Sp. z o.o.,22.02.2018,Świętokrzyska 20 lok 311,mazowieckie,00-002,Warszawa,https://wilsons.otodom.pl
870,Mzuri Sp. z o.o.,14.01.2016,Aleja Niepodległości 221/1,mazowieckie,02-087,Warszawa,https://mzuri.otodom.pl
871,Sadyba Metrohouse,23.02.2017,Powsińska 34,mazowieckie,02-903,Warszawa,https://metrohousesadyba.otodom.pl
872,Lions Estate Sp. z o o.,09.09.2016,Wiejska 11/13,mazowieckie,00-480,Warszawa,https://lionsestate.otodom.pl
873,Axi Immo Group Sp. z o.o.,14.04.2011,Twarda 18,mazowieckie,00-105,Warszawa,https://axi.otodom.pl
874,INVESTORIUS Sp. z o.o.,09.01.2015,Śniadeckich 17,mazowieckie,00-654,Warszawa,https://investorius.otodom.pl
875,Euro-House Nieruchomości komercyjne,04.02.2014,ul. Braci Wagów 20 lok u1,mazowieckie,02-791,Warszawa,https://www.otodom.pl/shop/euro-house-nieruchomosci-komercyjne-ID2KPJ/
876,Biuro Na Miarę,20.02.2018,Nowy Świat 47,mazowieckie,00-042,Warszawa,https://biuronamiare.otodom.pl
877,Flatcare - nowoczesny zarządca nieruchomości,02.12.2019,Kępa Tarchomińska 6C/1/2,mazowieckie,03-113,Warszawa,https://flatcare.otodom.pl
878,En Casa Premium Real Estate,19.11.2014,Studencka 55,mazowieckie,02-735,Warszawa,https://encasa.otodom.pl
879,PARTNER HOUSE GROUP,09.07.2020,Wiertnicza 45,mazowieckie,02-953,Warszawa,https://www.otodom.pl/shop/partner-house-group-IDwtSy/
880,KOLOSEUM NIERUCHOMOŚCI,09.08.2012,Domaniewska 37/31G,mazowieckie,02-672,Warszawa,https://koloseum-nieruchomosci.otodom.pl
881,Freedom Nieruchomości Franczyza,17.04.2018,Pokorna 2 lok. U13,mazowieckie,00-199,Warszawa,https://www.otodom.pl/shop/freedom-nieruchomosci-franczyza-IDh1mU/
882,Expander Advisors,30.04.2015,Ul. Inflancka 4b,mazowieckie,00-189,Warszawa,https://www.otodom.pl/shop/expander-advisors-ID3ICK/
883,Biuro sprzedaży,02.11.2015,Marynarska 21 lok 6,mazowieckie,02-674,Warszawa,https://N-plus.otodom.pl
884,Metrohouse  Franchise S.A.,02.07.2018,Żelazna 28/30,mazowieckie,00-832,Warszawa,https://metrohouse-franchise.otodom.pl
885,Maxon Nieruchomosci Sp. z o.o.,28.06.2018,Powązkowska 44C,mazowieckie,01-797,Warszawa,https://www.otodom.pl/shop/maxon-nieruchomosci-sp-z-o-o-IDiDsI/
886,AdReM Nieruchomości Sp z o.o.,22.01.2018,Bukowińska 24a/34,mazowieckie,02-703,Warszawa,https://adremwarszawa.otodom.pl
887,Retalia Nieruchomości,12.10.2017,Grzybowska 87,mazowieckie,00-844,Warszawa,https://www.otodom.pl/shop/retalia-nieruchomosci-IDcRRe/
888,REALS Nieruchomości sp. z o.o.,20.04.2018,Grzybowska 2B lok. 83,mazowieckie,00-131,Warszawa,https://www.otodom.pl/shop/reals-nieruchomosci-sp-z-o-o-IDgTq0/
889,Wilsons Nieruchomości Sp. z o.o.,22.02.2018,Świętokrzyska 20 lok 311,mazowieckie,00-002,Warszawa,https://wilsons.otodom.pl
890,Mzuri Sp. z o.o.,14.01.2016,Aleja Niepodległości 221/1,mazowieckie,02-087,Warszawa,https://mzuri.otodom.pl
891,Sadyba Metrohouse,23.02.2017,Powsińska 34,mazowieckie,02-903,Warszawa,https://metrohousesadyba.otodom.pl
892,Lions Estate Sp. z o o.,09.09.2016,Wiejska 11/13,mazowieckie,00-480,Warszawa,https://lionsestate.otodom.pl
893,Axi Immo Group Sp. z o.o.,14.04.2011,Twarda 18,mazowieckie,00-105,Warszawa,https://axi.otodom.pl
894,INVESTORIUS Sp. z o.o.,09.01.2015,Śniadeckich 17,mazowieckie,00-654,Warszawa,https://investorius.otodom.pl
895,Euro-House Nieruchomości komercyjne,04.02.2014,ul. Braci Wagów 20 lok u1,mazowieckie,02-791,Warszawa,https://www.otodom.pl/shop/euro-house-nieruchomosci-komercyjne-ID2KPJ/
896,Biuro Na Miarę,20.02.2018,Nowy Świat 47,mazowieckie,00-042,Warszawa,https://biuronamiare.otodom.pl
897,Flatcare - nowoczesny zarządca nieruchomości,02.12.2019,Kępa Tarchomińska 6C/1/2,mazowieckie,03-113,Warszawa,https://flatcare.otodom.pl
898,En Casa Premium Real Estate,19.11.2014,Studencka 55,mazowieckie,02-735,Warszawa,https://encasa.otodom.pl
899,PARTNER HOUSE GROUP,09.07.2020,Wiertnicza 45,mazowieckie,02-953,Warszawa,https://www.otodom.pl/shop/partner-house-group-IDwtSy/
900,KOLOSEUM NIERUCHOMOŚCI,09.08.2012,Domaniewska 37/31G,mazowieckie,02-672,Warszawa,https://koloseum-nieruchomosci.otodom.pl
901,Freedom Nieruchomości Franczyza,17.04.2018,Pokorna 2 lok. U13,mazowieckie,00-199,Warszawa,https://www.otodom.pl/shop/freedom-nieruchomosci-franczyza-IDh1mU/
902,Expander Advisors,30.04.2015,Ul. Inflancka 4b,mazowieckie,00-189,Warszawa,https://www.otodom.pl/shop/expander-advisors-ID3ICK/
903,Biuro sprzedaży,02.11.2015,Marynarska 21 lok 6,mazowieckie,02-674,Warszawa,https://N-plus.otodom.pl
904,Metrohouse  Franchise S.A.,02.07.2018,Żelazna 28/30,mazowieckie,00-832,Warszawa,https://metrohouse-franchise.otodom.pl
905,Maxon Nieruchomosci Sp. z o.o.,28.06.2018,Powązkowska 44C,mazowieckie,01-797,Warszawa,https://www.otodom.pl/shop/maxon-nieruchomosci-sp-z-o-o-IDiDsI/
906,AdReM Nieruchomości Sp z o.o.,22.01.2018,Bukowińska 24a/34,mazowieckie,02-703,Warszawa,https://adremwarszawa.otodom.pl
907,Retalia Nieruchomości,12.10.2017,Grzybowska 87,mazowieckie,00-844,Warszawa,https://www.otodom.pl/shop/retalia-nieruchomosci-IDcRRe/
908,REALS Nieruchomości sp. z o.o.,20.04.2018,Grzybowska 2B lok. 83,mazowieckie,00-131,Warszawa,https://www.otodom.pl/shop/reals-nieruchomosci-sp-z-o-o-IDgTq0/
909,Wilsons Nieruchomości Sp. z o.o.,22.02.2018,Świętokrzyska 20 lok 311,mazowieckie,00-002,Warszawa,https://wilsons.otodom.pl
910,Mzuri Sp. z o.o.,14.01.2016,Aleja Niepodległości 221/1,mazowieckie,02-087,Warszawa,https://mzuri.otodom.pl
911,Sadyba Metrohouse,23.02.2017,Powsińska 34,mazowieckie,02-903,Warszawa,https://metrohousesadyba.otodom.pl
912,Lions Estate Sp. z o o.,09.09.2016,Wiejska 11/13,mazowieckie,00-480,Warszawa,https://lionsestate.otodom.pl
913,Axi Immo Group Sp. z o.o.,14.04.2011,Twarda 18,mazowieckie,00-105,Warszawa,https://axi.otodom.pl
914,INVESTORIUS Sp. z o.o.,09.01.2015,Śniadeckich 17,mazowieckie,00-654,Warszawa,https://investorius.otodom.pl
915,Euro-House Nieruchomości komercyjne,04.02.2014,ul. Braci Wagów 20 lok u1,mazowieckie,02-791,Warszawa,https://www.otodom.pl/shop/euro-house-nieruchomosci-komercyjne-ID2KPJ/
916,Biuro Na Miarę,20.02.2018,Nowy Świat 47,mazowieckie,00-042,Warszawa,https://biuronamiare.otodom.pl
917,Flatcare - nowoczesny zarządca nieruchomości,02.12.2019,Kępa Tarchomińska 6C/1/2,mazowieckie,03-113,Warszawa,https://flatcare.otodom.pl
918,En Casa Premium Real Estate,19.11.2014,Studencka 55,mazowieckie,02-735,Warszawa,https://encasa.otodom.pl
919,PARTNER HOUSE GROUP,09.07.2020,Wiertnicza 45,mazowieckie,02-953,Warszawa,https://www.otodom.pl/shop/partner-house-group-IDwtSy/
920,KOLOSEUM NIERUCHOMOŚCI,09.08.2012,Domaniewska 37/31G,mazowieckie,02-672,Warszawa,https://koloseum-nieruchomosci.otodom.pl
921,Freedom Nieruchomości Franczyza,17.04.2018,Pokorna 2 lok. U13,mazowieckie,00-199,Warszawa,https://www.otodom.pl/shop/freedom-nieruchomosci-franczyza-IDh1mU/
922,Expander Advisors,30.04.2015,Ul. Inflancka 4b,mazowieckie,00-189,Warszawa,https://www.otodom.pl/shop/expander-advisors-ID3ICK/
923,Biuro sprzedaży,02.11.2015,Marynarska 21 lok 6,mazowieckie,02-674,Warszawa,https://N-plus.otodom.pl
924,Metrohouse  Franchise S.A.,02.07.2018,Żelazna 28/30,mazowieckie,00-832,Warszawa,https://metrohouse-franchise.otodom.pl
925,Maxon Nieruchomosci Sp. z o.o.,28.06.2018,Powązkowska 44C,mazowieckie,01-797,Warszawa,https://www.otodom.pl/shop/maxon-nieruchomosci-sp-z-o-o-IDiDsI/
926,AdReM Nieruchomości Sp z o.o.,22.01.2018,Bukowińska 24a/34,mazowieckie,02-703,Warszawa,https://adremwarszawa.otodom.pl
927,Retalia Nieruchomości,12.10.2017,Grzybowska 87,mazowieckie,00-844,Warszawa,https://www.otodom.pl/shop/retalia-nieruchomosci-IDcRRe/
928,REALS Nieruchomości sp. z o.o.,20.04.2018,Grzybowska 2B lok. 83,mazowieckie,00-131,Warszawa,https://www.otodom.pl/shop/reals-nieruchomosci-sp-z-o-o-IDgTq0/
929,Wilsons Nieruchomości Sp. z o.o.,22.02.2018,Świętokrzyska 20 lok 311,mazowieckie,00-002,Warszawa,https://wilsons.otodom.pl
930,Mzuri Sp. z o.o.,14.01.2016,Aleja Niepodległości 221/1,mazowieckie,02-087,Warszawa,https://mzuri.otodom.pl
931,Sadyba Metrohouse,23.02.2017,Powsińska 34,mazowieckie,02-903,Warszawa,https://metrohousesadyba.otodom.pl
932,Lions Estate Sp. z o o.,09.09.2016,Wiejska 11/13,mazowieckie,00-480,Warszawa,https://lionsestate.otodom.pl
933,Axi Immo Group Sp. z o.o.,14.04.2011,Twarda 18,mazowieckie,00-105,Warszawa,https://axi.otodom.pl
934,INVESTORIUS Sp. z o.o.,09.01.2015,Śniadeckich 17,mazowieckie,00-654,Warszawa,https://investorius.otodom.pl
935,Euro-House Nieruchomości komercyjne,04.02.2014,ul. Braci Wagów 20 lok u1,mazowieckie,02-791,Warszawa,https://www.otodom.pl/shop/euro-house-nieruchomosci-komercyjne-ID2KPJ/
936,Biuro Na Miarę,20.02.2018,Nowy Świat 47,mazowieckie,00-042,Warszawa,https://biuronamiare.otodom.pl
937,Flatcare - nowoczesny zarządca nieruchomości,02.12.2019,Kępa Tarchomińska 6C/1/2,mazowieckie,03-113,Warszawa,https://flatcare.otodom.pl
938,En Casa Premium Real Estate,19.11.2014,Studencka 55,mazowieckie,02-735,Warszawa,https://encasa.otodom.pl
939,PARTNER HOUSE GROUP,09.07.2020,Wiertnicza 45,mazowieckie,02-953,Warszawa,https://www.otodom.pl/shop/partner-house-group-IDwtSy/
940,KOLOSEUM NIERUCHOMOŚCI,09.08.2012,Domaniewska 37/31G,mazowieckie,02-672,Warszawa,https://koloseum-nieruchomosci.otodom.pl
941,Freedom Nieruchomości Franczyza,17.04.2018,Pokorna 2 lok. U13,mazowieckie,00-199,Warszawa,https://www.otodom.pl/shop/freedom-nieruchomosci-franczyza-IDh1mU/
942,Expander Advisors,30.04.2015,Ul. Inflancka 4b,mazowieckie,00-189,Warszawa,https://www.otodom.pl/shop/expander-advisors-ID3ICK/
943,Biuro sprzedaży,02.11.2015,Marynarska 21 lok 6,mazowieckie,02-674,Warszawa,https://N-plus.otodom.pl
944,Metrohouse  Franchise S.A.,02.07.2018,Żelazna 28/30,mazowieckie,00-832,Warszawa,https://metrohouse-franchise.otodom.pl
945,Maxon Nieruchomosci Sp. z o.o.,28.06.2018,Powązkowska 44C,mazowieckie,01-797,Warszawa,https://www.otodom.pl/shop/maxon-nieruchomosci-sp-z-o-o-IDiDsI/
946,AdReM Nieruchomości Sp z o.o.,22.01.2018,Bukowińska 24a/34,mazowieckie,02-703,Warszawa,https://adremwarszawa.otodom.pl
947,Retalia Nieruchomości,12.10.2017,Grzybowska 87,mazowieckie,00-844,Warszawa,https://www.otodom.pl/shop/retalia-nieruchomosci-IDcRRe/
948,REALS Nieruchomości sp. z o.o.,20.04.2018,Grzybowska 2B lok. 83,mazowieckie,00-131,Warszawa,https://www.otodom.pl/shop/reals-nieruchomosci-sp-z-o-o-IDgTq0/
949,Wilsons Nieruchomości Sp. z o.o.,22.02.2018,Świętokrzyska 20 lok 311,mazowieckie,00-002,Warszawa,https://wilsons.otodom.pl
950,Mzuri Sp. z o.o.,14.01.2016,Aleja Niepodległości 221/1,mazowieckie,02-087,Warszawa,https://mzuri.otodom.pl
951,Sadyba Metrohouse,23.02.2017,Powsińska 34,mazowieckie,02-903,Warszawa,https://metrohousesadyba.otodom.pl
952,Lions Estate Sp. z o o.,09.09.2016,Wiejska 11/13,mazowieckie,00-480,Warszawa,https://lionsestate.otodom.pl
953,Axi Immo Group Sp. z o.o.,14.04.2011,Twarda 18,mazowieckie,00-105,Warszawa,https://axi.otodom.pl
954,INVESTORIUS Sp. z o.o.,09.01.2015,Śniadeckich 17,mazowieckie,00-654,Warszawa,https://investorius.otodom.pl
955,Euro-House Nieruchomości komercyjne,04.02.2014,ul. Braci Wagów 20 lok u1,mazowieckie,02-791,Warszawa,https://www.otodom.pl/shop/euro-house-nieruchomosci-komercyjne-ID2KPJ/
956,Biuro Na Miarę,20.02.2018,Nowy Świat 47,mazowieckie,00-042,Warszawa,https://biuronamiare.otodom.pl
957,Flatcare - nowoczesny zarządca nieruchomości,02.12.2019,Kępa Tarchomińska 6C/1/2,mazowieckie,03-113,Warszawa,https://flatcare.otodom.pl
958,En Casa Premium Real Estate,19.11.2014,Studencka 55,mazowieckie,02-735,Warszawa,https://encasa.otodom.pl
959,PARTNER HOUSE GROUP,09.07.2020,Wiertnicza 45,mazowieckie,02-953,Warszawa,https://www.otodom.pl/shop/partner-house-group-IDwtSy/
960,KOLOSEUM NIERUCHOMOŚCI,09.08.2012,Domaniewska 37/31G,mazowieckie,02-672,Warszawa,https://koloseum-nieruchomosci.otodom.pl
961,Freedom Nieruchomości Franczyza,17.04.2018,Pokorna 2 lok. U13,mazowieckie,00-199,Warszawa,https://www.otodom.pl/shop/freedom-nieruchomosci-franczyza-IDh1mU/
962,Expander Advisors,30.04.2015,Ul. Inflancka 4b,mazowieckie,00-189,Warszawa,https://www.otodom.pl/shop/expander-advisors-ID3ICK/
963,Biuro sprzedaży,02.11.2015,Marynarska 21 lok 6,mazowieckie,02-674,Warszawa,https://N-plus.otodom.pl
964,Metrohouse  Franchise S.A.,02.07.2018,Żelazna 28/30,mazowieckie,00-832,Warszawa,https://metrohouse-franchise.otodom.pl
965,Maxon Nieruchomosci Sp. z o.o.,28.06.2018,Powązkowska 44C,mazowieckie,01-797,Warszawa,https://www.otodom.pl/shop/maxon-nieruchomosci-sp-z-o-o-IDiDsI/
966,AdReM Nieruchomości Sp z o.o.,22.01.2018,Bukowińska 24a/34,mazowieckie,02-703,Warszawa,https://adremwarszawa.otodom.pl
967,Retalia Nieruchomości,12.10.2017,Grzybowska 87,mazowieckie,00-844,Warszawa,https://www.otodom.pl/shop/retalia-nieruchomosci-IDcRRe/
968,REALS Nieruchomości sp. z o.o.,20.04.2018,Grzybowska 2B lok. 83,mazowieckie,00-131,Warszawa,https://www.otodom.pl/shop/reals-nieruchomosci-sp-z-o-o-IDgTq0/
969,Wilsons Nieruchomości Sp. z o.o.,22.02.2018,Świętokrzyska 20 lok 311,mazowieckie,00-002,Warszawa,https://wilsons.otodom.pl
970,Mzuri Sp. z o.o.,14.01.2016,Aleja Niepodległości 221/1,mazowieckie,02-087,Warszawa,https://mzuri.otodom.pl
971,Sadyba Metrohouse,23.02.2017,Powsińska 34,mazowieckie,02-903,Warszawa,https://metrohousesadyba.otodom.pl
972,Lions Estate Sp. z o o.,09.09.2016,Wiejska 11/13,mazowieckie,00-480,Warszawa,https://lionsestate.otodom.pl
973,Axi Immo Group Sp. z o.o.,14.04.2011,Twarda 18,mazowieckie,00-105,Warszawa,https://axi.otodom.pl
974,INVESTORIUS Sp. z o.o.,09.01.2015,Śniadeckich 17,mazowieckie,00-654,Warszawa,https://investorius.otodom.pl
975,Euro-House Nieruchomości komercyjne,04.02.2014,ul. Braci Wagów 20 lok u1,mazowieckie,02-791,Warszawa,https://www.otodom.pl/shop/euro-house-nieruchomosci-komercyjne-ID2KPJ/
976,Biuro Na Miarę,20.02.2018,Nowy Świat 47,mazowieckie,00-042,Warszawa,https://biuronamiare.otodom.pl
977,Flatcare - nowoczesny zarządca nieruchomości,02.12.2019,Kępa Tarchomińska 6C/1/2,mazowieckie,03-113,Warszawa,https://flatcare.otodom.pl
978,En Casa Premium Real Estate,19.11.2014,Studencka 55,mazowieckie,02-735,Warszawa,https://encasa.otodom.pl
979,PARTNER HOUSE GROUP,09.07.2020,Wiertnicza 45,mazowieckie,02-953,Warszawa,https://www.otodom.pl/shop/partner-house-group-IDwtSy/
980,KOLOSEUM NIERUCHOMOŚCI,09.08.2012,Domaniewska 37/31G,mazowieckie,02-672,Warszawa,https://koloseum-nieruchomosci.otodom.pl
981,Freedom Nieruchomości Franczyza,17.04.2018,Pokorna 2 lok. U13,mazowieckie,00-199,Warszawa,https://www.otodom.pl/shop/freedom-nieruchomosci-franczyza-IDh1mU/
982,Expander Advisors,30.04.2015,Ul. Inflancka 4b,mazowieckie,00-189,Warszawa,https://www.otodom.pl/shop/expander-advisors-ID3ICK/
983,Biuro sprzedaży,02.11.2015,Marynarska 21 lok 6,mazowieckie,02-674,Warszawa,https://N-plus.otodom.pl
984,Metrohouse  Franchise S.A.,02.07.2018,Żelazna 28/30,mazowieckie,00-832,Warszawa,https://metrohouse-franchise.otodom.pl
985,Maxon Nieruchomosci Sp. z o.o.,28.06.2018,Powązkowska 44C,mazowieckie,01-797,Warszawa,https://www.otodom.pl/shop/maxon-nieruchomosci-sp-z-o-o-IDiDsI/
986,AdReM Nieruchomości Sp z o.o.,22.01.2018,Bukowińska 24a/34,mazowieckie,02-703,Warszawa,https://adremwarszawa.otodom.pl
987,Retalia Nieruchomości,12.10.2017,Grzybowska 87,mazowieckie,00-844,Warszawa,https://www.otodom.pl/shop/retalia-nieruchomosci-IDcRRe/
988,REALS Nieruchomości sp. z o.o.,20.04.2018,Grzybowska 2B lok. 83,mazowieckie,00-131,Warszawa,https://www.otodom.pl/shop/reals-nieruchomosci-sp-z-o-o-IDgTq0/
989,Wilsons Nieruchomości Sp. z o.o.,22.02.2018,Świętokrzyska 20 lok 311,mazowieckie,00-002,Warszawa,https://wilsons.otodom.pl
990,Mzuri Sp. z o.o.,14.01.2016,Aleja Niepodległości 221/1,mazowieckie,02-087,Warszawa,https://mzuri.otodom.pl
991,Sadyba Metrohouse,23.02.2017,Powsińska 34,mazowieckie,02-903,Warszawa,https://metrohousesadyba.otodom.pl
992,Lions Estate Sp. z o o.,09.09.2016,Wiejska 11/13,mazowieckie,00-480,Warszawa,https://lionsestate.otodom.pl
993,Axi Immo Group Sp. z o.o.,14.04.2011,Twarda 18,mazowieckie,00-105,Warszawa,https://axi.otodom.pl
994,INVESTORIUS Sp. z o.o.,09.01.2015,Śniadeckich 17,mazowieckie,00-654,Warszawa,https://investorius.otodom.pl
995,Euro-House Nieruchomości komercyjne,04.02.2014,ul. Braci Wagów 20 lok u1,mazowieckie,02-791,Warszawa,https://www.otodom.pl/shop/euro-house-nieruchomosci-komercyjne-ID2KPJ/
996,Biuro Na Miarę,20.02.2018,Nowy Świat 47,mazowieckie,00-042,Warszawa,https://biuronamiare.otodom.pl
997,Flatcare - nowoczesny zarządca nieruchomości,02.12.2019,Kępa Tarchomińska 6C/1/2,mazowieckie,03-113,Warszawa,https://flatcare.otodom.pl
998,En Casa Premium Real Estate,19.11.2014,Studencka 55,mazowieckie,02-735,Warszawa,https://encasa.otodom.pl
999,PARTNER HOUSE GROUP,09.07.2020,Wiertnicza 45,mazowieckie,02-953,Warszawa,https://www.otodom.pl/shop/partner-house-group-IDwtSy/
1000,KOLOSEUM NIERUCHOMOŚCI,09.08.2012,Domaniewska 37/31G,mazowieckie,02-672,Warszawa,https://koloseum-nieruchomosci.otodom.pl
1001,Freedom Nieruchomości Franczyza,17.04.2018,Pokorna 2 lok. U13,mazowieckie,00-199,Warszawa,https://www.otodom.pl/shop/freedom-nieruchomosci-franczyza-IDh1mU/
1002,Expander Advisors,30.04.2015,Ul. Inflancka 4b,mazowieckie,00-189,Warszawa,https://www.otodom.pl/shop/expander-advisors-ID3ICK/
1003,Biuro sprzedaży,02.11.2015,Marynarska 21 lok 6,mazowieckie,02-674,Warszawa,https://N-plus.otodom.pl
1004,Metrohouse  Franchise S.A.,02.07.2018,Żelazna 28/30,mazowieckie,00-832,Warszawa,https://metrohouse-franchise.otodom.pl
1005,Maxon Nieruchomosci Sp. z o.o.,28.06.2018,Powązkowska 44C,mazowieckie,01-797,Warszawa,https://www.otodom.pl/shop/maxon-nieruchomosci-sp-z-o-o-IDiDsI/
1006,AdReM Nieruchomości Sp z o.o.,22.01.2018,Bukowińska 24a/34,mazowieckie,02-703,Warszawa,https://adremwarszawa.otodom.pl
1007,Retalia Nieruchomości,12.10.2017,Grzybowska 87,mazowieckie,00-844,Warszawa,https://www.otodom.pl/shop/retalia-nieruchomosci-IDcRRe/
1008,REALS Nieruchomości sp. z o.o.,20.04.2018,Grzybowska 2B lok. 83,mazowieckie,00-131,Warszawa,https://www.otodom.pl/shop/reals-nieruchomosci-sp-z-o-o-IDgTq0/
1009,Wilsons Nieruchomości Sp. z o.o.,22.02.2018,Świętokrzyska 20 lok 311,mazowieckie,00-002,Warszawa,https://wilsons.otodom.pl
1010,Mzuri Sp. z o.o.,14.01.2016,Aleja Niepodległości 221/1,mazowieckie,02-087,Warszawa,https://mzuri.otodom.pl
1011,Sadyba Metrohouse,23.02.2017,Powsińska 34,mazowieckie,02-903,Warszawa,https://metrohousesadyba.otodom.pl
1012,Lions Estate Sp. z o o.,09.09.2016,Wiejska 11/13,mazowieckie,00-480,Warszawa,https://lionsestate.otodom.pl
1013,Axi Immo Group Sp. z o.o.,14.04.2011,Twarda 18,mazowieckie,00-105,Warszawa,https://axi.otodom.pl
1014,INVESTORIUS Sp. z o.o.,09.01.2015,Śniadeckich 17,mazowieckie,00-654,Warszawa,https://investorius.otodom.pl
1015,Euro-House Nieruchomości komercyjne,04.02.2014,ul. Braci Wagów 20 lok u1,mazowieckie,02-791,Warszawa,https://www.otodom.pl/shop/euro-house-nieruchomosci-komercyjne-ID2KPJ/
1016,Biuro Na Miarę,20.02.2018,Nowy Świat 47,mazowieckie,00-042,Warszawa,https://biuronamiare.otodom.pl
1017,Flatcare - nowoczesny zarządca nieruchomości,02.12.2019,Kępa Tarchomińska 6C/1/2,mazowieckie,03-113,Warszawa,https://flatcare.otodom.pl
1018,En Casa Premium Real Estate,19.11.2014,Studencka 55,mazowieckie,02-735,Warszawa,https://encasa.otodom.pl
1019,PARTNER HOUSE GROUP,09.07.2020,Wiertnicza 45,mazowieckie,02-953,Warszawa,https://www.otodom.pl/shop/partner-house-group-IDwtSy/
1020,KOLOSEUM NIERUCHOMOŚCI,09.08.2012,Domaniewska 37/31G,mazowieckie,02-672,Warszawa,https://koloseum-nieruchomosci.otodom.pl
1021,Freedom Nieruchomości Franczyza,17.04.2018,Pokorna 2 lok. U13,mazowieckie,00-199,Warszawa,https://www.otodom.pl/shop/freedom-nieruchomosci-franczyza-IDh1mU/
1022,Expander Advisors,30.04.2015,Ul. Inflancka 4b,mazowieckie,00-189,Warszawa,https://www.otodom.pl/shop/expander-advisors-ID3ICK/
1023,Biuro sprzedaży,02.11.2015,Marynarska 21 lok 6,mazowieckie,02-674,Warszawa,https://N-plus.otodom.pl
1024,Metrohouse  Franchise S.A.,02.07.2018,Żelazna 28/30,mazowieckie,00-832,Warszawa,https://metrohouse-franchise.otodom.pl
1025,Maxon Nieruchomosci Sp. z o.o.,28.06.2018,Powązkowska 44C,mazowieckie,01-797,Warszawa,https://www.otodom.pl/shop/maxon-nieruchomosci-sp-z-o-o-IDiDsI/
1026,AdReM Nieruchomości Sp z o.o.,22.01.2018,Bukowińska 24a/34,mazowieckie,02-703,Warszawa,https://adremwarszawa.otodom.pl
1027,Retalia Nieruchomości,12.10.2017,Grzybowska 87,mazowieckie,00-844,Warszawa,https://www.otodom.pl/shop/retalia-nieruchomosci-IDcRRe/
1028,REALS Nieruchomości sp. z o.o.,20.04.2018,Grzybowska 2B lok. 83,mazowieckie,00-131,Warszawa,https://www.otodom.pl/shop/reals-nieruchomosci-sp-z-o-o-IDgTq0/
1029,Wilsons Nieruchomości Sp. z o.o.,22.02.2018,Świętokrzyska 20 lok 311,mazowieckie,00-002,Warszawa,https://wilsons.otodom.pl
1030,Mzuri Sp. z o.o.,14.01.2016,Aleja Niepodległości 221/1,mazowieckie,02-087,Warszawa,https://mzuri.otodom.pl
1031,Sadyba Metrohouse,23.02.2017,Powsińska 34,mazowieckie,02-903,Warszawa,https://metrohousesadyba.otodom.pl
1032,Lions Estate Sp. z o o.,09.09.2016,Wiejska 11/13,mazowieckie,00-480,Warszawa,https://lionsestate.otodom.pl
1033,Axi Immo Group Sp. z o.o.,14.04.2011,Twarda 18,mazowieckie,00-105,Warszawa,https://axi.otodom.pl
1034,INVESTORIUS Sp. z o.o.,09.01.2015,Śniadeckich 17,mazowieckie,00-654,Warszawa,https://investorius.otodom.pl
1035,Euro-House Nieruchomości komercyjne,04.02.2014,ul. Braci Wagów 20 lok u1,mazowieckie,02-791,Warszawa,https://www.otodom.pl/shop/euro-house-nieruchomosci-komercyjne-ID2KPJ/
1036,Biuro Na Miarę,20.02.2018,Nowy Świat 47,mazowieckie,00-042,Warszawa,https://biuronamiare.otodom.pl
1037,Flatcare - nowoczesny zarządca nieruchomości,02.12.2019,Kępa Tarchomińska 6C/1/2,mazowieckie,03-113,Warszawa,https://flatcare.otodom.pl
1038,En Casa Premium Real Estate,19.11.2014,Studencka 55,mazowieckie,02-735,Warszawa,https://encasa.otodom.pl
1039,PARTNER HOUSE GROUP,09.07.2020,Wiertnicza 45,mazowieckie,02-953,Warszawa,https://www.otodom.pl/shop/partner-house-group-IDwtSy/
1040,KOLOSEUM NIERUCHOMOŚCI,09.08.2012,Domaniewska 37/31G,mazowieckie,02-672,Warszawa,https://koloseum-nieruchomosci.otodom.pl
1041,Freedom Nieruchomości Franczyza,17.04.2018,Pokorna 2 lok. U13,mazowieckie,00-199,Warszawa,https://www.otodom.pl/shop/freedom-nieruchomosci-franczyza-IDh1mU/
1042,Expander Advisors,30.04.2015,Ul. Inflancka 4b,mazowieckie,00-189,Warszawa,https://www.otodom.pl/shop/expander-advisors-ID3ICK/
1043,Biuro sprzedaży,02.11.2015,Marynarska 21 lok 6,mazowieckie,02-674,Warszawa,https://N-plus.otodom.pl
1044,Metrohouse  Franchise S.A.,02.07.2018,Żelazna 28/30,mazowieckie,00-832,Warszawa,https://metrohouse-franchise.otodom.pl
1045,Maxon Nieruchomosci Sp. z o.o.,28.06.2018,Powązkowska 44C,mazowieckie,01-797,Warszawa,https://www.otodom.pl/shop/maxon-nieruchomosci-sp-z-o-o-IDiDsI/
1046,AdReM Nieruchomości Sp z o.o.,22.01.2018,Bukowińska 24a/34,mazowieckie,02-703,Warszawa,https://adremwarszawa.otodom.pl
1047,Retalia Nieruchomości,12.10.2017,Grzybowska 87,mazowieckie,00-844,Warszawa,https://www.otodom.pl/shop/retalia-nieruchomosci-IDcRRe/
1048,REALS Nieruchomości sp. z o.o.,20.04.2018,Grzybowska 2B lok. 83,mazowieckie,00-131,Warszawa,https://www.otodom.pl/shop/reals-nieruchomosci-sp-z-o-o-IDgTq0/
1049,Wilsons Nieruchomości Sp. z o.o.,22.02.2018,Świętokrzyska 20 lok 311,mazowieckie,00-002,Warszawa,https://wilsons.otodom.pl
1050,Mzuri Sp. z o.o.,14.01.2016,Aleja Niepodległości 221/1,mazowieckie,02-087,Warszawa,https://mzuri.otodom.pl
1051,Sadyba Metrohouse,23.02.2017,Powsińska 34,mazowieckie,02-903,Warszawa,https://metrohousesadyba.otodom.pl
1052,Lions Estate Sp. z o o.,09.09.2016,Wiejska 11/13,mazowieckie,00-480,Warszawa,https://lionsestate.otodom.pl
1053,Axi Immo Group Sp. z o.o.,14.04.2011,Twarda 18,mazowieckie,00-105,Warszawa,https://axi.otodom.pl
1054,INVESTORIUS Sp. z o.o.,09.01.2015,Śniadeckich 17,mazowieckie,00-654,Warszawa,https://investorius.otodom.pl
1055,Euro-House Nieruchomości komercyjne,04.02.2014,ul. Braci Wagów 20 lok u1,mazowieckie,02-791,Warszawa,https://www.otodom.pl/shop/euro-house-nieruchomosci-komercyjne-ID2KPJ/
1056,Biuro Na Miarę,20.02.2018,Nowy Świat 47,mazowieckie,00-042,Warszawa,https://biuronamiare.otodom.pl
1057,Flatcare - nowoczesny zarządca nieruchomości,02.12.2019,Kępa Tarchomińska 6C/1/2,mazowieckie,03-113,Warszawa,https://flatcare.otodom.pl
1058,En Casa Premium Real Estate,19.11.2014,Studencka 55,mazowieckie,02-735,Warszawa,https://encasa.otodom.pl
1059,PARTNER HOUSE GROUP,09.07.2020,Wiertnicza 45,mazowieckie,02-953,Warszawa,https://www.otodom.pl/shop/partner-house-group-IDwtSy/
1060,KOLOSEUM NIERUCHOMOŚCI,09.08.2012,Domaniewska 37/31G,mazowieckie,02-672,Warszawa,https://koloseum-nieruchomosci.otodom.pl
1061,Freedom Nieruchomości Franczyza,17.04.2018,Pokorna 2 lok. U13,mazowieckie,00-199,Warszawa,https://www.otodom.pl/shop/freedom-nieruchomosci-franczyza-IDh1mU/
1062,Expander Advisors,30.04.2015,Ul. Inflancka 4b,mazowieckie,00-189,Warszawa,https://www.otodom.pl/shop/expander-advisors-ID3ICK/
1063,Biuro sprzedaży,02.11.2015,Marynarska 21 lok 6,mazowieckie,02-674,Warszawa,https://N-plus.otodom.pl
1064,Metrohouse  Franchise S.A.,02.07.2018,Żelazna 28/30,mazowieckie,00-832,Warszawa,https://metrohouse-franchise.otodom.pl
1065,Maxon Nieruchomosci Sp. z o.o.,28.06.2018,Powązkowska 44C,mazowieckie,01-797,Warszawa,https://www.otodom.pl/shop/maxon-nieruchomosci-sp-z-o-o-IDiDsI/
1066,AdReM Nieruchomości Sp z o.o.,22.01.2018,Bukowińska 24a/34,mazowieckie,02-703,Warszawa,https://adremwarszawa.otodom.pl
1067,Retalia Nieruchomości,12.10.2017,Grzybowska 87,mazowieckie,00-844,Warszawa,https://www.otodom.pl/shop/retalia-nieruchomosci-IDcRRe/
1068,REALS Nieruchomości sp. z o.o.,20.04.2018,Grzybowska 2B lok. 83,mazowieckie,00-131,Warszawa,https://www.otodom.pl/shop/reals-nieruchomosci-sp-z-o-o-IDgTq0/
1069,Wilsons Nieruchomości Sp. z o.o.,22.02.2018,Świętokrzyska 20 lok 311,mazowieckie,00-002,Warszawa,https://wilsons.otodom.pl
1070,Mzuri Sp. z o.o.,14.01.2016,Aleja Niepodległości 221/1,mazowieckie,02-087,Warszawa,https://mzuri.otodom.pl
1071,Sadyba Metrohouse,23.02.2017,Powsińska 34,mazowieckie,02-903,Warszawa,https://metrohousesadyba.otodom.pl
1072,Lions Estate Sp. z o o.,09.09.2016,Wiejska 11/13,mazowieckie,00-480,Warszawa,https://lionsestate.otodom.pl
1073,Axi Immo Group Sp. z o.o.,14.04.2011,Twarda 18,mazowieckie,00-105,Warszawa,https://axi.otodom.pl
1074,INVESTORIUS Sp. z o.o.,09.01.2015,Śniadeckich 17,mazowieckie,00-654,Warszawa,https://investorius.otodom.pl
1075,Euro-House Nieruchomości komercyjne,04.02.2014,ul. Braci Wagów 20 lok u1,mazowieckie,02-791,Warszawa,https://www.otodom.pl/shop/euro-house-nieruchomosci-komercyjne-ID2KPJ/
1076,Biuro Na Miarę,20.02.2018,Nowy Świat 47,mazowieckie,00-042,Warszawa,https://biuronamiare.otodom.pl
1077,Flatcare - nowoczesny zarządca nieruchomości,02.12.2019,Kępa Tarchomińska 6C/1/2,mazowieckie,03-113,Warszawa,https://flatcare.otodom.pl
1078,En Casa Premium Real Estate,19.11.2014,Studencka 55,mazowieckie,02-735,Warszawa,https://encasa.otodom.pl
1079,PARTNER HOUSE GROUP,09.07.2020,Wiertnicza 45,mazowieckie,02-953,Warszawa,https://www.otodom.pl/shop/partner-house-group-IDwtSy/
1080,KOLOSEUM NIERUCHOMOŚCI,09.08.2012,Domaniewska 37/31G,mazowieckie,02-672,Warszawa,https://koloseum-nieruchomosci.otodom.pl
1081,Freedom Nieruchomości Franczyza,17.04.2018,Pokorna 2 lok. U13,mazowieckie,00-199,Warszawa,https://www.otodom.pl/shop/freedom-nieruchomosci-franczyza-IDh1mU/
1082,Expander Advisors,30.04.2015,Ul. Inflancka 4b,mazowieckie,00-189,Warszawa,https://www.otodom.pl/shop/expander-advisors-ID3ICK/
1083,Biuro sprzedaży,02.11.2015,Marynarska 21 lok 6,mazowieckie,02-674,Warszawa,https://N-plus.otodom.pl
1084,Metrohouse  Franchise S.A.,02.07.2018,Żelazna 28/30,mazowieckie,00-832,Warszawa,https://metrohouse-franchise.otodom.pl
1085,Maxon Nieruchomosci Sp. z o.o.,28.06.2018,Powązkowska 44C,mazowieckie,01-797,Warszawa,https://www.otodom.pl/shop/maxon-nieruchomosci-sp-z-o-o-IDiDsI/
1086,AdReM Nieruchomości Sp z o.o.,22.01.2018,Bukowińska 24a/34,mazowieckie,02-703,Warszawa,https://adremwarszawa.otodom.pl
1087,Retalia Nieruchomości,12.10.2017,Grzybowska 87,mazowieckie,00-844,Warszawa,https://www.otodom.pl/shop/retalia-nieruchomosci-IDcRRe/
1088,REALS Nieruchomości sp. z o.o.,20.04.2018,Grzybowska 2B lok. 83,mazowieckie,00-131,Warszawa,https://www.otodom.pl/shop/reals-nieruchomosci-sp-z-o-o-IDgTq0/
1089,Wilsons Nieruchomości Sp. z o.o.,22.02.2018,Świętokrzyska 20 lok 311,mazowieckie,00-002,Warszawa,https://wilsons.otodom.pl
1090,Mzuri Sp. z o.o.,14.01.2016,Aleja Niepodległości 221/1,mazowieckie,02-087,Warszawa,https://mzuri.otodom.pl
1091,Sadyba Metrohouse,23.02.2017,Powsińska 34,mazowieckie,02-903,Warszawa,https://metrohousesadyba.otodom.pl
1092,Lions Estate Sp. z o o.,09.09.2016,Wiejska 11/13,mazowieckie,00-480,Warszawa,https://lionsestate.otodom.pl
1093,Axi Immo Group Sp. z o.o.,14.04.2011,Twarda 18,mazowieckie,00-105,Warszawa,https://axi.otodom.pl
1094,INVESTORIUS Sp. z o.o.,09.01.2015,Śniadeckich 17,mazowieckie,00-654,Warszawa,https://investorius.otodom.pl
1095,Euro-House Nieruchomości komercyjne,04.02.2014,ul. Braci Wagów 20 lok u1,mazowieckie,02-791,Warszawa,https://www.otodom.pl/shop/euro-house-nieruchomosci-komercyjne-ID2KPJ/
1096,Biuro Na Miarę,20.02.2018,Nowy Świat 47,mazowieckie,00-042,Warszawa,https://biuronamiare.otodom.pl
1097,Flatcare - nowoczesny zarządca nieruchomości,02.12.2019,Kępa Tarchomińska 6C/1/2,mazowieckie,03-113,Warszawa,https://flatcare.otodom.pl
1098,En Casa Premium Real Estate,19.11.2014,Studencka 55,mazowieckie,02-735,Warszawa,https://encasa.otodom.pl
1099,PARTNER HOUSE GROUP,09.07.2020,Wiertnicza 45,mazowieckie,02-953,Warszawa,https://www.otodom.pl/shop/partner-house-group-IDwtSy/
1100,KOLOSEUM NIERUCHOMOŚCI,09.08.2012,Domaniewska 37/31G,mazowieckie,02-672,Warszawa,https://koloseum-nieruchomosci.otodom.pl
1101,Freedom Nieruchomości Franczyza,17.04.2018,Pokorna 2 lok. U13,mazowieckie,00-199,Warszawa,https://www.otodom.pl/shop/freedom-nieruchomosci-franczyza-IDh1mU/
1102,Expander Advisors,30.04.2015,Ul. Inflancka 4b,mazowieckie,00-189,Warszawa,https://www.otodom.pl/shop/expander-advisors-ID3ICK/
1103,Biuro sprzedaży,02.11.2015,Marynarska 21 lok 6,mazowieckie,02-674,Warszawa,https://N-plus.otodom.pl
1104,Metrohouse  Franchise S.A.,02.07.2018,Żelazna 28/30,mazowieckie,00-832,Warszawa,https://metrohouse-franchise.otodom.pl
1105,Maxon Nieruchomosci Sp. z o.o.,28.06.2018,Powązkowska 44C,mazowieckie,01-797,Warszawa,https://www.otodom.pl/shop/maxon-nieruchomosci-sp-z-o-o-IDiDsI/
1106,AdReM Nieruchomości Sp z o.o.,22.01.2018,Bukowińska 24a/34,mazowieckie,02-703,Warszawa,https://adremwarszawa.otodom.pl
1107,Retalia Nieruchomości,12.10.2017,Grzybowska 87,mazowieckie,00-844,Warszawa,https://www.otodom.pl/shop/retalia-nieruchomosci-IDcRRe/
1108,REALS Nieruchomości sp. z o.o.,20.04.2018,Grzybowska 2B lok. 83,mazowieckie,00-131,Warszawa,https://www.otodom.pl/shop/reals-nieruchomosci-sp-z-o-o-IDgTq0/
1109,Wilsons Nieruchomości Sp. z o.o.,22.02.2018,Świętokrzyska 20 lok 311,mazowieckie,00-002,Warszawa,https://wilsons.otodom.pl
1110,Mzuri Sp. z o.o.,14.01.2016,Aleja Niepodległości 221/1,mazowieckie,02-087,Warszawa,https://mzuri.otodom.pl
1111,Sadyba Metrohouse,23.02.2017,Powsińska 34,mazowieckie,02-903,Warszawa,https://metrohousesadyba.otodom.pl
1112,Lions Estate Sp. z o o.,09.09.2016,Wiejska 11/13,mazowieckie,00-480,Warszawa,https://lionsestate.otodom.pl
1113,Axi Immo Group Sp. z o.o.,14.04.2011,Twarda 18,mazowieckie,00-105,Warszawa,https://axi.otodom.pl
1114,INVESTORIUS Sp. z o.o.,09.01.2015,Śniadeckich 17,mazowieckie,00-654,Warszawa,https://investorius.otodom.pl
1115,Euro-House Nieruchomości komercyjne,04.02.2014,ul. Braci Wagów 20 lok u1,mazowieckie,02-791,Warszawa,https://www.otodom.pl/shop/euro-house-nieruchomosci-komercyjne-ID2KPJ/
1116,Biuro Na Miarę,20.02.2018,Nowy Świat 47,mazowieckie,00-042,Warszawa,https://biuronamiare.otodom.pl
1117,Flatcare - nowoczesny zarządca nieruchomości,02.12.2019,Kępa Tarchomińska 6C/1/2,mazowieckie,03-113,Warszawa,https://flatcare.otodom.pl
1118,En Casa Premium Real Estate,19.11.2014,Studencka 55,mazowieckie,02-735,Warszawa,https://encasa.otodom.pl
1119,PARTNER HOUSE GROUP,09.07.2020,Wiertnicza 45,mazowieckie,02-953,Warszawa,https://www.otodom.pl/shop/partner-house-group-IDwtSy/
1120,KOLOSEUM NIERUCHOMOŚCI,09.08.2012,Domaniewska 37/31G,mazowieckie,02-672,Warszawa,https://koloseum-nieruchomosci.otodom.pl
1121,Freedom Nieruchomości Franczyza,17.04.2018,Pokorna 2 lok. U13,mazowieckie,00-199,Warszawa,https://www.otodom.pl/shop/freedom-nieruchomosci-franczyza-IDh1mU/
1122,Expander Advisors,30.04.2015,Ul. Inflancka 4b,mazowieckie,00-189,Warszawa,https://www.otodom.pl/shop/expander-advisors-ID3ICK/
1123,Biuro sprzedaży,02.11.2015,Marynarska 21 lok 6,mazowieckie,02-674,Warszawa,https://N-plus.otodom.pl
1124,Metrohouse  Franchise S.A.,02.07.2018,Żelazna 28/30,mazowieckie,00-832,Warszawa,https://metrohouse-franchise.otodom.pl
1125,Maxon Nieruchomosci Sp. z o.o.,28.06.2018,Powązkowska 44C,mazowieckie,01-797,Warszawa,https://www.otodom.pl/shop/maxon-nieruchomosci-sp-z-o-o-IDiDsI/
1126,AdReM Nieruchomości Sp z o.o.,22.01.2018,Bukowińska 24a/34,mazowieckie,02-703,Warszawa,https://adremwarszawa.otodom.pl
1127,Retalia Nieruchomości,12.10.2017,Grzybowska 87,mazowieckie,00-844,Warszawa,https://www.otodom.pl/shop/retalia-nieruchomosci-IDcRRe/
1128,REALS Nieruchomości sp. z o.o.,20.04.2018,Grzybowska 2B lok. 83,mazowieckie,00-131,Warszawa,https://www.otodom.pl/shop/reals-nieruchomosci-sp-z-o-o-IDgTq0/
1129,Wilsons Nieruchomości Sp. z o.o.,22.02.2018,Świętokrzyska 20 lok 311,mazowieckie,00-002,Warszawa,https://wilsons.otodom.pl
1130,Mzuri Sp. z o.o.,14.01.2016,Aleja Niepodległości 221/1,mazowieckie,02-087,Warszawa,https://mzuri.otodom.pl
1131,Sadyba Metrohouse,23.02.2017,Powsińska 34,mazowieckie,02-903,Warszawa,https://metrohousesadyba.otodom.pl
1132,Lions Estate Sp. z o o.,09.09.2016,Wiejska 11/13,mazowieckie,00-480,Warszawa,https://lionsestate.otodom.pl
1133,Axi Immo Group Sp. z o.o.,14.04.2011,Twarda 18,mazowieckie,00-105,Warszawa,https://axi.otodom.pl
1134,INVESTORIUS Sp. z o.o.,09.01.2015,Śniadeckich 17,mazowieckie,00-654,Warszawa,https://investorius.otodom.pl
1135,Euro-House Nieruchomości komercyjne,04.02.2014,ul. Braci Wagów 20 lok u1,mazowieckie,02-791,Warszawa,https://www.otodom.pl/shop/euro-house-nieruchomosci-komercyjne-ID2KPJ/
1136,Biuro Na Miarę,20.02.2018,Nowy Świat 47,mazowieckie,00-042,Warszawa,https://biuronamiare.otodom.pl
1137,Flatcare - nowoczesny zarządca nieruchomości,02.12.2019,Kępa Tarchomińska 6C/1/2,mazowieckie,03-113,Warszawa,https://flatcare.otodom.pl
1138,En Casa Premium Real Estate,19.11.2014,Studencka 55,mazowieckie,02-735,Warszawa,https://encasa.otodom.pl
1139,PARTNER HOUSE GROUP,09.07.2020,Wiertnicza 45,mazowieckie,02-953,Warszawa,https://www.otodom.pl/shop/partner-house-group-IDwtSy/
1140,KOLOSEUM NIERUCHOMOŚCI,09.08.2012,Domaniewska 37/31G,mazowieckie,02-672,Warszawa,https://koloseum-nieruchomosci.otodom.pl
1141,Freedom Nieruchomości Franczyza,17.04.2018,Pokorna 2 lok. U13,mazowieckie,00-199,Warszawa,https://www.otodom.pl/shop/freedom-nieruchomosci-franczyza-IDh1mU/
1142,Expander Advisors,30.04.2015,Ul. Inflancka 4b,mazowieckie,00-189,Warszawa,https://www.otodom.pl/shop/expander-advisors-ID3ICK/
1143,Biuro sprzedaży,02.11.2015,Marynarska 21 lok 6,mazowieckie,02-674,Warszawa,https://N-plus.otodom.pl
1144,Metrohouse  Franchise S.A.,02.07.2018,Żelazna 28/30,mazowieckie,00-832,Warszawa,https://metrohouse-franchise.otodom.pl
1145,Maxon Nieruchomosci Sp. z o.o.,28.06.2018,Powązkowska 44C,mazowieckie,01-797,Warszawa,https://www.otodom.pl/shop/maxon-nieruchomosci-sp-z-o-o-IDiDsI/
1146,AdReM Nieruchomości Sp z o.o.,22.01.2018,Bukowińska 24a/34,mazowieckie,02-703,Warszawa,https://adremwarszawa.otodom.pl
1147,Retalia Nieruchomości,12.10.2017,Grzybowska 87,mazowieckie,00-844,Warszawa,https://www.otodom.pl/shop/retalia-nieruchomosci-IDcRRe/
1148,REALS Nieruchomości sp. z o.o.,20.04.2018,Grzybowska 2B lok. 83,mazowieckie,00-131,Warszawa,https://www.otodom.pl/shop/reals-nieruchomosci-sp-z-o-o-IDgTq0/
1149,Wilsons Nieruchomości Sp. z o.o.,22.02.2018,Świętokrzyska 20 lok 311,mazowieckie,00-002,Warszawa,https://wilsons.otodom.pl
1150,Mzuri Sp. z o.o.,14.01.2016,Aleja Niepodległości 221/1,mazowieckie,02-087,Warszawa,https://mzuri.otodom.pl
1151,Sadyba Metrohouse,23.02.2017,Powsińska 34,mazowieckie,02-903,Warszawa,https://metrohousesadyba.otodom.pl
1152,Lions Estate Sp. z o o.,09.09.2016,Wiejska 11/13,mazowieckie,00-480,Warszawa,https://lionsestate.otodom.pl
1153,Axi Immo Group Sp. z o.o.,14.04.2011,Twarda 18,mazowieckie,00-105,Warszawa,https://axi.otodom.pl
1154,INVESTORIUS Sp. z o.o.,09.01.2015,Śniadeckich 17,mazowieckie,00-654,Warszawa,https://investorius.otodom.pl
1155,Euro-House Nieruchomości komercyjne,04.02.2014,ul. Braci Wagów 20 lok u1,mazowieckie,02-791,Warszawa,https://www.otodom.pl/shop/euro-house-nieruchomosci-komercyjne-ID2KPJ/
1156,Biuro Na Miarę,20.02.2018,Nowy Świat 47,mazowieckie,00-042,Warszawa,https://biuronamiare.otodom.pl
1157,Flatcare - nowoczesny zarządca nieruchomości,02.12.2019,Kępa Tarchomińska 6C/1/2,mazowieckie,03-113,Warszawa,https://flatcare.otodom.pl
1158,En Casa Premium Real Estate,19.11.2014,Studencka 55,mazowieckie,02-735,Warszawa,https://encasa.otodom.pl
1159,PARTNER HOUSE GROUP,09.07.2020,Wiertnicza 45,mazowieckie,02-953,Warszawa,https://www.otodom.pl/shop/partner-house-group-IDwtSy/
1160,KOLOSEUM NIERUCHOMOŚCI,09.08.2012,Domaniewska 37/31G,mazowieckie,02-672,Warszawa,https://koloseum-nieruchomosci.otodom.pl
1161,Freedom Nieruchomości Franczyza,17.04.2018,Pokorna 2 lok. U13,mazowieckie,00-199,Warszawa,https://www.otodom.pl/shop/freedom-nieruchomosci-franczyza-IDh1mU/
1162,Expander Advisors,30.04.2015,Ul. Inflancka 4b,mazowieckie,00-189,Warszawa,https://www.otodom.pl/shop/expander-advisors-ID3ICK/
1163,Biuro sprzedaży,02.11.2015,Marynarska 21 lok 6,mazowieckie,02-674,Warszawa,https://N-plus.otodom.pl
1164,Metrohouse  Franchise S.A.,02.07.2018,Żelazna 28/30,mazowieckie,00-832,Warszawa,https://metrohouse-franchise.otodom.pl
1165,Maxon Nieruchomosci Sp. z o.o.,28.06.2018,Powązkowska 44C,mazowieckie,01-797,Warszawa,https://www.otodom.pl/shop/maxon-nieruchomosci-sp-z-o-o-IDiDsI/
1166,AdReM Nieruchomości Sp z o.o.,22.01.2018,Bukowińska 24a/34,mazowieckie,02-703,Warszawa,https://adremwarszawa.otodom.pl
1167,Retalia Nieruchomości,12.10.2017,Grzybowska 87,mazowieckie,00-844,Warszawa,https://www.otodom.pl/shop/retalia-nieruchomosci-IDcRRe/
1168,REALS Nieruchomości sp. z o.o.,20.04.2018,Grzybowska 2B lok. 83,mazowieckie,00-131,Warszawa,https://www.otodom.pl/shop/reals-nieruchomosci-sp-z-o-o-IDgTq0/
1169,Wilsons Nieruchomości Sp. z o.o.,22.02.2018,Świętokrzyska 20 lok 311,mazowieckie,00-002,Warszawa,https://wilsons.otodom.pl
1170,Mzuri Sp. z o.o.,14.01.2016,Aleja Niepodległości 221/1,mazowieckie,02-087,Warszawa,https://mzuri.otodom.pl
1171,Sadyba Metrohouse,23.02.2017,Powsińska 34,mazowieckie,02-903,Warszawa,https://metrohousesadyba.otodom.pl
1172,Lions Estate Sp. z o o.,09.09.2016,Wiejska 11/13,mazowieckie,00-480,Warszawa,https://lionsestate.otodom.pl
1173,Axi Immo Group Sp. z o.o.,14.04.2011,Twarda 18,mazowieckie,00-105,Warszawa,https://axi.otodom.pl
1174,INVESTORIUS Sp. z o.o.,09.01.2015,Śniadeckich 17,mazowieckie,00-654,Warszawa,https://investorius.otodom.pl
1175,Euro-House Nieruchomości komercyjne,04.02.2014,ul. Braci Wagów 20 lok u1,mazowieckie,02-791,Warszawa,https://www.otodom.pl/shop/euro-house-nieruchomosci-komercyjne-ID2KPJ/
1176,Biuro Na Miarę,20.02.2018,Nowy Świat 47,mazowieckie,00-042,Warszawa,https://biuronamiare.otodom.pl
1177,Flatcare - nowoczesny zarządca nieruchomości,02.12.2019,Kępa Tarchomińska 6C/1/2,mazowieckie,03-113,Warszawa,https://flatcare.otodom.pl
1178,En Casa Premium Real Estate,19.11.2014,Studencka 55,mazowieckie,02-735,Warszawa,https://encasa.otodom.pl
1179,PARTNER HOUSE GROUP,09.07.2020,Wiertnicza 45,mazowieckie,02-953,Warszawa,https://www.otodom.pl/shop/partner-house-group-IDwtSy/
1180,KOLOSEUM NIERUCHOMOŚCI,09.08.2012,Domaniewska 37/31G,mazowieckie,02-672,Warszawa,https://koloseum-nieruchomosci.otodom.pl
1181,Freedom Nieruchomości Franczyza,17.04.2018,Pokorna 2 lok. U13,mazowieckie,00-199,Warszawa,https://www.otodom.pl/shop/freedom-nieruchomosci-franczyza-IDh1mU/
1182,Expander Advisors,30.04.2015,Ul. Inflancka 4b,mazowieckie,00-189,Warszawa,https://www.otodom.pl/shop/expander-advisors-ID3ICK/
1183,Biuro sprzedaży,02.11.2015,Marynarska 21 lok 6,mazowieckie,02-674,Warszawa,https://N-plus.otodom.pl
1184,Metrohouse  Franchise S.A.,02.07.2018,Żelazna 28/30,mazowieckie,00-832,Warszawa,https://metrohouse-franchise.otodom.pl
1185,Maxon Nieruchomosci Sp. z o.o.,28.06.2018,Powązkowska 44C,mazowieckie,01-797,Warszawa,https://www.otodom.pl/shop/maxon-nieruchomosci-sp-z-o-o-IDiDsI/
1186,AdReM Nieruchomości Sp z o.o.,22.01.2018,Bukowińska 24a/34,mazowieckie,02-703,Warszawa,https://adremwarszawa.otodom.pl
1187,Retalia Nieruchomości,12.10.2017,Grzybowska 87,mazowieckie,00-844,Warszawa,https://www.otodom.pl/shop/retalia-nieruchomosci-IDcRRe/
1188,REALS Nieruchomości sp. z o.o.,20.04.2018,Grzybowska 2B lok. 83,mazowieckie,00-131,Warszawa,https://www.otodom.pl/shop/reals-nieruchomosci-sp-z-o-o-IDgTq0/
1189,Wilsons Nieruchomości Sp. z o.o.,22.02.2018,Świętokrzyska 20 lok 311,mazowieckie,00-002,Warszawa,https://wilsons.otodom.pl
1190,Mzuri Sp. z o.o.,14.01.2016,Aleja Niepodległości 221/1,mazowieckie,02-087,Warszawa,https://mzuri.otodom.pl
1191,Sadyba Metrohouse,23.02.2017,Powsińska 34,mazowieckie,02-903,Warszawa,https://metrohousesadyba.otodom.pl
1192,Lions Estate Sp. z o o.,09.09.2016,Wiejska 11/13,mazowieckie,00-480,Warszawa,https://lionsestate.otodom.pl
1193,Axi Immo Group Sp. z o.o.,14.04.2011,Twarda 18,mazowieckie,00-105,Warszawa,https://axi.otodom.pl
1194,INVESTORIUS Sp. z o.o.,09.01.2015,Śniadeckich 17,mazowieckie,00-654,Warszawa,https://investorius.otodom.pl
1195,Euro-House Nieruchomości komercyjne,04.02.2014,ul. Braci Wagów 20 lok u1,mazowieckie,02-791,Warszawa,https://www.otodom.pl/shop/euro-house-nieruchomosci-komercyjne-ID2KPJ/
1196,Biuro Na Miarę,20.02.2018,Nowy Świat 47,mazowieckie,00-042,Warszawa,https://biuronamiare.otodom.pl
1197,Flatcare - nowoczesny zarządca nieruchomości,02.12.2019,Kępa Tarchomińska 6C/1/2,mazowieckie,03-113,Warszawa,https://flatcare.otodom.pl
1198,En Casa Premium Real Estate,19.11.2014,Studencka 55,mazowieckie,02-735,Warszawa,https://encasa.otodom.pl
1199,PARTNER HOUSE GROUP,09.07.2020,Wiertnicza 45,mazowieckie,02-953,Warszawa,https://www.otodom.pl/shop/partner-house-group-IDwtSy/
1200,KOLOSEUM NIERUCHOMOŚCI,09.08.2012,Domaniewska 37/31G,mazowieckie,02-672,Warszawa,https://koloseum-nieruchomosci.otodom.pl
1201,Freedom Nieruchomości Franczyza,17.04.2018,Pokorna 2 lok. U13,mazowieckie,00-199,Warszawa,https://www.otodom.pl/shop/freedom-nieruchomosci-franczyza-IDh1mU/
1202,Expander Advisors,30.04.2015,Ul. Inflancka 4b,mazowieckie,00-189,Warszawa,https://www.otodom.pl/shop/expander-advisors-ID3ICK/
1203,Biuro sprzedaży,02.11.2015,Marynarska 21 lok 6,mazowieckie,02-674,Warszawa,https://N-plus.otodom.pl
1204,Metrohouse  Franchise S.A.,02.07.2018,Żelazna 28/30,mazowieckie,00-832,Warszawa,https://metrohouse-franchise.otodom.pl
1205,Maxon Nieruchomosci Sp. z o.o.,28.06.2018,Powązkowska 44C,mazowieckie,01-797,Warszawa,https://www.otodom.pl/shop/maxon-nieruchomosci-sp-z-o-o-IDiDsI/
1206,AdReM Nieruchomości Sp z o.o.,22.01.2018,Bukowińska 24a/34,mazowieckie,02-703,Warszawa,https://adremwarszawa.otodom.pl
1207,Retalia Nieruchomości,12.10.2017,Grzybowska 87,mazowieckie,00-844,Warszawa,https://www.otodom.pl/shop/retalia-nieruchomosci-IDcRRe/
1208,REALS Nieruchomości sp. z o.o.,20.04.2018,Grzybowska 2B lok. 83,mazowieckie,00-131,Warszawa,https://www.otodom.pl/shop/reals-nieruchomosci-sp-z-o-o-IDgTq0/
1209,Wilsons Nieruchomości Sp. z o.o.,22.02.2018,Świętokrzyska 20 lok 311,mazowieckie,00-002,Warszawa,https://wilsons.otodom.pl
1210,Mzuri Sp. z o.o.,14.01.2016,Aleja Niepodległości 221/1,mazowieckie,02-087,Warszawa,https://mzuri.otodom.pl
1211,Sadyba Metrohouse,23.02.2017,Powsińska 34,mazowieckie,02-903,Warszawa,https://metrohousesadyba.otodom.pl
1212,Lions Estate Sp. z o o.,09.09.2016,Wiejska 11/13,mazowieckie,00-480,Warszawa,https://lionsestate.otodom.pl
1213,Axi Immo Group Sp. z o.o.,14.04.2011,Twarda 18,mazowieckie,00-105,Warszawa,https://axi.otodom.pl
1214,INVESTORIUS Sp. z o.o.,09.01.2015,Śniadeckich 17,mazowieckie,00-654,Warszawa,https://investorius.otodom.pl
1215,Euro-House Nieruchomości komercyjne,04.02.2014,ul. Braci Wagów 20 lok u1,mazowieckie,02-791,Warszawa,https://www.otodom.pl/shop/euro-house-nieruchomosci-komercyjne-ID2KPJ/
1216,Biuro Na Miarę,20.02.2018,Nowy Świat 47,mazowieckie,00-042,Warszawa,https://biuronamiare.otodom.pl
1217,Flatcare - nowoczesny zarządca nieruchomości,02.12.2019,Kępa Tarchomińska 6C/1/2,mazowieckie,03-113,Warszawa,https://flatcare.otodom.pl
1218,En Casa Premium Real Estate,19.11.2014,Studencka 55,mazowieckie,02-735,Warszawa,https://encasa.otodom.pl
1219,PARTNER HOUSE GROUP,09.07.2020,Wiertnicza 45,mazowieckie,02-953,Warszawa,https://www.otodom.pl/shop/partner-house-group-IDwtSy/
1220,KOLOSEUM NIERUCHOMOŚCI,09.08.2012,Domaniewska 37/31G,mazowieckie,02-672,Warszawa,https://koloseum-nieruchomosci.otodom.pl
1221,Freedom Nieruchomości Franczyza,17.04.2018,Pokorna 2 lok. U13,mazowieckie,00-199,Warszawa,https://www.otodom.pl/shop/freedom-nieruchomosci-franczyza-IDh1mU/
1222,Expander Advisors,30.04.2015,Ul. Inflancka 4b,mazowieckie,00-189,Warszawa,https://www.otodom.pl/shop/expander-advisors-ID3ICK/
1223,Biuro sprzedaży,02.11.2015,Marynarska 21 lok 6,mazowieckie,02-674,Warszawa,https://N-plus.otodom.pl
1224,Metrohouse  Franchise S.A.,02.07.2018,Żelazna 28/30,mazowieckie,00-832,Warszawa,https://metrohouse-franchise.otodom.pl
1225,Maxon Nieruchomosci Sp. z o.o.,28.06.2018,Powązkowska 44C,mazowieckie,01-797,Warszawa,https://www.otodom.pl/shop/maxon-nieruchomosci-sp-z-o-o-IDiDsI/
1226,AdReM Nieruchomości Sp z o.o.,22.01.2018,Bukowińska 24a/34,mazowieckie,02-703,Warszawa,https://adremwarszawa.otodom.pl
1227,Retalia Nieruchomości,12.10.2017,Grzybowska 87,mazowieckie,00-844,Warszawa,https://www.otodom.pl/shop/retalia-nieruchomosci-IDcRRe/
1228,REALS Nieruchomości sp. z o.o.,20.04.2018,Grzybowska 2B lok. 83,mazowieckie,00-131,Warszawa,https://www.otodom.pl/shop/reals-nieruchomosci-sp-z-o-o-IDgTq0/
1229,Wilsons Nieruchomości Sp. z o.o.,22.02.2018,Świętokrzyska 20 lok 311,mazowieckie,00-002,Warszawa,https://wilsons.otodom.pl
1230,Mzuri Sp. z o.o.,14.01.2016,Aleja Niepodległości 221/1,mazowieckie,02-087,Warszawa,https://mzuri.otodom.pl
1231,Sadyba Metrohouse,23.02.2017,Powsińska 34,mazowieckie,02-903,Warszawa,https://metrohousesadyba.otodom.pl
1232,Lions Estate Sp. z o o.,09.09.2016,Wiejska 11/13,mazowieckie,00-480,Warszawa,https://lionsestate.otodom.pl
1233,Axi Immo Group Sp. z o.o.,14.04.2011,Twarda 18,mazowieckie,00-105,Warszawa,https://axi.otodom.pl
1234,INVESTORIUS Sp. z o.o.,09.01.2015,Śniadeckich 17,mazowieckie,00-654,Warszawa,https://investorius.otodom.pl
1235,Euro-House Nieruchomości komercyjne,04.02.2014,ul. Braci Wagów 20 lok u1,mazowieckie,02-791,Warszawa,https://www.otodom.pl/shop/euro-house-nieruchomosci-komercyjne-ID2KPJ/
1236,Biuro Na Miarę,20.02.2018,Nowy Świat 47,mazowieckie,00-042,Warszawa,https://biuronamiare.otodom.pl
1237,Flatcare - nowoczesny zarządca nieruchomości,02.12.2019,Kępa Tarchomińska 6C/1/2,mazowieckie,03-113,Warszawa,https://flatcare.otodom.pl
1238,En Casa Premium Real Estate,19.11.2014,Studencka 55,mazowieckie,02-735,Warszawa,https://encasa.otodom.pl
1239,PARTNER HOUSE GROUP,09.07.2020,Wiertnicza 45,mazowieckie,02-953,Warszawa,https://www.otodom.pl/shop/partner-house-group-IDwtSy/
1240,KOLOSEUM NIERUCHOMOŚCI,09.08.2012,Domaniewska 37/31G,mazowieckie,02-672,Warszawa,https://koloseum-nieruchomosci.otodom.pl
1241,Freedom Nieruchomości Franczyza,17.04.2018,Pokorna 2 lok. U13,mazowieckie,00-199,Warszawa,https://www.otodom.pl/shop/freedom-nieruchomosci-franczyza-IDh1mU/
1242,Expander Advisors,30.04.2015,Ul. Inflancka 4b,mazowieckie,00-189,Warszawa,https://www.otodom.pl/shop/expander-advisors-ID3ICK/
1243,Biuro sprzedaży,02.11.2015,Marynarska 21 lok 6,mazowieckie,02-674,Warszawa,https://N-plus.otodom.pl
1244,Metrohouse  Franchise S.A.,02.07.2018,Żelazna 28/30,mazowieckie,00-832,Warszawa,https://metrohouse-franchise.otodom.pl
1245,Maxon Nieruchomosci Sp. z o.o.,28.06.2018,Powązkowska 44C,mazowieckie,01-797,Warszawa,https://www.otodom.pl/shop/maxon-nieruchomosci-sp-z-o-o-IDiDsI/
1246,AdReM Nieruchomości Sp z o.o.,22.01.2018,Bukowińska 24a/34,mazowieckie,02-703,Warszawa,https://adremwarszawa.otodom.pl
1247,Retalia Nieruchomości,12.10.2017,Grzybowska 87,mazowieckie,00-844,Warszawa,https://www.otodom.pl/shop/retalia-nieruchomosci-IDcRRe/
1248,REALS Nieruchomości sp. z o.o.,20.04.2018,Grzybowska 2B lok. 83,mazowieckie,00-131,Warszawa,https://www.otodom.pl/shop/reals-nieruchomosci-sp-z-o-o-IDgTq0/
1249,Wilsons Nieruchomości Sp. z o.o.,22.02.2018,Świętokrzyska 20 lok 311,mazowieckie,00-002,Warszawa,https://wilsons.otodom.pl
1250,Mzuri Sp. z o.o.,14.01.2016,Aleja Niepodległości 221/1,mazowieckie,02-087,Warszawa,https://mzuri.otodom.pl
1251,Sadyba Metrohouse,23.02.2017,Powsińska 34,mazowieckie,02-903,Warszawa,https://metrohousesadyba.otodom.pl
1252,Lions Estate Sp. z o o.,09.09.2016,Wiejska 11/13,mazowieckie,00-480,Warszawa,https://lionsestate.otodom.pl
1253,Axi Immo Group Sp. z o.o.,14.04.2011,Twarda 18,mazowieckie,00-105,Warszawa,https://axi.otodom.pl
1254,INVESTORIUS Sp. z o.o.,09.01.2015,Śniadeckich 17,mazowieckie,00-654,Warszawa,https://investorius.otodom.pl
1255,Euro-House Nieruchomości komercyjne,04.02.2014,ul. Braci Wagów 20 lok u1,mazowieckie,02-791,Warszawa,https://www.otodom.pl/shop/euro-house-nieruchomosci-komercyjne-ID2KPJ/
1256,Biuro Na Miarę,20.02.2018,Nowy Świat 47,mazowieckie,00-042,Warszawa,https://biuronamiare.otodom.pl
1257,Flatcare - nowoczesny zarządca nieruchomości,02.12.2019,Kępa Tarchomińska 6C/1/2,mazowieckie,03-113,Warszawa,https://flatcare.otodom.pl
1258,En Casa Premium Real Estate,19.11.2014,Studencka 55,mazowieckie,02-735,Warszawa,https://encasa.otodom.pl
1259,PARTNER HOUSE GROUP,09.07.2020,Wiertnicza 45,mazowieckie,02-953,Warszawa,https://www.otodom.pl/shop/partner-house-group-IDwtSy/
1260,KOLOSEUM NIERUCHOMOŚCI,09.08.2012,Domaniewska 37/31G,mazowieckie,02-672,Warszawa,https://koloseum-nieruchomosci.otodom.pl
1261,Freedom Nieruchomości Franczyza,17.04.2018,Pokorna 2 lok. U13,mazowieckie,00-199,Warszawa,https://www.otodom.pl/shop/freedom-nieruchomosci-franczyza-IDh1mU/
1262,Expander Advisors,30.04.2015,Ul. Inflancka 4b,mazowieckie,00-189,Warszawa,https://www.otodom.pl/shop/expander-advisors-ID3ICK/
1263,Biuro sprzedaży,02.11.2015,Marynarska 21 lok 6,mazowieckie,02-674,Warszawa,https://N-plus.otodom.pl
1264,Metrohouse  Franchise S.A.,02.07.2018,Żelazna 28/30,mazowieckie,00-832,Warszawa,https://metrohouse-franchise.otodom.pl
1265,Maxon Nieruchomosci Sp. z o.o.,28.06.2018,Powązkowska 44C,mazowieckie,01-797,Warszawa,https://www.otodom.pl/shop/maxon-nieruchomosci-sp-z-o-o-IDiDsI/
1266,AdReM Nieruchomości Sp z o.o.,22.01.2018,Bukowińska 24a/34,mazowieckie,02-703,Warszawa,https://adremwarszawa.otodom.pl
1267,Retalia Nieruchomości,12.10.2017,Grzybowska 87,mazowieckie,00-844,Warszawa,https://www.otodom.pl/shop/retalia-nieruchomosci-IDcRRe/
1268,REALS Nieruchomości sp. z o.o.,20.04.2018,Grzybowska 2B lok. 83,mazowieckie,00-131,Warszawa,https://www.otodom.pl/shop/reals-nieruchomosci-sp-z-o-o-IDgTq0/
1269,Wilsons Nieruchomości Sp. z o.o.,22.02.2018,Świętokrzyska 20 lok 311,mazowieckie,00-002,Warszawa,https://wilsons.otodom.pl
1270,Mzuri Sp. z o.o.,14.01.2016,Aleja Niepodległości 221/1,mazowieckie,02-087,Warszawa,https://mzuri.otodom.pl
1271,Sadyba Metrohouse,23.02.2017,Powsińska 34,mazowieckie,02-903,Warszawa,https://metrohousesadyba.otodom.pl
1272,Lions Estate Sp. z o o.,09.09.2016,Wiejska 11/13,mazowieckie,00-480,Warszawa,https://lionsestate.otodom.pl
1273,Axi Immo Group Sp. z o.o.,14.04.2011,Twarda 18,mazowieckie,00-105,Warszawa,https://axi.otodom.pl
1274,INVESTORIUS Sp. z o.o.,09.01.2015,Śniadeckich 17,mazowieckie,00-654,Warszawa,https://investorius.otodom.pl
1275,Euro-House Nieruchomości komercyjne,04.02.2014,ul. Braci Wagów 20 lok u1,mazowieckie,02-791,Warszawa,https://www.otodom.pl/shop/euro-house-nieruchomosci-komercyjne-ID2KPJ/
1276,Biuro Na Miarę,20.02.2018,Nowy Świat 47,mazowieckie,00-042,Warszawa,https://biuronamiare.otodom.pl
1277,Flatcare - nowoczesny zarządca nieruchomości,02.12.2019,Kępa Tarchomińska 6C/1/2,mazowieckie,03-113,Warszawa,https://flatcare.otodom.pl
1278,En Casa Premium Real Estate,19.11.2014,Studencka 55,mazowieckie,02-735,Warszawa,https://encasa.otodom.pl
1279,PARTNER HOUSE GROUP,09.07.2020,Wiertnicza 45,mazowieckie,02-953,Warszawa,https://www.otodom.pl/shop/partner-house-group-IDwtSy/
1280,KOLOSEUM NIERUCHOMOŚCI,09.08.2012,Domaniewska 37/31G,mazowieckie,02-672,Warszawa,https://koloseum-nieruchomosci.otodom.pl
1281,Freedom Nieruchomości Franczyza,17.04.2018,Pokorna 2 lok. U13,mazowieckie,00-199,Warszawa,https://www.otodom.pl/shop/freedom-nieruchomosci-franczyza-IDh1mU/
1282,Expander Advisors,30.04.2015,Ul. Inflancka 4b,mazowieckie,00-189,Warszawa,https://www.otodom.pl/shop/expander-advisors-ID3ICK/
1283,Biuro sprzedaży,02.11.2015,Marynarska 21 lok 6,mazowieckie,02-674,Warszawa,https://N-plus.otodom.pl
1284,Metrohouse  Franchise S.A.,02.07.2018,Żelazna 28/30,mazowieckie,00-832,Warszawa,https://metrohouse-franchise.otodom.pl
1285,Maxon Nieruchomosci Sp. z o.o.,28.06.2018,Powązkowska 44C,mazowieckie,01-797,Warszawa,https://www.otodom.pl/shop/maxon-nieruchomosci-sp-z-o-o-IDiDsI/
1286,AdReM Nieruchomości Sp z o.o.,22.01.2018,Bukowińska 24a/34,mazowieckie,02-703,Warszawa,https://adremwarszawa.otodom.pl
1287,Retalia Nieruchomości,12.10.2017,Grzybowska 87,mazowieckie,00-844,Warszawa,https://www.otodom.pl/shop/retalia-nieruchomosci-IDcRRe/
1288,REALS Nieruchomości sp. z o.o.,20.04.2018,Grzybowska 2B lok. 83,mazowieckie,00-131,Warszawa,https://www.otodom.pl/shop/reals-nieruchomosci-sp-z-o-o-IDgTq0/
1289,Wilsons Nieruchomości Sp. z o.o.,22.02.2018,Świętokrzyska 20 lok 311,mazowieckie,00-002,Warszawa,https://wilsons.otodom.pl
1290,Mzuri Sp. z o.o.,14.01.2016,Aleja Niepodległości 221/1,mazowieckie,02-087,Warszawa,https://mzuri.otodom.pl
1291,Sadyba Metrohouse,23.02.2017,Powsińska 34,mazowieckie,02-903,Warszawa,https://metrohousesadyba.otodom.pl
1292,Lions Estate Sp. z o o.,09.09.2016,Wiejska 11/13,mazowieckie,00-480,Warszawa,https://lionsestate.otodom.pl
1293,Axi Immo Group Sp. z o.o.,14.04.2011,Twarda 18,mazowieckie,00-105,Warszawa,https://axi.otodom.pl
1294,INVESTORIUS Sp. z o.o.,09.01.2015,Śniadeckich 17,mazowieckie,00-654,Warszawa,https://investorius.otodom.pl
1295,Euro-House Nieruchomości komercyjne,04.02.2014,ul. Braci Wagów 20 lok u1,mazowieckie,02-791,Warszawa,https://www.otodom.pl/shop/euro-house-nieruchomosci-komercyjne-ID2KPJ/
1296,Biuro Na Miarę,20.02.2018,Nowy Świat 47,mazowieckie,00-042,Warszawa,https://biuronamiare.otodom.pl
1297,Flatcare - nowoczesny zarządca nieruchomości,02.12.2019,Kępa Tarchomińska 6C/1/2,mazowieckie,03-113,Warszawa,https://flatcare.otodom.pl
1298,En Casa Premium Real Estate,19.11.2014,Studencka 55,mazowieckie,02-735,Warszawa,https://encasa.otodom.pl
1299,PARTNER HOUSE GROUP,09.07.2020,Wiertnicza 45,mazowieckie,02-953,Warszawa,https://www.otodom.pl/shop/partner-house-group-IDwtSy/
1300,KOLOSEUM NIERUCHOMOŚCI,09.08.2012,Domaniewska 37/31G,mazowieckie,02-672,Warszawa,https://koloseum-nieruchomosci.otodom.pl
1301,Freedom Nieruchomości Franczyza,17.04.2018,Pokorna 2 lok. U13,mazowieckie,00-199,Warszawa,https://www.otodom.pl/shop/freedom-nieruchomosci-franczyza-IDh1mU/
1302,Expander Advisors,30.04.2015,Ul. Inflancka 4b,mazowieckie,00-189,Warszawa,https://www.otodom.pl/shop/expander-advisors-ID3ICK/
1303,Biuro sprzedaży,02.11.2015,Marynarska 21 lok 6,mazowieckie,02-674,Warszawa,https://N-plus.otodom.pl
1304,Metrohouse  Franchise S.A.,02.07.2018,Żelazna 28/30,mazowieckie,00-832,Warszawa,https://metrohouse-franchise.otodom.pl
1305,Maxon Nieruchomosci Sp. z o.o.,28.06.2018,Powązkowska 44C,mazowieckie,01-797,Warszawa,https://www.otodom.pl/shop/maxon-nieruchomosci-sp-z-o-o-IDiDsI/
1306,AdReM Nieruchomości Sp z o.o.,22.01.2018,Bukowińska 24a/34,mazowieckie,02-703,Warszawa,https://adremwarszawa.otodom.pl
1307,Retalia Nieruchomości,12.10.2017,Grzybowska 87,mazowieckie,00-844,Warszawa,https://www.otodom.pl/shop/retalia-nieruchomosci-IDcRRe/
1308,REALS Nieruchomości sp. z o.o.,20.04.2018,Grzybowska 2B lok. 83,mazowieckie,00-131,Warszawa,https://www.otodom.pl/shop/reals-nieruchomosci-sp-z-o-o-IDgTq0/
1309,Wilsons Nieruchomości Sp. z o.o.,22.02.2018,Świętokrzyska 20 lok 311,mazowieckie,00-002,Warszawa,https://wilsons.otodom.pl
1310,Mzuri Sp. z o.o.,14.01.2016,Aleja Niepodległości 221/1,mazowieckie,02-087,Warszawa,https://mzuri.otodom.pl
1311,Sadyba Metrohouse,23.02.2017,Powsińska 34,mazowieckie,02-903,Warszawa,https://metrohousesadyba.otodom.pl
1312,Lions Estate Sp. z o o.,09.09.2016,Wiejska 11/13,mazowieckie,00-480,Warszawa,https://lionsestate.otodom.pl
1313,Axi Immo Group Sp. z o.o.,14.04.2011,Twarda 18,mazowieckie,00-105,Warszawa,https://axi.otodom.pl
1314,INVESTORIUS Sp. z o.o.,09.01.2015,Śniadeckich 17,mazowieckie,00-654,Warszawa,https://investorius.otodom.pl
1315,Euro-House Nieruchomości komercyjne,04.02.2014,ul. Braci Wagów 20 lok u1,mazowieckie,02-791,Warszawa,https://www.otodom.pl/shop/euro-house-nieruchomosci-komercyjne-ID2KPJ/
1316,Biuro Na Miarę,20.02.2018,Nowy Świat 47,mazowieckie,00-042,Warszawa,https://biuronamiare.otodom.pl
1317,Flatcare - nowoczesny zarządca nieruchomości,02.12.2019,Kępa Tarchomińska 6C/1/2,mazowieckie,03-113,Warszawa,https://flatcare.otodom.pl
1318,En Casa Premium Real Estate,19.11.2014,Studencka 55,mazowieckie,02-735,Warszawa,https://encasa.otodom.pl
1319,PARTNER HOUSE GROUP,09.07.2020,Wiertnicza 45,mazowieckie,02-953,Warszawa,https://www.otodom.pl/shop/partner-house-group-IDwtSy/
1320,KOLOSEUM NIERUCHOMOŚCI,09.08.2012,Domaniewska 37/31G,mazowieckie,02-672,Warszawa,https://koloseum-nieruchomosci.otodom.pl
1321,Freedom Nieruchomości Franczyza,17.04.2018,Pokorna 2 lok. U13,mazowieckie,00-199,Warszawa,https://www.otodom.pl/shop/freedom-nieruchomosci-franczyza-IDh1mU/
1322,Expander Advisors,30.04.2015,Ul. Inflancka 4b,mazowieckie,00-189,Warszawa,https://www.otodom.pl/shop/expander-advisors-ID3ICK/
1323,Biuro sprzedaży,02.11.2015,Marynarska 21 lok 6,mazowieckie,02-674,Warszawa,https://N-plus.otodom.pl
1324,Metrohouse  Franchise S.A.,02.07.2018,Żelazna 28/30,mazowieckie,00-832,Warszawa,https://metrohouse-franchise.otodom.pl
1325,Maxon Nieruchomosci Sp. z o.o.,28.06.2018,Powązkowska 44C,mazowieckie,01-797,Warszawa,https://www.otodom.pl/shop/maxon-nieruchomosci-sp-z-o-o-IDiDsI/
1326,AdReM Nieruchomości Sp z o.o.,22.01.2018,Bukowińska 24a/34,mazowieckie,02-703,Warszawa,https://adremwarszawa.otodom.pl
1327,Retalia Nieruchomości,12.10.2017,Grzybowska 87,mazowieckie,00-844,Warszawa,https://www.otodom.pl/shop/retalia-nieruchomosci-IDcRRe/
1328,REALS Nieruchomości sp. z o.o.,20.04.2018,Grzybowska 2B lok. 83,mazowieckie,00-131,Warszawa,https://www.otodom.pl/shop/reals-nieruchomosci-sp-z-o-o-IDgTq0/
1329,Wilsons Nieruchomości Sp. z o.o.,22.02.2018,Świętokrzyska 20 lok 311,mazowieckie,00-002,Warszawa,https://wilsons.otodom.pl
1330,Mzuri Sp. z o.o.,14.01.2016,Aleja Niepodległości 221/1,mazowieckie,02-087,Warszawa,https://mzuri.otodom.pl
1331,Sadyba Metrohouse,23.02.2017,Powsińska 34,mazowieckie,02-903,Warszawa,https://metrohousesadyba.otodom.pl
1332,Lions Estate Sp. z o o.,09.09.2016,Wiejska 11/13,mazowieckie,00-480,Warszawa,https://lionsestate.otodom.pl
1333,Axi Immo Group Sp. z o.o.,14.04.2011,Twarda 18,mazowieckie,00-105,Warszawa,https://axi.otodom.pl
1334,INVESTORIUS Sp. z o.o.,09.01.2015,Śniadeckich 17,mazowieckie,00-654,Warszawa,https://investorius.otodom.pl
1335,Euro-House Nieruchomości komercyjne,04.02.2014,ul. Braci Wagów 20 lok u1,mazowieckie,02-791,Warszawa,https://www.otodom.pl/shop/euro-house-nieruchomosci-komercyjne-ID2KPJ/
1336,Biuro Na Miarę,20.02.2018,Nowy Świat 47,mazowieckie,00-042,Warszawa,https://biuronamiare.otodom.pl
1337,Flatcare - nowoczesny zarządca nieruchomości,02.12.2019,Kępa Tarchomińska 6C/1/2,mazowieckie,03-113,Warszawa,https://flatcare.otodom.pl
1338,En Casa Premium Real Estate,19.11.2014,Studencka 55,mazowieckie,02-735,Warszawa,https://encasa.otodom.pl
1339,PARTNER HOUSE GROUP,09.07.2020,Wiertnicza 45,mazowieckie,02-953,Warszawa,https://www.otodom.pl/shop/partner-house-group-IDwtSy/
1340,KOLOSEUM NIERUCHOMOŚCI,09.08.2012,Domaniewska 37/31G,mazowieckie,02-672,Warszawa,https://koloseum-nieruchomosci.otodom.pl
1341,Freedom Nieruchomości Franczyza,17.04.2018,Pokorna 2 lok. U13,mazowieckie,00-199,Warszawa,https://www.otodom.pl/shop/freedom-nieruchomosci-franczyza-IDh1mU/
1342,Expander Advisors,30.04.2015,Ul. Inflancka 4b,mazowieckie,00-189,Warszawa,https://www.otodom.pl/shop/expander-advisors-ID3ICK/
1343,Biuro sprzedaży,02.11.2015,Marynarska 21 lok 6,mazowieckie,02-674,Warszawa,https://N-plus.otodom.pl
1344,Metrohouse  Franchise S.A.,02.07.2018,Żelazna 28/30,mazowieckie,00-832,Warszawa,https://metrohouse-franchise.otodom.pl
1345,Maxon Nieruchomosci Sp. z o.o.,28.06.2018,Powązkowska 44C,mazowieckie,01-797,Warszawa,https://www.otodom.pl/shop/maxon-nieruchomosci-sp-z-o-o-IDiDsI/
1346,AdReM Nieruchomości Sp z o.o.,22.01.2018,Bukowińska 24a/34,mazowieckie,02-703,Warszawa,https://adremwarszawa.otodom.pl
1347,Retalia Nieruchomości,12.10.2017,Grzybowska 87,mazowieckie,00-844,Warszawa,https://www.otodom.pl/shop/retalia-nieruchomosci-IDcRRe/
1348,REALS Nieruchomości sp. z o.o.,20.04.2018,Grzybowska 2B lok. 83,mazowieckie,00-131,Warszawa,https://www.otodom.pl/shop/reals-nieruchomosci-sp-z-o-o-IDgTq0/
1349,Wilsons Nieruchomości Sp. z o.o.,22.02.2018,Świętokrzyska 20 lok 311,mazowieckie,00-002,Warszawa,https://wilsons.otodom.pl
1350,Mzuri Sp. z o.o.,14.01.2016,Aleja Niepodległości 221/1,mazowieckie,02-087,Warszawa,https://mzuri.otodom.pl
1351,Sadyba Metrohouse,23.02.2017,Powsińska 34,mazowieckie,02-903,Warszawa,https://metrohousesadyba.otodom.pl
1352,Lions Estate Sp. z o o.,09.09.2016,Wiejska 11/13,mazowieckie,00-480,Warszawa,https://lionsestate.otodom.pl
1353,Axi Immo Group Sp. z o.o.,14.04.2011,Twarda 18,mazowieckie,00-105,Warszawa,https://axi.otodom.pl
1354,INVESTORIUS Sp. z o.o.,09.01.2015,Śniadeckich 17,mazowieckie,00-654,Warszawa,https://investorius.otodom.pl
1355,Euro-House Nieruchomości komercyjne,04.02.2014,ul. Braci Wagów 20 lok u1,mazowieckie,02-791,Warszawa,https://www.otodom.pl/shop/euro-house-nieruchomosci-komercyjne-ID2KPJ/
1356,Biuro Na Miarę,20.02.2018,Nowy Świat 47,mazowieckie,00-042,Warszawa,https://biuronamiare.otodom.pl
1357,Flatcare - nowoczesny zarządca nieruchomości,02.12.2019,Kępa Tarchomińska 6C/1/2,mazowieckie,03-113,Warszawa,https://flatcare.otodom.pl
1358,En Casa Premium Real Estate,19.11.2014,Studencka 55,mazowieckie,02-735,Warszawa,https://encasa.otodom.pl
1359,PARTNER HOUSE GROUP,09.07.2020,Wiertnicza 45,mazowieckie,02-953,Warszawa,https://www.otodom.pl/shop/partner-house-group-IDwtSy/
